BUSINESSTYPE,BUSINESSNAME,STREETNUMBER,STREET,STREETTYPE,STREETDIR,UNITTYPE,UNITY,CITY,PROV,POSTAL,OBJECTID,lon,lat
City Operated,BRAE BEN GOLF COURSE,5700,TERRY FOX,WAY,,,,MISSISSAUGA,ON,L5V 2W2,1,-79.6958116,43.6014974
City Operated,BRAEBEN ACADEMY CLUBHOUSE,5700,TERRY FOX,WAY,,,,MISSISSAUGA,ON,L5V 2W2,2,-79.6958116,43.6014974
City Operated,BURNHAMTHORPE COMMUNITY CENTRE,1500,GULLEDEN,DR,,,,MISSISSAUGA,ON,L4X2T7,3,-79.5986184,43.6214378
City Operated,C BANQUETS / CITY OF MISSISSAUGA,300,CITY CENTRE,DR,,,,MISSISSAUGA,ON,L5B3C1,4,-79.6442456,43.5887819
City Operated,C CAFE,300,CITY CENTRE,DR,,,GROUND FLOOR,MISSISSAUGA,ON,L5B 3C1,5,-79.6442456,43.5887819
City Operated,CAWTHRA ARENA / SNACK BAR,1399,CAWTHRA,RD,,,,MISSISSAUGA,ON,L5G 4L1,6,-79.5764984,43.5799047
City Operated,CITY OF MISSISSAUGA/PUBLIC MARINA,135,LAKEFRONT PROM,,,,,MISSISSAUGA,ON,L5E3G9,7,-79.5592903,43.5697048
City Operated,ERIN MILLS TWIN ARENA,3205,UNITY,DR,,,,MISSISSAUGA,ON,,8,NA,NA
City Operated,HURON PARK ARENA,830,PAISLEY,BL,W,,,MISSISSAUGA,ON,L5C3P5,9,-79.6303844,43.5594301
City Operated,ICEBREAKERS PUB,705,MATHESON,BLVD,E,,,MISSISSAUGA,ON,L4Z3X9,10,-79.65407,43.6259136
City Operated,MEADOWVALE FOUR RINKS,2160,TORQUAY,MEWS,,,,MISSISSAUGA,ON,L5N2M6,11,-79.7417401,43.5958534
City Operated,MISSISSAUGA VALLEY COMMUNITY CENTRE,1275,MISSISSAUGA VALLEY,BL,,,,MISSISSAUGA,ON,,12,NA,NA
City Operated,PORT CREDIT ARENA,40,STAVEBANK,RD,N,,,MISSISSAUGA,ON,,13,NA,NA
City Operated,TIME OUT,705,MATHESON,BLVD,E,,,MISSISSAUGA,ON,L4Z3X9,14,-79.65407,43.6259136
City Operated,TOMKEN TWIN ARENA,4495,TOMKEN,RD,,,,MISSISSAUGA,ON,L4W1J9,15,-79.6256465,43.624803
City Operated Facility,CLARKSON COMMUNITY CENTRE,2475,TRUSCOTT,DR,,,,MISSISSAUGA,ON,,16,NA,NA
City Operated Facility,LAKEVIEW GOLF COURSE,1190,DIXIE,RD,,,,MISSISSAUGA,ON,L5E2P4,17,-79.5610464,43.5879915
City Operated Facility,MEADOWVALE THEATRE SNACK BAR,6315,MONTEVIDEO,RD,,,,MISSISSAUGA,ON,L5N 4G7,18,-79.7459461,43.5861298
Lunch Counter,7-ELEVEN #3700,6145,VISCOUNT,RD,,UNIT,403,MISSISSAUGA,ON,L4V 1T2,19,-79.618276,43.6902918
Lunch Counter,7-ELEVEN (CANADA STORE #33000),6980,LISGAR,DR,,,,MISSISSAUGA,ON,L5N 8C8,20,-79.783616,43.5762994
Lunch Counter,7-ELEVEN (CANADA STORE #33377),3965,THOMAS,ST,,,,MISSISSAUGA,ON,L5M 7B8,21,-79.7506776,43.5486498
Lunch Counter,7-ELEVEN CANADA / 37001H,1,LESTER B PEARSON INTL AIRPORT,,,,,MISSISSAUGA,ON,,22,NA,NA
Lunch Counter,7-ELEVEN CANADA STORE 33207,2330,BATTLEFORD,RD,,,,MISSISSAUGA,ON,L5N3K6,23,-79.738936,43.583713
Lunch Counter,A CATERED AFFAIR,1100,BURNHAMTHORPE,RD,W,Unit,26,MISSISSAUGA,ON,L5C 4G4,24,-79.6612622,43.5699763
Lunch Counter,AFGHAN CHAPLEE KABOB,1400,AIMCO,BLVD,,UNIT,H430,MISSISSAUGA,ON,L4W 1B2,25,-79.6274013,43.6341663
Lunch Counter,APPLEWOOD VALUMART,1125,BLOOR,ST,,,,MISSISSAUGA,ON,L4Y 2N6,26,-79.6014269,43.6115997
Lunch Counter,ARAMARK #3962 / APPLEWOOD HEIGHTS SS,945,BLOOR,ST,,,,MISSISSAUGA,ON,L4Y2M8,27,-79.6049374,43.6065758
Lunch Counter,ARAMARK #3965 / CAWTHRA PARK SS,1305,CAWTHRA,RD,,,,MISSISSAUGA,ON,,28,NA,NA
Lunch Counter,ARAMARK #3969 / ERINDALE SS,2021,DUNDAS,ST,W,,,MISSISSAUGA,ON,L5K1R2,29,-79.6666998,43.5391022
Lunch Counter,ARAMARK #3979 / MISSISSAUGA SS,550,COURTNEYPARK,DR,W,,,MISSISSAUGA,ON,L5W 1L9,30,-79.707033,43.6239006
Lunch Counter,ARAMARK / BRITANNIA ADULT CENTER,100,ELM,DR,W,,,MISSISSAUGA,ON,L5B1L9,31,-79.6330164,43.5883508
Lunch Counter,ARAMARK / CLARKSON SS,2524,BROMSGROVE,RD,,,,MISSISSAUGA,ON,L5J1L8,32,-79.6456491,43.50386
Lunch Counter,ARAMARK / GLENFOREST SS,3575,FIELDGATE,DR,,,,MISSISSAUGA,ON,L4X2J6,33,-79.592299,43.6267959
Lunch Counter,ARAMARK / GORDON GRAYDON MEMORIAL SS,1490,OGDEN,AVE,,,,MISSISSAUGA,ON,L5E 2H8,34,-79.5719333,43.5857246
Lunch Counter,ARAMARK / JOHN FRASER SS,2665,ERIN CENTRE,BL,,,,MISSISSAUGA,ON,,35,NA,NA
Lunch Counter,ARAMARK / LINCOLN M ALEXANDER SS,3545,MORNING STAR,DR,,,,MISSISSAUGA,ON,L4T1Y3,36,-79.6400348,43.7242919
Lunch Counter,ARAMARK / LORNE PARK SS,1324,LORNE PARK,RD,,,,MISSISSAUGA,ON,L5H3B1,37,-79.6245936,43.5316913
Lunch Counter,ARAMARK / MEADOWVALE SS,6700,EDENWOOD,DR,,,,MISSISSAUGA,ON,L5N3B2,38,-79.7620673,43.5780737
Lunch Counter,ARAMARK / MORNING STAR MIDDLE SCHOOL,3131,MORNING STAR,DR,,,,MISSISSAUGA,ON,L4T 1X3,39,-79.6477544,43.7143285
Lunch Counter,ARAMARK / PORT CREDIT SS,70,MINEOLA,RD,E,,,MISSISSAUGA,ON,L5G2E5,40,-79.5880858,43.56284
Lunch Counter,ARAMARK / STEPHEN LEWIS SS,3675,THOMAS,ST,,,,MISSISSAUGA,ON,L5M 1E6,41,-79.7219341,43.5811345
Lunch Counter,ARAMARK / STREETSVILLE SS,72,JOYMAR,DR,,,,MISSISSAUGA,ON,,42,NA,NA
Lunch Counter,ARAMARK / T L KENNEDY SS,3100,HURONTARIO,ST,,,,MISSISSAUGA,ON,L5B1N7,43,-79.6210839,43.580723
Lunch Counter,ARAMARK / THE WOODLANDS SS,3225,ERINDALE STATION,RD,,,,MISSISSAUGA,ON,L5C1Y5,44,-79.6477544,43.5617592
Lunch Counter,ATLANTIC BAKERY,4025,BRANDON GATE,DR,,Unit,D,MISSISSAUGA,ON,L4T 3Z9,45,-79.6349465,43.7325673
Lunch Counter,AVO CONVENIENCE,1,GLENN HAWTHORNE,BLVD,,UNIT,2,MISSISSAUGA,ON,L5R 0C2,46,-79.6619199,43.6133037
Lunch Counter,BACK NINE HD GOLF INC,7170,WEST CREDIT,AVE,,Unit,1,MISSISSAUGA,ON,L5N 7E5,47,-79.7566354,43.6083401
Lunch Counter,BASKIN ROBBINS,6040,GLEN ERIN,DR,,,3,MISSISSAUGA,ON,L5N3M4,48,-79.739637,43.5748593
Lunch Counter,BASKIN-ROBBINS ICE CREAM,4099,ERIN MILLS,PKWY,,Unit,3,MISSISSAUGA,ON,L5L 3P9,49,-79.6884469,43.5511919
Lunch Counter,BIG SLICK BAR AND LOUNGE,1965,BRITANNIA,RD,W,Unit,B2-B3,MISSISSAUGA,ON,L5M4Y4,50,-79.7220218,43.5890922
Lunch Counter,BO BO CHI,1400,AIMCO,BLVD,,Unit,H435,MISSISSAUGA,ON,L4W1E1,51,NA,NA
Lunch Counter,BOLLYWOOD UNLIMITED,512,BRISTOL,RD,W,UNIT,2,MISSISSAUGA,ON,,52,NA,NA
Lunch Counter,BURNHAMTHORPE FRUIT MARKET,3647,DIXIE,RD,,,,MISSISSAUGA,ON,L4Y2B3,53,-79.5986184,43.6202502
Lunch Counter,CARIBBEAN SENSATION,1400,AIMCO,BLVD,,UNIT,Z436,MISSISSAUGA,ON,L5W 1E1,54,-79.717727,43.6288786
Lunch Counter,CAROUSEL FOODS,4141,DIXIE,RD,,Unit,46,MISSISSAUGA,ON,L4W1V5,55,-79.6045863,43.6252506
Lunch Counter,CENTRAL BILLIARDS AND COFFEE SHOP,128,QUEEN,ST,S,UNIT,2 BASEMENT,MISSISSAUGA,ON,L5M 1K8,56,-79.7164999,43.5828713
Lunch Counter,CENTRE BOWL,4300,CAWTHRA,RD,,,,MISSISSAUGA,ON,L4Z 1V8,57,-79.6266994,43.613319
Lunch Counter,CHIBUGAN EH!,1400,AIMCO,BLVD,,UNIT,H427,MISSISSAUGA,ON,,58,NA,NA
Lunch Counter,CHIPOTLE MEXICAN GRILL,100,CITY CENTRE,DR,,Unit,FCU-3,MISSISSAUGA,ON,L5B 2C9,59,-79.6424911,43.5930784
Lunch Counter,CHUTNEY SWAMY INC,2911,EGLINTON,AVE,W,Unit,2,MISSISSAUGA,ON,L5M 6J3,60,-79.715448,43.5533444
Lunch Counter,CINEPLEX CINEMAS MISSISSAUGA,309,RATHBURN,RD,W,,,MISSISSAUGA,ON,L5B4C1,61,-79.6481053,43.594779
Lunch Counter,CINEPLEX ODEON COURTNEY PARK,110,COURTNEYPARK,DR,E,,,MISSISSAUGA,ON,L5T 2Y3,62,-79.6902004,43.636624
Lunch Counter,CINNABON WORLD FAMOUS CINNAMON ROLLS,100,CITY CENTRE,DR,,Unit,1-143B,MISSISSAUGA,ON,L5B 2C9,63,-79.6424911,43.5930784
Lunch Counter,CINNABON WORLD FAMOUS CINNAMON ROLLS,1250,SOUTH SERVICE,RD,,Unit,143,MISSISSAUGA,ON,L5E 1V4,64,-79.5691239,43.5943785
Lunch Counter,CLASSIC BOWL,3055,DUNDAS,ST,W,Unit,20,MISSISSAUGA,ON,L5L 3R8,65,-79.6849396,43.521722
Lunch Counter,CLOCK CAFFE,910,MIDWAY,BLVD,,,,MISSISSAUGA,ON,L5T 1T9,66,-79.6793278,43.6573018
Lunch Counter,COMPASS / ROGERS #20186,59,AMBASSADOR,DR,,,,MISSISSAUGA,ON,L5T 2P9,67,-79.6968637,43.6410883
Lunch Counter,COMPASS / SAMSUNG #23103,2050,DERRY,RD,W,,,MISSISSAUGA,ON,L5N 0B9,68,-79.7531309,43.6080238
Lunch Counter,COOL CAKES AND PASTRIES,4,MISSISSAUGA,RD,N,UNIT,1,MISSISSAUGA,ON,L5H 2H4,69,-79.5904557,43.5482673
Lunch Counter,COSENZA SOCIAL CLUB,720,BURNHAMTHORPE,RD,W,Unit,21A,MISSISSAUGA,ON,L5C3G1,70,-79.6521403,43.5777643
Lunch Counter,COSTCO CENTRAL MISSISSAUGA #1169,1570,DUNDAS,ST,E,,,MISSISSAUGA,ON,L4X 1L4,71,-79.5779031,43.6109261
Lunch Counter,COSTCO-MISSISSAUGA #531,3180,LAIRD,RD,,,,MISSISSAUGA,ON,L5L 6A5,72,-79.6884469,43.5208504
Lunch Counter,COUSINS FOODS,1215,HURONTARIO,ST,,,,MISSISSAUGA,ON,L5G3H2,73,-79.5875591,43.5599677
Lunch Counter,DAIRY QUEEN,1641,LAKESHORE,RD,W,,,MISSISSAUGA,ON,L5J1J4,74,-79.6203819,43.5205967
Lunch Counter,DAIRY QUEEN,2425,TRUSCOTT,DR,,Unit,13A,MISSISSAUGA,ON,L5J2B4,75,-79.6484562,43.5124491
Lunch Counter,DAIRY QUEEN / ORANGE JULIUS,100,CITY CENTRE,DR,,Unit,2-102,MISSISSAUGA,ON,L5B 2C9,76,-79.6424911,43.5930784
Lunch Counter,DAISY MART 81242,1525,BRISTOL,RD,W,Unit,5&6,MISSISSAUGA,ON,L5M 4Z1,77,-79.6987924,43.586169
Lunch Counter,DANA HOSPITALITY/IMAX CORPORATION,2525,SPEAKMAN,DR,,,,MISSISSAUGA,ON,L5K1B1,78,-79.6649457,43.5178202
Lunch Counter,DAVIDS TEA,100,CITY CENTRE,DR,,UNIT,2-907A,MISSISSAUGA,ON,L5B 2G6,79,-79.6424911,43.5930784
Lunch Counter,DE CODE ADVENTURES,6620,KITIMAT,RD,,Unit,4,MISSISSAUGA,ON,L5N 2B8,80,-79.7354307,43.5994427
Lunch Counter,DESI CORNER,40,DUNDAS,ST,E,UNIT,C1,MISSISSAUGA,ON,L5A 1W2,81,-79.6155558,43.5807373
Lunch Counter,DIXIE ESSO SERVICE CENTRE,6070,DIXIE,RD,,UNIT,2,MISSISSAUGA,ON,L5T 1A6,82,-79.6505614,43.6564621
Lunch Counter,DRUXYS FAMOUS DELI #74,15,BRONTE COLLEGE,CRT,,Unit,G2,MISSISSAUGA,ON,L5B 0E7,83,-79.6051249,43.571797
Lunch Counter,EASTERN FOODS INTERNATIONAL,3071,HURONTARIO,ST,,,,MISSISSAUGA,ON,L5A2G9,84,-79.6188025,43.5827429
Lunch Counter,ERINDALE BASEBALL/SPRINGFIELD SCHOOL PK,3353,THE CREDIT WOODLANDS,,,Unit,5,MISSISSAUGA,ON,L5C2K1,85,-79.6577538,43.559252
Lunch Counter,FRESH MEAT & LAHORI KITCHEN,4025,BRANDON GATE,DR,,UNIT,C,MISSISSAUGA,ON,L4T 3Z9,86,-79.6349465,43.7325673
Lunch Counter,FRESHLY SQUEEZED,5100,ERIN MILLS,PKWY,,Unit,F15,MISSISSAUGA,ON,L5M 4Z5,87,-79.71089,43.5603651
Lunch Counter,GATEWAY ON THE GO,1110,SOUTHDOWN,RD,,,,MISSISSAUGA,ON,,88,NA,NA
Lunch Counter,GATEWAY ON THE GO #231,6845,MILLCREEK,DR,,,,MISSISSAUGA,ON,L5N5M4,89,-79.7533061,43.5960067
Lunch Counter,GILLS ESSO,5585,WINSTON CHURCHILL,BLVD,,,,MISSISSAUGA,ON,L5M2B2,90,NA,NA
Lunch Counter,GOURMET ON THE GO,316,LAKESHORE,RD,E,,,MISSISSAUGA,ON,L5G1H4,91,-79.5745671,43.5623418
Lunch Counter,HASTY MARKET NO.27,3154,HURONTARIO,ST,,Unit,2,MISSISSAUGA,ON,L5B1N9,92,-79.6224878,43.5832286
Lunch Counter,HASTY MARKET NO.28,3476,GLEN ERIN,DR,,Unit,1,MISSISSAUGA,ON,L5L 3R4,93,-79.6877454,43.5374471
Lunch Counter,ISHTAR FOOD & BAKERY INC,2399,CAWTHRA,RD,,Unit,26,MISSISSAUGA,ON,L5A 2W9,94,-79.5937033,43.5912884
Lunch Counter,JOHN PAUL II CULTURAL CENTRE,4300,CAWTHRA,RD,,,,MISSISSAUGA,ON,L4Z 1V8,95,-79.6266994,43.613319
Lunch Counter,JUST CATERING FOOD SERVICES/ ST. MARCELLINUS SS,730,COURTNEYPARK,DR,W,,,MISSISSAUGA,ON,L5W 1L9,96,-79.707033,43.6239006
Lunch Counter,JUST CATERING SERVICES/JOHN CABOT SS,635,WILLOWBANK,TRAIL,,,,MISSISSAUGA,ON,L4W 3L6,97,-79.6210839,43.6133994
Lunch Counter,KANSAS CAFE/DIXIE TOYOTA,5500,DIXIE,RD,,Unit,E,MISSISSAUGA,ON,L4W4N3,98,-79.635122,43.6455569
Lunch Counter,KERNELS,100,CITY CENTRE,DR,,Unit,2-102,MISSISSAUGA,ON,L5B 2C9,99,-79.6424911,43.5930784
Lunch Counter,KERNELS,1250,SOUTH SERVICE,RD,,Unit,K-03A,MISSISSAUGA,ON,L5E 1V4,100,-79.5691239,43.5943785
Lunch Counter,LA NOVITA BAKERY,25,JOHN,ST,,Unit,1,MISSISSAUGA,ON,L5A1Y5,101,-79.61968,43.5859431
Lunch Counter,LA SEM PATISSERIE (2012) LIMITED,1275,EGLINTON,AVE,E,Unit,62A,MISSISSAUGA,ON,L4W2Z2,102,-79.6233652,43.6336488
Lunch Counter,LA VILLA FINE FOODS,331,LAKESHORE,RD,E,,,MISSISSAUGA,ON,L5G1H3,103,-79.5756206,43.5606551
Lunch Counter,LAMOUREUX BAKERY,2217,BOSTOCK,CRES,,UNIT,5,MISSISSAUGA,ON,L5J 3S8,104,-79.6433684,43.513324
Lunch Counter,LAURA SECORD,100,CITY CENTRE,DR,,Unit,2-102,MISSISSAUGA,ON,L5B 2C9,105,-79.6424911,43.5930784
Lunch Counter,LAURA SECORD,2225,ERIN MILLS,PKWY,,Unit,101A,MISSISSAUGA,ON,L5K1T9,106,-79.6523157,43.5309503
Lunch Counter,LIFE TIME ATHLETIC,3055,PEPPER MILL,CRT,,,,MISSISSAUGA,ON,L5L 4X5,107,-79.707033,43.5394953
Lunch Counter,LISBOA BAKERY & DELI OF MISSISSAUGA INC,735,TWAIN,AVE,,Unit,19,MISSISSAUGA,ON,,108,NA,NA
Lunch Counter,LONGOS,1125,NORTH SERVICE,RD,,,,MISSISSAUGA,ON,L4Y 1A6,109,-79.5742159,43.5926186
Lunch Counter,LONGOS,5636,GLEN ERIN,DR,,Unit,1,MISSISSAUGA,ON,L5M 6B1,110,-79.7291209,43.5655842
Lunch Counter,M.M. FOODS,210,ANNAGEM,BLVD,,,,MISSISSAUGA,ON,L5T 2V5,111,-79.6856411,43.6388814
Lunch Counter,MANGO MIRCHI,5359,TIMBERLEA,BLVD,,Unit,55,MISSISSAUGA,ON,L4W 4N5,112,-79.6421402,43.630763
Lunch Counter,MAVIS KITCHEN FOOD FAIR,735,TWAIN,AVE,,UNIT,3,MISSISSAUGA,ON,,113,NA,NA
Lunch Counter,MEADOWVALE TOYOTA,2950,ARGENTIA,RD,,,,MISSISSAUGA,ON,L5N 8C5,114,-79.7809884,43.5976109
Lunch Counter,METRO #46,910,SOUTHDOWN,RD,,,,MISSISSAUGA,ON,L56 2Y4,115,15.35929,48.6910849
Lunch Counter,METRO #728,6677,MEADOWVALE TOWN CENTRE,CIR,,,,MISSISSAUGA,ON,L5N2R5,116,-79.759439,43.5833356
Lunch Counter,MILAN ICE CREAM & PAAN,3899,TRELAWNY,CIR,,Unit,15,MISSISSAUGA,ON,L5N 3S6,117,-79.7592638,43.5873321
Lunch Counter,MISSISSAUGA NORTH BASEBALL ASSOCIATION,2255,MEADOWVALE,BLVD,,,,MISSISSAUGA,ON,,118,NA,NA
Lunch Counter,MISSISSAUGA SOUTHWEST BASEBALL ASSOCIATION INC,3195,THE COLLEGEWAY,,,,,MISSISSAUGA,ON,L5L1L6,119,-79.6938828,43.5396405
Lunch Counter,MONTE CARLO BILLIARDS AND SPORTS BAR,1590,DUNDAS,ST,E,Unit,6,MISSISSAUGA,ON,L4X2Z2,120,-79.5780786,43.6140601
Lunch Counter,MR. INDIA GROCERS,3950,GRAND PARK,DR,,UNIT,2,MISSISSAUGA,ON,L5B 4M6,121,-79.6463509,43.5824369
Lunch Counter,MR. SUB,1250,SOUTH SERVICE,RD,,Unit,68,MISSISSAUGA,ON,L5E 1V4,122,-79.5691239,43.5943785
Lunch Counter,MRS. FIELDS COOKIES,100,CITY CENTRE,DR,,Unit,1-816,MISSISSAUGA,ON,L5B 2C9,123,-79.6424911,43.5930784
Lunch Counter,MURPHYS ICE CREAM PARLOUR,9A,MAIN,ST,,,,MISSISSAUGA,ON,L5M1X4,124,-79.7120295,43.5813516
Lunch Counter,MY DELISH BREAD,1550,SOUTH GATEWAY,RD,,Suite,6A,MISSISSAUGA,ON,,125,NA,NA
Lunch Counter,MYMUNCHBOX PERSONAL CHEF SERVICES INC,4900,TOMKEN,RD,,,,MISSISSAUGA,ON,L4W 1J8,126,-79.6291561,43.6209671
Lunch Counter,NANDYS CAFE,6600,TURNER VALLEY,RD,,,,MISSISSAUGA,ON,L5N5Z1,127,-79.7398122,43.5973134
Lunch Counter,OLIVIAS DELI & CONVENIENCE,2076,SHEROBEE,RD,,Unit,2,MISSISSAUGA,ON,L5A 4C5,128,-79.6016024,43.5719558
Lunch Counter,ON THE GO,4720,TAHOE,BLVD,,,,MISSISSAUGA,ON,L4W 5P2,129,-79.6077457,43.6406785
Lunch Counter,ORIENTAL MARKET,113,DUNDAS,ST,W,,,MISSISSAUGA,ON,L5B1H8,130,-79.6216104,43.5764622
Lunch Counter,PARAMOUNT BUTCHER SHOP,4646,HERITAGE HILLS,BLVD,,Unit,18&19,MISSISSAUGA,ON,L5R 1N4,131,-79.6602097,43.599299
Lunch Counter,PETRO CANADA,3425,WINSTON CHURCHILL,BLVD,,,,MISSISSAUGA,ON,L5L 3R5,132,-79.6928307,43.5312158
Lunch Counter,PETRO CANADA,6536,WINSTON CHURCHILL,BLVD,,,,MISSISSAUGA,ON,L5N3W4,133,-79.7625929,43.5815395
Lunch Counter,PETRO CANADA,695,BURNHAMTHORPE,RD,W,,,MISSISSAUGA,ON,L5C 3A6,134,-79.652842,43.579017
Lunch Counter,PETRO CANADA,995,EGLINTON,AVE,E,,,MISSISSAUGA,ON,L4W4H3,135,-79.6314372,43.6266683
Lunch Counter,PIZZERIA DEI SASSI,5200,DIXIE,RD,,Unit,6,MISSISSAUGA,ON,L4M 1E4,136,-79.6508245,44.3939228
Lunch Counter,PLANET ORGANIC MARKET,170,LAKESHORE,RD,E,Unit,101,MISSISSAUGA,ON,,137,NA,NA
Lunch Counter,PLAZA PREMIUM INT DEP L3 RM FG3051,1,LESTER B PEARSON INTL AIRPORT,,,,,MISSISSAUGA,ON,,138,NA,NA
Lunch Counter,PLAZA PREMIUM LOUNG TRM 3 DD L2/RMG219,1,LESTER B PEARSON INTL AIRPORT,,,,,MISSISSAUGA,ON,,139,NA,NA
Lunch Counter,PLAZA PREMIUM LOUNGE US DEP/L2 RFD2048,1,LESTER B PEARSON INTL AIRPORT,,,,,MISSISSAUGA,ON,,140,NA,NA
Lunch Counter,PLAZA PREMIUM LOUNGE/ DD L3/EC3305,1,LESTER B PEARSON INTL AIRPORT,,,,,MISSISSAUGA,ON,,141,NA,NA
Lunch Counter,PLAZA PREMIUM TERM 3 I DPT TR BH339 & BH341,1,LESTER B PEARSON INTL AIRPORT,,,,,MISSISSAUGA,ON,,142,NA,NA
Lunch Counter,PORCHINI PARTY SERVICE & CATERING INC,7215,GOREWAY,DR,,Unit,2A10-2A11,MISSISSAUGA,ON,L4T 0B4,143,-79.6445965,43.7161148
Lunch Counter,PORT CREDIT ESSO/TIM HORTONS,181,LAKESHORE,RD,W,,,MISSISSAUGA,ON,L5H1G5,144,-79.5877346,43.5452672
Lunch Counter,PRETZELSMAKER / MRS FIELDS,5100,ERIN MILLS,PKWY,,UNIT,E215,MISSISSAUGA,ON,L5M 4Z5,145,-79.71089,43.5603651
Lunch Counter,PURDY CHOCOLATES,5100,ERIN MILLS,PKWY,,,R.218,MISSISSAUGA,ON,L5M4Z5,146,-79.71089,43.5603651
Lunch Counter,PUTTING EDGE ENTERTAINMENT CORPORATION,90,COURTNEYPARK,DR,E,Unit,N1,MISSISSAUGA,ON,L5T 2Y3,147,-79.6902004,43.636624
Lunch Counter,RABBA FINE FOOD,2325,HURONTARIO,ST,,Unit,1-2,MISSISSAUGA,ON,L5A4C7,148,-79.6075702,43.5751772
Lunch Counter,RABBA FINE FOOD,645,LAKESHORE,RD,E,,,MISSISSAUGA,ON,L5G1J5,149,-79.5668412,43.5696565
Lunch Counter,RABBA FINE FOODS,2090,HURONTARIO,ST,,,,MISSISSAUGA,ON,L5B 1M8,150,-79.6056395,43.5721771
Lunch Counter,RABBA FINE FOODS,25,KINGSBRIDGE GARDEN,CIR,,Unit,3-8,MISSISSAUGA,ON,L5R 4B1,151,-79.6500351,43.6037184
Lunch Counter,RABBA FINE FOODS,2760,DERRY,RD,W,,1,MISSISSAUGA,ON,L5N3N5,152,-79.7641698,43.5937183
Lunch Counter,RABBA FINE FOODS,6720,MEADOWVALE TOWN CENTRE,CIR,,,,MISSISSAUGA,ON,L5N2W2,153,-79.7548832,43.5829245
Lunch Counter,RABBA FINE FOODS,92,LAKESHORE,RD,E,,,MISSISSAUGA,ON,L5G4S2,154,-79.5843113,43.5533524
Lunch Counter,REIDS FACILITY MANAGEMENT GROUP INC,6390,NORTHWEST,DR,,,,MISSISSAUGA,ON,L4V1S1,155,-79.618276,43.7003716
Lunch Counter,REXWOOD ESSO,6998,REXWOOD,RD,,,,MISSISSAUGA,ON,L4T4E6,156,-79.6275768,43.7155973
Lunch Counter,RINCON DE ESPANA INC,550,LAKESHORE,RD,E,,,MISSISSAUGA,ON,L5G1J3,157,-79.5690361,43.5669606
Lunch Counter,ROYAL FAUCHON,169,DUNDAS,ST,E,UNIT,6B,MISSISSAUGA,ON,L5A 1W8,158,-79.6114314,43.5853368
Lunch Counter,ROYAL MEAT PRODUCTS LTD,3635,CAWTHRA,RD,,Unit,O&P,MISSISSAUGA,ON,L5A 2Y5,159,-79.6171353,43.6071729
Lunch Counter,RUSSEL METALS INC.,6600,FINANCIAL,DR,,,,MISSISSAUGA,ON,L5N 7J6,160,-79.739637,43.6093298
Lunch Counter,SANDWICH PLANNER 2,155,BRITANNIA,RD,E,,,MISSISSAUGA,ON,L4Z 4C3,161,-79.68038,43.6297938
Lunch Counter,SCOOTER ROLLER PALACE,2105,ROYAL WINDSOR,DR,,,,MISSISSAUGA,ON,L5J1K5,162,-79.6354729,43.5079906
Lunch Counter,SEEMIS KITCHEN,3355,THE COLLEGEWAY,,,UNIT,8-10,MISSISSAUGA,ON,L5L 5T3,163,-79.7045784,43.5241001
Lunch Counter,SHANGHAI 360,100,CITY CENTRE,DR,,Unit,1-828,MISSISSAUGA,ON,L5B 2C9,164,-79.6424911,43.5930784
Lunch Counter,SHELL /  FLYING J,1400,BRITANNIA,RD,E,,,MISSISSAUGA,ON,L4W 1C8,165,-79.6509123,43.6508561
Lunch Counter,SLICE ONE PIZZA,4025,BRANDON GATE,DR,,Unit,5,MISSISSAUGA,ON,L4T 3Z9,166,-79.6349465,43.7325673
Lunch Counter,SOUTH-WESTERN RECREATION AND SAUNA CLUB,2200,DUNDAS,ST,E,UNIT,9B,MISSISSAUGA,ON,L4X 2B3,167,-79.5772008,43.6150187
Lunch Counter,STARSKY INC,3115,DUNDAS,ST,W,,,MISSISSAUGA,ON,L5L3R8,168,-79.6849396,43.521722
Lunch Counter,STEAMUL SAUNA,1310,DUNDAS,ST,E,Unit,1314,MISSISSAUGA,ON,L4Y2C1,169,-79.5880858,43.6044367
Lunch Counter,STRANO / ST. JOAN OF ARC SS,3801,THOMAS,ST,,,,MISSISSAUGA,ON,,170,NA,NA
Lunch Counter,SUBWAY SANDWICH & SALAD,1900,FOWLER,DR,,UNIT,D-110,MISSISSAUGA,ON,L5K 0A1,171,-79.6515263,43.5279778
Lunch Counter,SUBWAY SANDWICHES & SALADS,2150,BURNHAMTHORPE,RD,W,Unit,19,MISSISSAUGA,ON,L5L3A2,172,-79.6843258,43.5449439
Lunch Counter,SUBWAY SANDWICHES AND SALADS,5025,HEATHERLEIGH,AVE,,Unit,1,MISSISSAUGA,ON,L5V 2Y7,173,-79.6717862,43.5908461
Lunch Counter,SUSHI IN THE SKY,13,STAVEBANK,RD,,,,MISSISSAUGA,ON,L5G2T3,174,-79.6076579,43.5583173
Lunch Counter,SWEET PHILOSOPHY INC,301,LAKESHORE,RD,E,,,MISSISSAUGA,ON,L5G 1H3,175,-79.5756206,43.5606551
Lunch Counter,SWEET ROSIES COOKIES,2150,BURNHAMTHORPE,RD,W,Unit,49,MISSISSAUGA,ON,L5L3A2,176,-79.6843258,43.5449439
Lunch Counter,SZECHUAN EXPRESS,100,CITY CENTRE,DR,,UNIT ,1-143,MISSISSAUGA,ON,L5B 2C9,177,-79.6424911,43.5930784
Lunch Counter,T & T SUSHI BAR,250,LAKESHORE,RD,W,,,MISSISSAUGA,ON,L5H1G6,178,-79.5931767,43.5468071
Lunch Counter,TAJ MAHAL FOOD,1185,DUNDAS,ST,E,Unit,4A&B,MISSISSAUGA,ON,L4Y 2C6,179,-79.5897535,43.6054064
Lunch Counter,TEAVANA,100,CITY CENTRE,DR,,UNIT,2-309A,MISSISSAUGA,ON,L5B 2G6,180,-79.6424911,43.5930784
Lunch Counter,TEES INDOOR GOLF,3400,RIDGEWAY,DR,,UNIT,9,MISSISSAUGA,ON,L5L 0A2,181,-79.7112406,43.5232164
Lunch Counter,THE BUN MAN BAKERY,3433,FIELDGATE,DR,,,,MISSISSAUGA,ON,L4X2J4,182,-79.5886124,43.6242312
Lunch Counter,THE PASTA CORNER,438,GIBRALTAR,DR,,Unit,2,MISSISSAUGA,ON,L5T2P2,183,-79.6942335,43.6525732
Lunch Counter,TIM HORTON DONUTS,2185,LEANNE,BLVD,,,,MISSISSAUGA,ON,L5K 2L6,184,-79.6512631,43.5252019
Lunch Counter,TIM HORTON DONUTS,5014,DIXIE,RD,,,,MISSISSAUGA,ON,L4W1C9,185,-79.6224878,43.6360917
Lunch Counter,TIM HORTONS,1212,SOUTHDOWN,RD,,,,MISSISSAUGA,ON,L5J2Z2,186,-79.6358238,43.514867
Lunch Counter,TIM HORTONS,4720,TAHOE,BLVD,,,,MISSISSAUGA,ON,L4W 5P2,187,-79.6077457,43.6406785
Lunch Counter,TIM HORTONS #6104,7215,GOREWAY,DR,,Unit,14-15 L2,MISSISSAUGA,ON,L4T 2T9,188,-79.6382803,43.719687
Lunch Counter,TIMOTHYS (SQUARE ONE 725),100,CITY CENTRE,DR,,KIOS,K-02,MISSISSAUGA,ON,L5B 2C9,189,-79.6424911,43.5930784
Lunch Counter,TODO RICO BAKERY,900,RATHBURN,RD,W,UNIT,B6,MISSISSAUGA,ON,L5C 4L3,190,-79.6612622,43.5782985
Lunch Counter,TOWN & COUNTRY MARKET,4033,HURONTARIO,ST,,UNITS,2-4,MISSISSAUGA,ON,L4Z 0B7,191,-79.6558242,43.6222137
Lunch Counter,TRIOS FOODSERVICE / ST FRANCIS XAVIER,50,BRISTOL,RD,W,,,MISSISSAUGA,ON,L5R3K3,192,-79.6638933,43.6131493
Lunch Counter,TRIOS FOODSERVICE / ST. ALOYSIUS GONZAGA SS,2800,ERIN CENTRE,BLVD,,,,MISSISSAUGA,ON,L5M 6R5,193,-79.7168505,43.5558504
Lunch Counter,TRUSCOTT ITALIAN BAKERY & DELICATESSEN INC,2425,TRUSCOTT,DR,,Unit,28,MISSISSAUGA,ON,L5J 2B4,194,-79.6484562,43.5124491
Lunch Counter,UPSIDE DOWN ALL IN ONE STOP,4060,CONFEDERATION,PKWY,,,,MISSISSAUGA,ON,L5B 0G4,195,-79.6463509,43.5854084
Lunch Counter,VIC JOHNSTON COMMUNITY CENTRE,335,CHURCH,ST,,,,MISSISSAUGA,ON,,196,NA,NA
Lunch Counter,VIMEX CORNER,1400,AIMCO,BLVD,,UNIT,H428,MISSISSAUGA,ON,,197,NA,NA
Lunch Counter,VIVS CATERING COMPANY & EATERY,966,PANTERA,DR,,UNIT,9,MISSISSAUGA,ON,L4W 2S1,198,-79.6379294,43.6297848
Lunch Counter,VIVIANS CAFE,2055,FLAVELLE,BLVD,,,,MISSISSAUGA,ON,L5K 1Z8,199,-79.6575784,43.5180418
Lunch Counter,WALMART SUPERCENTRE,1500,DUNDAS,ST,E,,,MISSISSAUGA,ON,,200,NA,NA
Lunch Counter,WALMART SUPERCENTRE STORE #1137,7333,GOREWAY,DR,,,,MISSISSAUGA,ON,L4T 2T8,201,-79.6400348,43.7207362
Lunch Counter,WATAN SUPERMARKET,6750,WINSTON CHURCHILL,BLVD,,Unit,4&5,MISSISSAUGA,ON,L5N 4C4,202,-79.7648706,43.5830824
Lunch Counter,WENDYS HAMBURGERS,6301,SILVERDART,DR,,Unit,G202,MISSISSAUGA,ON,L5P 1B2,203,-79.6628408,43.6691521
Lunch Counter,WOKMANS KITCHEN,888,DUNDAS,ST,E,Unit,F.3,MISSISSAUGA,ON,L4Y 4G6,204,-79.5950857,43.5984517
Lunch Counter,YOGEN FRUZ,100,CITY CENTRE,DR,,UNIT,2-K06,MISSISSAUGA,ON,,205,NA,NA
Lunch Counter,YOUNGS MINI MARKET,6675,FALCONER,DR,,Unit,1,MISSISSAUGA,ON,L5N 1R3,206,6.1903658,51.6248264
Lunch Counter,YUAN MING SUPERMARKET,1000,BURNHAMTHORPE,RD,W,,,MISSISSAUGA,ON,L5C 2S4,207,-79.6582801,43.5716367
Restaurant,168 SUSHI JAPANESE BUFFET INC.,2366,DUNDAS,ST,W,,,MISSISSAUGA,ON,L5K1R7,208,-79.6735401,43.5297598
Restaurant,17 STEAKHOUSE& BAR,5165,DIXIE,RD,,Unit,4,MISSISSAUGA,ON,L4W4G1,209,-79.6245936,43.639846
Restaurant,2 4 1 PIZZA,1125,BLOOR,ST,,Unit,17,MISSISSAUGA,ON,L4Y 2N6,210,-79.6014269,43.6115997
Restaurant,2038972 ONTARIO INC/PEEL DISTRICT SCHOOL BOARD,5650,HURONTARIO,ST,,,,MISSISSAUGA,ON,L6P 1C9,211,-79.7354307,43.7791643
Restaurant,229 BAR,229,LAKESHORE,RD,E,,,MISSISSAUGA,ON,L5G 1G8,212,-79.5770252,43.5592979
Restaurant,3 CASTELOS GRILL HOUSE,1030,DUNDAS,ST,E,,,MISSISSAUGA,ON,L4Y2B8,213,-79.5915968,43.6000067
Restaurant,5 STARS SHAWARMA & GRILL,660,EGLINTON,AVE,W,Unit,12B,MISSISSAUGA,ON,L5R 3V2,214,-79.667226,43.593105
Restaurant,925 RATHBURN EGGSMART,925,RATHBURN,RD,E,Unit,D2,MISSISSAUGA,ON,L4W 4C3,215,-79.6173985,43.6158833
Restaurant,A & W,5100,ERIN MILLS,PKWY,,Unit,F.9,MISSISSAUGA,ON,L5M4Z5,216,-79.71089,43.5603651
Restaurant,A & W  #4338,1130,DUNDAS,ST,E,,,MISSISSAUGA,ON,L4Y 2C1,217,-79.5880858,43.6044367
Restaurant,A & W ARGENTIA,2930,ARGENTIA,RD,,,,MISSISSAUGA,ON,L5N 8C5,218,-79.7809884,43.5976109
Restaurant,A & W PEARSON AIRPORT TERMINAL 1,1,LESTER B PEARSON INTL AIRPORT,,,,,MISSISSAUGA,ON,,219,NA,NA
Restaurant,A & W RESTAURANT,100,CITY CENTRE,DR,,Unit,2-102,MISSISSAUGA,ON,L5B 2C9,220,-79.6424911,43.5930784
Restaurant,A & W RESTAURANT,733,CENTRAL PKY,,W,Bldg,4,MISSISSAUGA,ON,L5B 4L1,221,-79.6449474,43.5769596
Restaurant,A&W HEARTLAND,5880,MAVIS,RD,,Bldg,E,MISSISSAUGA,ON,L5V 3B7,222,-79.6926554,43.6086371
Restaurant,ABBEY ROAD PUB & PATIO,3200,ERIN MILLS,PKWY,,Unit,9,MISSISSAUGA,ON,L5L 1W8,223,-79.6716109,43.5389544
Restaurant,ACACIA FINE FOODS INC,1170,BURNHAMTHORPE,RD,W,Unit,18,MISSISSAUGA,ON,L5C4E6,224,-79.6631917,43.5685172
Restaurant,ADOBO CAFE,5770,TIMBERLEA,BLVD,,Unit,107,MISSISSAUGA,ON,L4W4W7,225,-79.6505833,43.6392329
Restaurant,ADONIS GROUP INC,1240,EGLINTON,AVE,W,Bldg,C,MISSISSAUGA,ON,L5V 1N3,226,-79.6828352,43.5792216
Restaurant,AFGHAN KEBOB CUISINE,780,BURNHAMTHORPE,RD,W,Unit,1,MISSISSAUGA,ON,L5C3X3,227,-79.6521403,43.5783587
Restaurant,AIELLI RESTAURANT,286,LAKESHORE,RD,E,,,MISSISSAUGA,ON,L5G1H2,228,-79.5758839,43.5610509
Restaurant,AIRPORT BUKHARA FINE INDIAN CUISINE,7166,AIRPORT,RD,,,,MISSISSAUGA,ON,L4T2H2,229,-79.6473158,43.7069528
Restaurant,AIRPORT GATE STEAK & GRILL,6575,AIRPORT,RD,,,,MISSISSAUGA,ON,L4V1E5,230,-79.6307353,43.6960267
Restaurant,AIRPORT GRILL & RESTAURANT,7040,AIRPORT,RD,,,,MISSISSAUGA,ON,L4T2G8,231,-79.6449474,43.7051805
Restaurant,AIRPORT STRIP,7040,TORBRAM,RD,,Unit,1,MISSISSAUGA,ON,L4T3Z4,232,-79.65407,43.6941544
Restaurant,AK CATERING SERVICES,2489,NORTH SHERIDAN,WAY,,Bldg,A,MISSISSAUGA,ON,,233,NA,NA
Restaurant,AKO GREEK,2225,ERIN MILLS,PKWY,,Unit,100B,MISSISSAUGA,ON,L5K 1T9,234,-79.6523157,43.5309503
Restaurant,AL KABABS,808,BRITANNIA,RD,W,Unit,104,MISSISSAUGA,ON,L5V 0A7,235,-79.6960747,43.6113981
Restaurant,AL-SHAMI RESTAURANT,40,DUNDAS,ST,W,Unit,6,MISSISSAUGA,ON,L5B 1H4,236,-79.6166965,43.5795787
Restaurant,ALF HANA INC,6550,MEADOWVALE TOWN CENTRE,CIR,,Unit,M5,MISSISSAUGA,ON,L5M 7T9,237,-79.7277186,43.5464257
Restaurant,ALL STAR WINGS AND RIBS,4096,CONFEDERATION,PKWY,,,,MISSISSAUGA,ON,L5B 0G4,238,-79.6463509,43.5854084
Restaurant,ALLSPICE CARRIBEAN CAFE,3115,WINSTON CHURCHILL,BLVD,,Unit,2,MISSISSAUGA,ON,L5L2W1,239,-79.6849396,43.5258875
Restaurant,ALLSTAR WINGS & RIBS,6465,MILLCREEK,DR,,Unit,110,MISSISSAUGA,ON,L5N5R3,240,-79.7417401,43.5916933
Restaurant,ALTONA KEBAB,3060,HURONTARIO,ST,,,,MISSISSAUGA,ON,L5B 1N7,241,-79.6210839,43.580723
Restaurant,AMBIANCE OF INDIA,2157,ROYAL WINDSOR,DR,,Unit,23,MISSISSAUGA,,,242,NA,NA
Restaurant,AMICA AT ERIN MILLS,4620,KIMBERMOUNT,AVE,,,,MISSISSAUGA,ON,L5M 5W5,243,-79.7160616,43.5494596
Restaurant,AMIGOS CAFE & RESTAURANT,1385,SHAWSON,DR,,Unit,1,MISSISSAUGA,ON,L4W 1C4,244,-79.6484562,43.6503353
Restaurant,ANCILAS INDIAN CUISINE,6905,MILLCREEK,DR,,Unit,11,MISSISSAUGA,ON,L5N6A3,245,-79.7571611,43.5960576
Restaurant,AND COMPANY RESTO BAR,295,ENFIELD,PL,,,,MISSISSAUGA,ON,L5B3E2,246,-79.6356484,43.5896311
Restaurant,ANDIAMO PASTA PLUS,135,QUEEN,ST,S,,,MISSISSAUGA,ON,L5M1K9,247,-79.7158863,43.5837816
Restaurant,ANJAPPAR CHETTINAD RESTAURANT,4310,SHERWOODTOWNE,BLVD,,Unit,1,MISSISSAUGA,ON,L4Z 4C4,248,-79.6416139,43.5993854
Restaurant,ANNA POORNA TAKE OUT,5390,TERRY FOX,WAY,,Unit,3,MISSISSAUGA,ON,L5V 0A5,249,-79.6847643,43.5947005
Restaurant,APPLEWOOD FISH & CHIPS,1020,BURNHAMTHORPE,RD,E,,,MISSISSAUGA,ON,L4Y2X6,250,-79.6105539,43.6142175
Restaurant,APPLEWOOD MEATS & GRILL,1077,NORTH SERVICE,RD,,Unit,11,MISSISSAUGA,ON,L4Y 1A6,251,-79.5742159,43.5926186
Restaurant,APRICOT TREE CAFE,1900,DUNDAS,ST,W,Unit,10,MISSISSAUGA,ON,L5K1P9,252,-79.6626654,43.539181
Restaurant,APROPOS RESTAURANT/T1B/G163 & 164B,1,LESTER B PEARSON INTL AIRPORT,,,,,MISSISSAUGA,ON,,253,NA,NA
Restaurant,ARABESQUE CULTURAL LOUNGE,2399,CAWTHRA,RD,,Unit,100,MISSISSAUGA,ON,L5A2W9,254,-79.5937033,43.5912884
Restaurant,ARAMARK #2317/PANASONIC CANADA INC,5770,AMBLER,DR,,,,MISSISSAUGA,ON,L4W2T3,255,-79.6435438,43.643358
Restaurant,ARAMARK #2517/DAIRY FARMERS OF ONT,6780,CAMPOBELLO,RD,,,,MISSISSAUGA,ON,L5N2L8,256,-79.7319253,43.6098205
Restaurant,ARAMARK #2545/CANON CANADA,6390,DIXIE,RD,,,,MISSISSAUGA,ON,L5T1P7,257,-79.6575784,43.6618492
Restaurant,ARAMARK /  ORACLE,100,MILVERTON,DR,,,,MISSISSAUGA,ON,L5R 4H1,258,-79.6751186,43.6177349
Restaurant,ARAMARK / CITIBANK CANADA,5900,HURONTARIO,ST,,,,MISSISSAUGA,ON,L6R 0B8,259,-79.780638,43.7675526
Restaurant,ARAMARK / HOFFMAN LA ROCHE,7070,MISSISSAUGA,RD,,,,MISSISSAUGA,ON,L5N5M8,260,-79.7553212,43.6118605
Restaurant,ARAMARK / MCKESSON COMP 2734,6355,VISCOUNT,RD,,,,MISSISSAUGA,ON,L4V1W2,261,-79.6217858,43.6929848
Restaurant,ARAMARK CANADA/ECOLAB COMP.2625,5105,TOMKEN,RD,,,,MISSISSAUGA,ON,L4W2X5,262,-79.6337183,43.6288065
Restaurant,ARAMARK CANADA/GEN ELEC CANADA #2384,2300,MEADOWVALE,BLVD,,,,MISSISSAUGA,ON,L5N 5P9,263,-79.7603151,43.6037702
Restaurant,ARAMARK CANADA/XEROX RESEARCH COMP.2380,2660,SPEAKMAN,DR,,,,MISSISSAUGA,ON,L5K2L1,264,-79.6666998,43.5129212
Restaurant,ARIGATO SUSHI,1550,SOUTH GATEWAY,RD,,Unit,1A,MISSISSAUGA,ON,L4W5G6,265,-79.61266,43.6328177
Restaurant,ARIRANG,1177,CENTRAL PKY,,W,Unit,72,MISSISSAUGA,ON,L5C 4P3,266,-79.6603851,43.567667
Restaurant,ARISTOTLES STEAK & SEAFOOD HOUSE,6905,MILLCREEK,DR,,Unit,2,MISSISSAUGA,ON,L5N 6A3,267,-79.7571611,43.5960576
Restaurant,ARKADY CAFE & RESTAURANT,3631,DIXIE,RD,,Unit,21,MISSISSAUGA,ON,L4Y4H2,268,-79.6011636,43.6220423
Restaurant,AROMA ESPRESSO BAR,100,CITY CENTRE,DR,,Unit,2-712,MISSISSAUGA,ON,,269,NA,NA
Restaurant,ARTISANO BAKERY CAFE LTD.,3145,DUNDAS,ST,W,Unit,1,MISSISSAUGA,ON,L5L5V8,270,-79.6802046,43.5247132
Restaurant,ASAKA SUSHI,380,LAKESHORE,RD,E,,,MISSISSAUGA,ON,L5G 1H5,271,-79.5717578,43.5635698
Restaurant,ASIAN GOURMET,2150,BURNHAMTHORPE,RD,W,Unit,50,MISSISSAUGA,ON,L5L 3A2,272,-79.6843258,43.5449439
Restaurant,ASIAN KING,2425,TRUSCOTT,DR,,Unit,24,MISSISSAUGA,ON,L1J 2B4,273,-78.8676348,43.8940026
Restaurant,ASIAN SWEETS & RESTAURANT,7148,AIRPORT,RD,,,,MISSISSAUGA,ON,L4T2H1,274,-79.6465264,43.7063621
Restaurant,ASIAN WOK N ROLL,2911,DERRY,RD,E,,,MISSISSAUGA,ON,L4T1A6,275,-79.6440702,43.7031737
Restaurant,ASIAN WOK N ROLL,6905,MILLCREEK,DR,,Unit,13,MISSISSAUGA,ON,L5N 6A3,276,-79.7571611,43.5960576
Restaurant,ASTORIA SHISH KEBOB HOUSE DUNDAS LTD,1970,DUNDAS,ST,E,Unit,1,MISSISSAUGA,ON,L4X 2W7,277,-79.5689483,43.6212375
Restaurant,ATMOSFERA RESTAURANT BAR LOUNGE,6781,HURONTARIO,ST,,,,MISSISSAUGA,ON,L5T 2W1,278,-79.7003705,43.6437812
Restaurant,AVANI ASIAN INDIAN BISTRO,801,MATHESON,BLVD,W,Unit,1-3,MISSISSAUGA,ON,L5V 2N6,279,-79.6903758,43.6070934
Restaurant,AVONDALE FOODWORKS LTD.,7070,BRAMALEA,RD,,Unit,16,MISSISSAUGA,ON,L5S 1S8,280,-79.6658227,43.685885
Restaurant,AXIA,5045,PLANTATION,PL,,Unit,B1,Mississauga,ON,L5M 6J3,281,-79.715448,43.5533444
Restaurant,BS SIZZLING KITCHEN,7885,TRANMERE,DR,,,30-32,MISSISSAUGA,ON,L5S1V8,282,-79.673014,43.6780873
Restaurant,BACK ALLEY BAR & RESTAURANT,3415,DIXIE,RD,,Unit,12,MISSISSAUGA,ON,L4Y2B1,283,-79.5952832,43.6180145
Restaurant,BAIRRADA CHURRASQUEIRA GRILLHOUSE 2,33,HILLCREST,AVE,,,,MISSISSAUGA,ON,L5B 1K5,284,-79.6224878,43.58204
Restaurant,BAKHTAR KABAB - AFGHAN CUISINE LTD,5925,TOMKEN,RD,,Unit,1,MISSISSAUGA,ON,L4W4L8,285,-79.6561751,43.6451038
Restaurant,BAKLAWA KING INC,1590,DUNDAS,ST,E,Unit,4,MISSISSAUGA,ON,L4X 2Z2,286,-79.5780786,43.6140601
Restaurant,BAKLAWA KING INC,488,EGLINTON,AVE,W,Unit,2-4,MISSISSAUGA,ON,L5R 0G2,287,-79.6782755,43.6147554
Restaurant,BALLERS BISTRO,600,MATHESON,BLVD,W,UNIT,4,MISSISSAUGA,ON,L5R 4B8,288,-79.687044,43.6122856
Restaurant,BAMBOO LEGEND,3145,DUNDAS,ST,W,Unit,10,MISSISSAUGA,ON,L5L 5V8,289,-79.6802046,43.5247132
Restaurant,BAMIYAN KABOB,2970,DREW,RD,,Unit,105-6,MISSISSAUGA,ON,L4T 0A6,290,-79.6538669,43.709541
Restaurant,BAMIYAN KABOB,5120,DIXIE,RD,,Unit,8,MISSISSAUGA,ON,L4W 4K2,291,-79.6238039,43.6365831
Restaurant,BAR 4 U,35,KING,ST,E,Unit,12&14,MISSISSAUGA,ON,L5A4E2,292,-79.6141518,43.5789744
Restaurant,BAR BE Q TONITE,35,DUNDAS,ST,W,,,MISSISSAUGA,ON,L5B1H2,293,-79.6177495,43.5799722
Restaurant,BAR BURRITO,40,BRISTOL,RD,E,UNIT,14A,MISSISSAUGA,ON,,294,NA,NA
Restaurant,BAR ONE,5400,DIXIE,RD,,,,MISSISSAUGA,ON,L4W4T4,295,-79.6316127,43.6422684
Restaurant,BARAS CARIBBEAN CUISINE INC.,127,DUNDAS,ST,E,,,MISSISSAUGA,ON,L5A1W7,296,-79.614064,43.5830522
Restaurant,BASHU CHINESE RESTAURANT,4559,HURONTARIO,ST,,Unit,7A,MISSISSAUGA,ON,,297,NA,NA
Restaurant,BASKIN 31 ROBBINS,6590,MEADOWVALE TOWN CENTRE,CIR,,Unit,J206,MISSISSAUGA,ON,L5N 4B7,298,-79.7606655,43.5827032
Restaurant,BASKIN ROBBINS,660,EGLINTON,AVE,W,Unit,11,MISSISSAUGA,ON,L5R3V2,299,-79.667226,43.593105
Restaurant,BASKIN ROBBINS #4654,6045,MAVIS,RD,,Unit,9,MISSISSAUGA,ON,L5R 4G6,300,-79.6958116,43.614567
Restaurant,BAYVIEW GARDEN CHINESE CUISINE,1177,CENTRAL PARKWAY,,W,Unit,61,MISSISSAUGA,ON,L5C 4P3,301,-79.6603851,43.567667
Restaurant,BELL MOBILITY - TIM HORTON #23077,5099,CREEKBANK,RD,,,,MISSISSAUGA,ON,L4W 5N2,302,-79.6112559,43.6451548
Restaurant,BELL MOBILITY-TIM HORTONS LOWER #23078,5099,CREEKBANK,RD,,,,MISSISSAUGA,ON,L4W 5N2,303,-79.6112559,43.6451548
Restaurant,BEN THANH VIET THAI RESTAURANT,2661,DUNDAS,ST,W,Unit,2,MISSISSAUGA,ON,,304,NA,NA
Restaurant,BENAB FAMILY RESTAURANT INC,3085,HURONTARIO,ST,,Unit,17,MISSISSAUGA,ON,L5B 4E4,305,-79.6414384,43.5891199
Restaurant,BENTO SUSHI,1,LESTER B PEARSON INTL AIRPORT,,,,,MISSISSAUGA,ON,,306,NA,NA
Restaurant,BERINAS SPECIALTY RESTAURANT & GRILL INC,889,PANTERA,DR,,Unit,1A,MISSISSAUGA,ON,L4W2R9,307,-79.6407366,43.6300412
Restaurant,BIER MARKT,55,CITY CENTRE,DR,,Unit,107,MISSISSAUGA,ON,L5B1M3,308,-79.6368766,43.5937541
Restaurant,BIRYANI KING,1059,DUNDAS,ST,W,,,MISSISSAUGA,ON,L5C 1C3,309,-79.6430175,43.5582054
Restaurant,BISMILLAH SWEETS & CATERING,812,BRITANNIA,RD,W,Unit,103,MISSISSAUGA,ON,,310,NA,NA
Restaurant,BISTRO NARRA,3030,THOMAS,ST,,Unit,A404,MISSISSAUGA,ON,L5M 0R4,311,-79.7337639,43.560612
Restaurant,BLARNEYS GATE FAMILY RESTAURANT,1151,DUNDAS,ST,W,Unit,27/29,MISSISSAUGA,ON,L5C 1C6,312,-79.6449474,43.5567463
Restaurant,BLISS CHINESE CUISINE,6485,MISSISSAUGA,RD,,Unit,4,MISSISSAUGA,ON,L5N 1A6,313,-79.7368328,43.5989753
Restaurant,BLUE ICE,1590,DUNDAS,ST,E,Unit,3,MISSISSAUGA,ON,L4X 2Z2,314,-79.5780786,43.6140601
Restaurant,BLUE LAGOON SEAFOOD MASTER,888,DUNDAS,ST,E,Unit,C3-C4,MISSISSAUGA,ON,L4Y4G6,315,-79.5950857,43.5984517
Restaurant,BNC BAKERY,257,DUNDAS,ST,E,Unit,12,MISSISSAUGA,ON,L5A 1W8,316,-79.6114314,43.5853368
Restaurant,BOBBYS HIDEAWAY,20,QUEEN,ST,N,,,MISSISSAUGA,ON,L5N1A1,317,-79.723687,43.588723
Restaurant,BOMBAY BHEL RESTAURANT,5035,HURONTARIO,ST,,Unit,14,MISSISSAUGA,ON,L4Z 3X7,318,-79.65407,43.6086902
Restaurant,BOMBAY BHEL RESTAURANT,6415,ERIN MILLS,PKWY,,Unit,B.2,MISSISSAUGA,ON,L5N 4H4,319,-79.741039,43.5868751
Restaurant,BOMBAY CHOPSTICKS,30,BRISTOL,RD,E,Unit,3,MISSISSAUGA,ON,L4Z 3K8,320,-79.6610867,43.6152695
Restaurant,BOMBAY TO GO,755,DUNDAS,ST,W,Unit,A-7,MISSISSAUGA,ON,L5C 3B6,321,-79.635122,43.564768
Restaurant,BONA VITA SOCIAL BAR INC,3233,BRANDON GATE,DR,,Unit,5,MISSISSAUGA,ON,L4T3V8,322,-79.652842,43.7205714
Restaurant,BOOSTER JUICE,#2-1510,DUNDAS,ST,E,Bldg,C6,MISSISSAUGA,ON,L4X 1L4,323,-79.5779031,43.6109261
Restaurant,BOOSTER JUICE,80,COURTNEYPARK,DR,E,Unit,K6,MISSISSAUGA,ON,L5T 2Y3,324,-79.6902004,43.636624
Restaurant,BORDER MX MEXICAN GRILL AND CANTINA INC,3085,HURONTARIO,ST,,Unit,11B,MISSISSAUGA,ON,L5A 4E4,325,-79.6184954,43.5823063
Restaurant,BOSTON PIZZA,1510,AIMCO,BLVD,,,,MISSISSAUGA,ON,L4W 5K1,326,-79.6231897,43.6385304
Restaurant,BOSTON PIZZA,50,COURTNEYPARK,DR,E,,,MISSISSAUGA,ON,L5T 2Y3,327,-79.6902004,43.636624
Restaurant,BOSTON PIZZA,6978,FINANCIAL,DR,,Bldg,C,MISSISSAUGA,ON,L5N 8J4,328,-79.7494509,43.6102165
Restaurant,BOSTON PIZZA RESTAURANT & SPORTS BAR,2915,EGLINTON,AVE,W,,,MISSISSAUGA,ON,L5M 6J3,329,-79.715448,43.5533444
Restaurant,BOSTON PIZZA SQUARE ONE,35,SQUARE ONE,DR,,,,Mississauga,ON,L5B 0E2,330,-79.6498597,43.5898883
Restaurant,BOUNTY RESTAURANT,2206,DUNDAS,ST,E,,,MISSISSAUGA,ON,L4X1L9,331,-79.6916033,43.5095311
Restaurant,BOURBON ST. GRILL,5100,ERIN MILLS,PKWY,,UNIT,FC13,MISSISSAUGA,ON,L5M 4Z5,332,-79.71089,43.5603651
Restaurant,BRAVO BISTRO,2560,MATHESON,BLVD,E,Unit,121,MISSISSAUGA,ON,L4W 4Y9,333,-79.6037087,43.6597444
Restaurant,BRAZIL BAKERY,5700,MAVIS,RD,,Unit,1011,MISSISSAUGA,ON,L5V 2N6,334,-79.6903758,43.6070934
Restaurant,BRAZIL BAKERY & PASTRY,2905,EGLINTON,AVE,W,Unit,E2,3,MISSISSAUGA,ON,L5M 6J3,335,-79.715448,43.5533444
Restaurant,BRISTOL BAR & GRILL,512,BRISTOL,RD,W,Unit,13-15,MISSISSAUGA,ON,L5R3V2,336,-79.667226,43.593105
Restaurant,BRITANNIA ITALIAN BAKERY,5925,GROSSBEAK,DR,,,123,MISSISSAUGA,ON,L5N6S5,337,-79.7527804,43.5619247
Restaurant,BROTHER 888 RESTAURANT,888,DUNDAS,ST,E,Unit,E.1,MISSISSAUGA,ON,L4Y4G6,338,-79.5950857,43.5984517
Restaurant,BRUNSWICK MISSISSAUGA BOWL,2561,STANFIELD,RD,,,,MISSISSAUGA,ON,L4Y1R6,339,-79.5821167,43.6006217
Restaurant,BUBBLE REPUBLIC TEA HOUSE,4040,CREDITVIEW,RD,,Unit,24,MISSISSAUGA,ON,,340,NA,NA
Restaurant,BUBBLE REPUBLIC TEA HOUSE,4555,HURONTARIO,ST,,,,MISSISSAUGA,ON,L4Z 3M1,341,-79.6495965,43.6062774
Restaurant,BUBBLE TEASE,5955,LATIMER,DR,,Unit,11,Mississauga,ON,L5V 0B7,342,-79.6973509,43.607805
Restaurant,BUFFALO WILDWINGS GRILL & BAR,3015,ARGENTIA,RD,,Bldg,S,MISSISSAUGA,ON,L5N 8E1,343,-79.7883455,43.5967872
Restaurant,BUK CHANG DONG SOON TOFU RESTAURANT,3085,HURONTARIO,ST,,Unit,12,MISSISSAUGA,ON,L5A4E4,344,-79.6184954,43.5823063
Restaurant,BUKAMARANGA BEAN & BAGEL CO.,6465,MILLCREEK,DR,,Unit,105,MISSISSAUGA,ON,L5N 5R3,345,-79.7417401,43.5916933
Restaurant,BUKHARA GRILL,1170,BURNHAMTHORPE,RD,W,Unit,15,MISSISSAUGA,ON,L5C4E6,346,-79.6631917,43.5685172
Restaurant,BURGER KING,6465,MISSISSAUGA,RD,,,,MISSISSAUGA,ON,L5N1A6,347,-79.7368328,43.5989753
Restaurant,BURGER KING # 994,1490,DIXIE,RD,,,,MISSISSAUGA,ON,L5E1V4,348,-79.5691239,43.5943785
Restaurant,BURGER KING #10099,769,BURNHAMTHORPE,RD,W,,,MISSISSAUGA,ON,L5A3K5,349,-79.6194167,43.6078271
Restaurant,BURGER KING #14733,6010,DIXIE,RD,,,,MISSISSAUGA,ON,L5T1A6,350,-79.6505614,43.6564621
Restaurant,BURGER KING #15365,100,CITY CENTRE,DR,,Unit,1-830,MISSISSAUGA,ON,L5B 2C9,351,-79.6424911,43.5930784
Restaurant,BURGER KING #17047,7014,TORBRAM,RD,,,,MISSISSAUGA,ON,L4T3Y3,352,-79.6549471,43.6952721
Restaurant,BURGER KING #2666,4141,DIXIE,RD,,,,MISSISSAUGA,ON,L4W1V5,353,-79.6045863,43.6252506
Restaurant,BURGER KING 5516,5645,HURONTARIO,ST,,,,MISSISSAUGA,ON,L4Z1S7,354,-79.6693307,43.6194354
Restaurant,BURGER LEGEND INCORPORATED,236,QUEEN,ST,S,,,MISSISSAUGA,ON,L5M1L5,355,-79.7128184,43.5806058
Restaurant,BURRITO BOYZ,19,DUNDAS,ST,E,,,MISSISSAUGA,ON,L5A1V9,356,-79.6156435,43.5815625
Restaurant,BURRITO BOYZ,5130,DIXIE,RD,,UNIT,15,MISSISSAUGA,ON,L4W 1C9,357,-79.6224878,43.6360917
Restaurant,BURRITO BOYZ,6560,MEADOWVALE TOWN CENTRE,CIR,,UNIT,L-05,MISSISSAUGA,ON,L5N 4B7,358,-79.7606655,43.5827032
Restaurant,C U @ CAFE,2560,SHEPARD,AVE,,Unit,5,MISSISSAUGA,ON,L5A 2H6,359,-79.6114314,43.5785025
Restaurant,CAFE ATLANTIS,5745,ATLANTIC,DR,,,,MISSISSAUGA,ON,L4W1H3,360,-79.6340692,43.6552533
Restaurant,CAFE DORO,6660,KENNEDY,RD,,Unit,12,MISSISSAUGA,ON,L5T2M9,361,-79.687044,43.6491006
Restaurant,CAFE DE KHAN,6400,MILLCREEK,DR,,Unit,13,MISSISSAUGA,ON,L5N 3E7,362,-79.740338,43.5891892
Restaurant,CAFE DEMETRE   CITY CENTRE DRIVE,285,ENFIELD,PL,,Unit,R104,MISSISSAUGA,ON,L5B 3Y6,363,-79.6357361,43.5903076
Restaurant,CAFE DIEM THUONG,157,DUNDAS,ST,E,Unit,3B,MISSISSAUGA,ON,L5A 1W8,364,-79.6114314,43.5853368
Restaurant,CAFE GREAT,5225,ORBITOR,DR,,Unit,16,MISSISSAUGA,ON,L4W4Y8,365,-79.6049374,43.6600054
Restaurant,CAFE PLUS BAKERY,3476,GLEN ERIN,DR,,UNIT,13B,MISSISSAUGA,ON,L5L 3R4,366,-79.6877454,43.5374471
Restaurant,CAFE PREGO,3115,DUNDAS,ST,W,,,MISSISSAUGA,ON,L5L3R8,367,-79.6849396,43.521722
Restaurant,CAFFE DEMETRE MISSISSAUGA,90,COURTNEYPARK,DR,E,Unit,N5,MISSISSAUGA,ON,L5T 2Y3,368,-79.6902004,43.636624
Restaurant,CAFFE TIVOLI / ELECTROLUX BLDG,5855,TERRY FOX,WAY,,,,MISSISSAUGA,ON,L5V 3E4,369,-79.6958116,43.6062504
Restaurant,CAKE ROYALE,168,QUEEN,ST,S,Unit,102,MISSISSAUGA,ON,L5M 1K8,370,-79.7164999,43.5828713
Restaurant,CALABASH CARIBBEAN CUISINE,2155,LEANNE,BLVD,,Unit,108,MISSISSAUGA,ON,L5K 2K8,371,-79.6524911,43.5257602
Restaurant,CALDENSE BAKERY & PASTRIES VII INC,5425,CREDITVIEW,RD,,Unit,14,MISSISSAUGA,ON,L5V 2P3,372,-79.6954609,43.5863123
Restaurant,CALIFORNIA SANDWICHES,3018,WINSTON CHURCHILL,BLVD,,Unit,1,MISSISSAUGA,ON,L5L 2V7,373,-79.6847643,43.5242351
Restaurant,CALIFORNIA SANDWICHES,5950,DIXIE,RD,,,,MISSISSAUGA,ON,L4W 1E9,374,-79.6463509,43.6531107
Restaurant,CALIFORNIA SANDWICHES,5955,LATIMER,DR,,Unit,1A,Mississauga,ON,L5L 0B7,375,-79.6838874,43.5439375
Restaurant,CALIFORNIA STEVEN SPORTS BAR & KARAOKE LTD,680,SILVER CREEK,BLVD,,Unit,14,MISSISSAUGA,ON,L5A 3Z1,376,-79.6028311,43.5950958
Restaurant,CANYON CREEK CHOP HOUSE,299,RATHBURN,RD,W,,,MISSISSAUGA,ON,L5B4C1,377,-79.6481053,43.594779
Restaurant,CAPRAS KITCHEN,1834,LAKESHORE,RD,W,Unit,A-1A,MISSISSAUGA,ON,L5J 1J7,378,-79.625471,43.514665
Restaurant,CAPTAINS SNOOKER CLUB,966,DUNDAS,ST,E,Unit,10, 11,MISSISSAUGA,ON,L4Y4H5,379,-79.5922112,43.5995432
Restaurant,CAPTIN ROBINS FAMILY RESTAURANT,111,LAKESHORE,RD,W,,,MISSISSAUGA,ON,L5H1E9,380,-79.587208,43.5498276
Restaurant,CARIBBEAN DESIRE,6435,DIXIE,RD,,Unit,1,MISSISSAUGA,ON,L5T 1X4,381,-79.6596834,43.6650078
Restaurant,CARIBBEAN OASIS,7125,GOREWAY,DR,,Unit,105,MISSISSAUGA,ON,,382,NA,NA
Restaurant,CARIBBEAN STAR,3417,DERRY,RD,E,Unit,4,MISSISSAUGA,ON,L4T1A8,383,-79.6365257,43.7103396
Restaurant,CARIBBEAN SUNSET RESTAURANT - BAR AND LOUNGE INC,1001,MEYERSIDE,DR,,Unit,8, 9,MISSISSAUGA,ON,L5T1J6,384,-79.6644195,43.6525324
Restaurant,CARINDERIA BY DFLORES,980,EGLINTON,AVE,E,Unit,2,MISSISSAUGA,ON,,385,NA,NA
Restaurant,CASALINGA RISTORANTE,2057,ROYAL WINDSOR,DR,,Unit,2,MISSISSAUGA,ON,L5J1K5,386,-79.6354729,43.5079906
Restaurant,CATERINAS PALACE & RESTAURANT,7230,TRANMERE,DR,,,,MISSISSAUGA,ON,L5S1L6,387,-79.6702077,43.6867291
Restaurant,CAVENS ALLEY BAR,585,LAKESHORE,RD,E,Unit,D,MISSISSAUGA,ON,L5G 1H9,388,-79.5708798,43.5675015
Restaurant,CHAMPIONS AT ROYAL SQUARE,1248,DUNDAS,ST,E,Unit,4,MISSISSAUGA,ON,L4Y 2C1,389,-79.5880858,43.6044367
Restaurant,CHANG & HUANG THAI RESTAURANT,5120,DIXIE,RD,,Unit,7,MISSISSAUGA,ON,L4W4J7,390,-79.623453,43.6364026
Restaurant,CHARLEYS GRILLED SUBS,100,CITY CENTRE,DR,,Unit,1-131B,MISSISSAUGA,ON,L5B2C9,391,-79.6424911,43.5930784
Restaurant,CHARLIES CARIBBEAN CUISINE,3055,HURONTARIO,ST,,,,MISSISSAUGA,ON,L5A2G9,392,-79.6188025,43.5827429
Restaurant,CHAT - HUT,7106,AIRPORT,RD,,Unit,1 & 2,MISSISSAUGA,ON,L4T2G8,393,-79.6449474,43.7051805
Restaurant,CHATIME,720,BURNHAMTHORPE,RD,W,Unit,31,MISSISSAUGA,ON,L5C 3G1,394,-79.6521403,43.5777643
Restaurant,CHATKHARA SPICY FLAVOURS OF PAKISTAN,816,BRITANNIA,RD,W,Unit,101,MISSISSAUGA,ON,L5V 0A6,395,-79.6963377,43.6109022
Restaurant,CHEFS CATERING,2285,SPEAKMAN,DR,,,,MISSISSAUGA,ON,,396,NA,NA
Restaurant,CHEFS CATERING,2599,SPEAKMAN,DR,,,,MISSISSAUGA,ON,L5K1B1,397,-79.6649457,43.5178202
Restaurant,CHEFS TABLE,5310,EXPLORER,DR,,,,MISSISSAUGA,ON,L4W4H6,398,NA,NA
Restaurant,CHEFS TABLE,5800,EXPLORER,DR,,Unit,102,MISSISSAUGA,ON,L4W 5K9,399,-79.615468,43.6562227
Restaurant,CHELSEA B,7,JOHN,ST,S,,,MISSISSAUGA,ON,L5H2E3,400,-79.5868569,43.5492007
Restaurant,CHICKEN N TINGS CARIBBEAN CUISINE INC,4025,BRANDON GATE,DR,,Unit,A & B,MISSISSAUGA,ON,L4T3Z9,401,-79.6349465,43.7325673
Restaurant,CHILLI CHICKEN HOUSE INC,4040,CREDITVIEW,RD,,Unit,25,MISSISSAUGA,ON,L5C4E3,402,-79.6675768,43.5687679
Restaurant,CHINA CHINA PALACE 2,1125,BLOOR,ST,,Unit,8A,MISSISSAUGA,ON,L4Y 2N6,403,-79.6014269,43.6115997
Restaurant,CHINA GARDEN RESTAURANT,7071,AIRPORT,RD,,Unit,1,MISSISSAUGA,ON,L4T4J3,404,-79.6426666,43.7051205
Restaurant,CHINA PALACE,80,COURTNEYPARK,DR,E,UNIT,K4,MISSISSAUGA,ON,L5T 2Y3,405,-79.6902004,43.636624
Restaurant,CHINA PALACE RESTAURANT,3530,DERRY,RD,E,,,MISSISSAUGA,ON,L4T 4E3,406,-79.6300334,43.7143401
Restaurant,CHINA8 RESTAURANT,5602,TENTH,LINE,W,Unit,110,MISSISSAUGA,ON,L5M 5S5,407,-79.741039,43.5696351
Restaurant,CHINESE DUMPLING HOUSE,4040,CREDITVIEW,RD,,Unit,9-10,MISSISSAUGA,ON,L5C 3Y8,408,-79.6666998,43.5676477
Restaurant,CHINESE WOK,3050,ARTESIAN,DR,,Unit,9,MISSISSAUGA,ON,L5M 7P5,409,-79.7143962,43.5452192
Restaurant,CHIUCHOW MAN CHINESE RESTAURANT,1177,CENTRAL PKY,,W,Unit,69,MISSISSAUGA,ON,L5C4P3,410,-79.6603851,43.567667
Restaurant,CHOP STEAKHOUSE & BAR,2001,ARGENTIA,RD,,,,MISSISSAUGA,ON,L5N 2L3,411,-79.7424411,43.601265
Restaurant,CHOPAN GRILL,2155,LEANNE,BLVD,,Unit,107,MISSISSAUGA,ON,L5K 2K8,412,-79.6524911,43.5257602
Restaurant,CHOPSTICK CUISINE,2875,DERRY,RD,E,,,MISSISSAUGA,ON,L4T1A6,413,-79.6440702,43.7031737
Restaurant,CHUCK E CHEESES,2945,ARGENTIA,RD,,Bldg,E,MISSISSAUGA,ON,,414,NA,NA
Restaurant,CHUCK E CHEESES,4141,DIXIE,RD,,,,MISSISSAUGA,ON,L4W1V5,415,-79.6045863,43.6252506
Restaurant,CITIES SPORTS BAR & GRILL,5835,DIXIE,RD,,Unit,1,MISSISSAUGA,ON,L4W4V7,416,-79.6421402,43.6527264
Restaurant,CJ/TIM HORTONS #27025- U OF T/ERINDALE,3359,MISSISSAUGA,RD,,,,MISSISSAUGA,ON,L5L1C6,417,-79.6621392,43.5473118
Restaurant,CLARKSON BISTRO,1731,LAKESHORE,RD,W,,,MISSISSAUGA,ON,L5J1J4,418,-79.6203819,43.5205967
Restaurant,CLARKSON FISH & CHIPS,1848,LAKESHORE,RD,W,,,MISSISSAUGA,ON,L5J1J7,419,-79.625471,43.514665
Restaurant,COCK AND PHEASANT,63,QUEEN,ST,S,Unit,12,MISSISSAUGA,ON,L5M3S9,420,-79.7183405,43.5856385
Restaurant,COCO CAFE,90,BURNHAMTHORPE,RD,W,Unit,204,MISSISSAUGA,ON,L5B3C3,421,-79.6367012,43.5912128
Restaurant,COFFEE & LUNCH,7195,TORBRAM,RD,,Unit,1,MISSISSAUGA,ON,L4T4G3,422,-79.6577538,43.6987892
Restaurant,COFFEE & MORE,6965,DAVAND,DR,,Unit,1-D,MISSISSAUGA,ON,L5T1Y6,423,-79.6752063,43.6728736
Restaurant,COFFEE CULTURE,1220,EGLINTON,AVE,W,,,MISSISSAUGA,ON,L5V1N3,424,-79.6828352,43.5792216
Restaurant,COFFEE TIME DONUT,991,MATHESON,BLVD,E,Unit,16,MISSISSAUGA,ON,L4W 2V3,425,-79.641263,43.6326126
Restaurant,COFFEE TIME DONUTS,3403,FIELDGATE,DR,,,,MISSISSAUGA,ON,L4X2J4,426,-79.5886124,43.6242312
Restaurant,COFFEE TIME DONUTS,4141,DIXIE,RD,,Unit,42,MISSISSAUGA,ON,L4W1V5,427,-79.6045863,43.6252506
Restaurant,COFFEE TIME DONUTS,6355,KENNEDY,RD,,Unit,11,MISSISSAUGA,ON,L5T2L5,428,-79.6767848,43.6421575
Restaurant,COFFEE TIME DONUTS,7255,TORBRAM,RD,,,,MISSISSAUGA,ON,L4T1G8,429,-79.6603851,43.7012525
Restaurant,COLMAN COMMONS DINING HALL(U OF T) #27023,3359,MISSISSAUGA,RD,,,,MISSISSAUGA,ON,L5L1C6,430,-79.6621392,43.5473118
Restaurant,COLOMBIA MIA,3038,HURONTARIO,ST,,Unit,9,MISSISSAUGA,ON,L5B3B9,431,-79.6180128,43.5811107
Restaurant,COLOSSUS OF RHODES,280,LAKESHORE,RD,E,,,MISSISSAUGA,ON,L5G1H2,432,-79.5758839,43.5610509
Restaurant,COMPASS #23099 / BAXTER MISSISSAUGA,7125,MISSISSAUGA,RD,,,,MISSISSAUGA,ON,L5N 0C2,433,-79.7509404,43.6095341
Restaurant,COMPASS / DESJARDIN #23314,3,ROBERT SPECK ,PKWY,,,,MISSISSAUGA,ON,L4Z 3Z9,434,-79.6386312,43.5983705
Restaurant,COMPASS / ROYAL BANK MEADOWVALE #23441,6880,FINANCIAL,DR,,,,MISSISSAUGA,ON,L5N 7Y5,435,-79.7462966,43.6084463
Restaurant,COMPASS / ST. MARTIN SS #21115,2470,ROSEMARY,DR,,,,MISSISSAUGA,ON,L5C1X2,436,-79.6358238,43.5571027
Restaurant,COMPASS GROUP / INTUIT MISSISSAUGA #23043,5100,SPECTRUM,WAY,,,,MISSISSAUGA,ON,L4W 5S2,437,-79.6112559,43.6481224
Restaurant,COMPASS GROUP CANADA/MATTEL CANADA INC #23242,6155,FREEMONT,BLVD,,,,MISSISSAUGA,ON,L5R3W2,438,-79.6900251,43.6222082
Restaurant,COMPASS GROUP/AMGEN CANADA INC #23253,6775,FINANCIAL,DR,,UNIT,100,MISSISSAUGA,ON,L5N 0A4,439,-79.7431421,43.6102407
Restaurant,COMPASS/AC MAPLE LEAF LOUNGE (INTERNATIONAL)#23593,1,LESTER B PEARSON INTL AIRPORT,,,,,MISSISSAUGA,ON,,440,NA,NA
Restaurant,COMPASS/AC MAPLE LEAF LOUNGE(DOMESTIC)#23591,1,LESTER B PEARSON INTL AIRPORT,,,,,MISSISSAUGA,ON,,441,NA,NA
Restaurant,COMPASS/AC MAPLE LEAF LOUNT (TRANSBORDER) #23592,1,LESTER B PEARSON INTL AIRPORT,,,,,MISSISSAUGA,ON,,442,NA,NA
Restaurant,COMPASS/BRITISH AIRWAYS LOUNGE #20361,3,LESTER B PEARSON INTL AIRPORT,,,,,MISSISSAUGA,ON,L5P 1C4,443,-79.6628408,43.6691521
Restaurant,COMPASS/GTAA # 23075,3111,CONVAIR,DR,,,,MISSISSAUGA,ON,L5P1C2,444,NA,NA
Restaurant,COMPASS/HEWLETT PACKARD #23247,5150,SPECTRUM,WAY,,,,MISSISSAUGA,ON,L4W5G1,445,-79.613011,43.6497668
Restaurant,COMPASS/PRATT & WHITNEY #23817,1801,COURTNEYPARK,DR,E,,,MISSISSAUGA,ON,L5T1J3,446,-79.6544208,43.6731309
Restaurant,COMPASS/RBC MEADOWVALE/TIM HORTONS #23448,6880,FINANCIAL,DR,,,,MISSISSAUGA,ON,L5N 7Y5,447,-79.7462966,43.6084463
Restaurant,CONTINENTAL GRAND BUFFET,4141,DIXIE,RD,,Unit,10-12,MISSISSAUGA,ON,L4W1V5,448,-79.6045863,43.6252506
Restaurant,COOPERS PUB,780,BURNHAMTHORPE,RD,W,Unit,5,MISSISSAUGA,ON,L5C3X3,449,-79.6521403,43.5783587
Restaurant,CORA BREAKFAST & LUNCH,4559,HURONTARIO,ST,,UNIT,9-11,MISSISSAUGA,ON,L4Z 3L9,450,-79.6491579,43.605272
Restaurant,CORAS BREAKFAST & LUNCH,4120,DIXIE,RD,,Unit,15-16,MISSISSAUGA,ON,L4W 4V8,451,-79.6063415,43.6245207
Restaurant,CORAS BREAKFAST AND LUNCH,6720,MEADOWVALE TOWN CENTRE,CIR,,Unit,D3,MISSISSAUGA,ON,L5N 4B7,452,-79.7606655,43.5827032
Restaurant,COSTCO NORTH MISSISSSAUGA,5900,RODEO,DR,,,,MISSISSAUGA,ON,L5R3S9,453,-79.6905512,43.6120102
Restaurant,COUNTRY FISH & CHIPS,293,LAKESHORE,RD,E,,,MISSISSAUGA,ON,L5G1H3,454,-79.5756206,43.5606551
Restaurant,COUNTRY KITCHEN ROADHOUSE RESTAURANT,1520,TRINITY,DR,,Unit,1,MISSISSAUGA,ON,L5T 1N9,455,-79.650386,43.6583747
Restaurant,COUNTRY STYLE DONUTS,362,LAKESHORE,RD,E,,,MISSISSAUGA,ON,L5G 1H5,456,-79.5717578,43.5635698
Restaurant,COUNTRY STYLE DONUTS,6035,MCLAUGHLIN,RD,,,100,MISSISSAUGA,ON,L5R1B9,457,-79.6905512,43.6179501
Restaurant,COUNTRY STYLE DONUTS,6585,AIRPORT,RD,,Unit,B,MISSISSAUGA,ON,L4V1E4,458,-79.6252956,43.6921199
Restaurant,COUNTRY STYLE DONUTS/A&W,1465,AEROWOOD,DR,,,,MISSISSAUGA,ON,L4W 2L2,459,-79.6330164,43.6429903
Restaurant,COUNTRY STYLE MR SUB & TCBY,334,DUNDAS,ST,E,,,MISSISSAUGA,ON,L5A1W9,460,-79.6093253,43.5860353
Restaurant,COZY CAFE & DELI,101,QUEENSWAY,,W,,,MISSISSAUGA,ON,L5B2P7,461,-79.6107294,43.5721974
Restaurant,CREDIT VALLEY GOLF & COUNTRY CLUB,2500,OLD CARRIAGE,RD,,,,MISSISSAUGA,ON,L5C1Y7,462,-79.6447719,43.5545004
Restaurant,CROATIA RESTAURANT,1989A,DUNDAS,ST,E,,,MISSISSAUGA,ON,L4X 1M1,463,-79.5724601,43.6209665
Restaurant,CUCHULAINNS IRISH PUB,158,QUEEN,ST,S,,,MISSISSAUGA,ON,L5M 1K8,464,-79.7164999,43.5828713
Restaurant,CUDAS TAP AND GRILL,1107,LORNE PARK,RD,,UNIT,2,MISSISSAUGA,ON,L5H 3A1,465,-79.6128355,43.5319542
Restaurant,CULINARIA RESTAURANT,5732,KENNEDY,RD,,,,MISSISSAUGA,ON,L4Z1T1,466,-79.6610867,43.6295221
Restaurant,CULTURES,100,CITY CENTRE,DR,,Unit,1-826,MISSISSAUGA,ON,L5B 2C9,467,-79.6424911,43.5930784
Restaurant,CURRY AND NOODLE RESTAURANT,1177,CENTRAL PKY,,W,Unit,66,MISSISSAUGA,ON,L5C4P3,468,-79.6603851,43.567667
Restaurant,DAI ICHI JAPANESE RESTAURANT,3105,WINSTON CHURCHILL,BLVD,,Unit,67,MISSISSAUGA,ON,L5L 2W1,469,-79.6849396,43.5258875
Restaurant,DAIRY QUEEN BRAZIER,325,CENTRAL PKY,,W,Unit,54,MISSISSAUGA,ON,L5B3X9,470,-79.6379294,43.5834511
Restaurant,DANA HOSPITALITY / ALCON CANADA,2665,MEADOWPINE,BLVD,,,,MISSISSAUGA,ON,L5N 8C7,471,-79.7883455,43.6027301
Restaurant,DANA HOSPITALITY / CENTRE FOR HEALTH/SAFETY INNOVATION,5110,CREEKBANK,RD,,Suite,300,MISSISSAUGA,ON,L4W 0A1,472,-79.616872,43.6427012
Restaurant,DANA HOSPITALITY / MARITZ CANADA,6900,MARITZ,DR,,,,MISSISSAUGA,ON,L5W 1L8,473,-79.707033,43.6405269
Restaurant,DANA HOSPITALITY/HONEY WELL #4200,3333,UNITY,DR,,,,MISSISSAUGA,ON,L5L3T3,474,NA,NA
Restaurant,DANA HOSPITALITY/NISSAN CANADA,5290,ORBITOR,DR,,,,MISSISSAUGA,ON,L4W4Z5,475,-79.6077457,43.6602626
Restaurant,DANA HOSPITALITY/WALMART BLDG,1940,ARGENTIA,RD,,,,MISSISSAUGA,ON,L5N1P9,476,-79.7375339,43.6014156
Restaurant,DAVES CHICKEN & SEAFOOD,1151,DUNDAS,ST,W,Unit,28,MISSISSAUGA,ON,L5C 1C6,477,-79.6449474,43.5567463
Restaurant,DAYLIGHT GRILL,980,SOUTHDOWN,RD,,Unit,E-8,MISSISSAUGA,ON,L5J 2Y4,478,-79.6263484,43.5041809
Restaurant,DELIMARK CAFE,6299,AIRPORT,RD,,UNIT,B100,MISSISSAUGA,ON,L4V 1N3,479,-79.6231897,43.6907413
Restaurant,DELTA BINGO,1650,DUNDAS,ST,E,Unit,17-21,MISSISSAUGA,ON,L4X 2Z3,480,-79.5768496,43.6140956
Restaurant,DENNYS FAMILY RESTAURANT,40,COURTNEYPARK,DR,E,,,MISSISSAUGA,ON,L5T 2Y3,481,-79.6902004,43.636624
Restaurant,DENNYS RESTAURANT,5400,DIXIE,RD,,,,MISSISSAUGA,ON,L4W4T4,482,-79.6316127,43.6422684
Restaurant,DER BROTKORB BAKERY & CAFE,2458,DUNDAS,ST,W,Unit,10,MISSISSAUGA,ON,L5K 1R8,483,-79.6758202,43.5268434
Restaurant,DERI ITALIAN BAKERY,656,BLOOR,ST,,,,MISSISSAUGA,ON,L5A3V9,484,-79.6114314,43.5992996
Restaurant,DERRYDALE GOLF COURSE,185,DERRY,RD,W,,,MISSISSAUGA,ON,L5M2B5,485,NA,NA
Restaurant,DESI BAR & GRIL,925,RATHBURN,RD,E,Unit,B3,MISSISSAUGA,ON,L4W 4C3,486,-79.6173985,43.6158833
Restaurant,DIAMONDS CABARET,1820,DUNDAS,ST,E,,,MISSISSAUGA,ON,L4X1L8,487,-79.573338,43.6179298
Restaurant,DIANA PASTICCERIA & COFFEE INC.,4910,TOMKEN,RD,,Unit,1,MISSISSAUGA,ON,L4W 1J8,488,-79.6291561,43.6209671
Restaurant,DIVINE FOODS,17,QUEEN,ST,N,Unit,A-3,MISSISSAUGA,ON,L5N 6A1,489,-79.7228982,43.589023
Restaurant,DOABA SWEETS & RESTAURANT,5390,TERRY FOX,WAY,,Unit,2,MISSISSAUGA,ON,L5V 0A5,490,-79.6847643,43.5947005
Restaurant,DOOLINS PUB,1575,CLARKSON,RD,,Unit,8,MISSISSAUGA,ON,L5J 2X1,491,-79.6391576,43.5290061
Restaurant,DOOR FIFTYFIVE,55,LAKESHORE,RD,E,,,MISSISSAUGA,ON,L5G1C9,492,-79.584399,43.5522456
Restaurant,DOSA PALACE,21,DUNDAS,ST,E,Unit,2,MISSISSAUGA,ON,L5A1V9,493,-79.6156435,43.5815625
Restaurant,DOUBLE DOUBLE PIZZA & CHICKEN,3095,HURONTARIO,ST,,Unit,55,MISSISSAUGA,ON,L5A4G3,494,NA,NA
Restaurant,DRAGON PALACE CHINESE RESTAURANT,1850,DUNDAS,ST,E,,,MISSISSAUGA,ON,L4X1L9,495,-79.6916033,43.5095311
Restaurant,DRAGON STAR WOK,2225,ERIN MILLS,PKWY,,Unit,101B,MISSISSAUGA,ON,L5K1T9,496,-79.6523157,43.5309503
Restaurant,DRUXYS FAMOUS DELI,5580,EXPLORER,DR,,Unit,102,MISSISSAUGA,ON,L4W4Y1,497,-79.6105539,43.6581464
Restaurant,DRUXYS FAMOUS DELI #66,350,BURNHAMTHORPE,RD,W,Unit,120,MISSISSAUGA,ON,L5B3J1,498,-79.6435438,43.5857465
Restaurant,DUNDAS DIXIE DAIRY QUEEN,1248,DUNDAS,ST,E,Unit,5,MISSISSAUGA,ON,L4Y 2C7,499,-79.5859791,43.6084011
Restaurant,DYNASTY B.B.Q. RESTAURANT,1550,SOUTH GATEWAY,RD,,Unit,106,MISSISSAUGA,ON,L4W 5G6,500,-79.61266,43.6328177
Restaurant,EARLS RESTAURANT,100,CITY CENTRE,DR,,Unit,1-101,MISSISSAUGA,ON,L5B 2C9,501,-79.6424911,43.5930784
Restaurant,EAST SIDE MARIOS,1488,DUNDAS,ST,E,UNIT,D2,MISSISSAUGA,ON,L4X 1L4,502,-79.5779031,43.6109261
Restaurant,EAST SIDE MARIOS,3075,ARGENTIA,RD,,,,MISSISSAUGA,ON,L5N 8P7,503,-79.7928996,43.5968997
Restaurant,EAST SIDE MARIOS,5855,RODEO,DR,,,,MISSISSAUGA,ON,L4V1E3,504,-79.618978,43.68917
Restaurant,EAT MORE RESTAURANT & CAFE,5130,DIXIE,RD,,UNIT,13 & 14,MISSISSAUGA,ON,L4W 4K2,505,-79.6238039,43.6365831
Restaurant,EDDIES WOK N ROLL,6400,MILLCREEK,DR,,UNIT,6,MISSISSAUGA,ON,L5N 7L4,506,-79.7459461,43.6152466
Restaurant,EGGSMART,1930,FOWLER,DR,,Bldg,C-100,MISSISSAUGA,ON,,507,NA,NA
Restaurant,EGGSMART,5170,DIXIE,RD,,Unit,103,MISSISSAUGA,ON,L4W1E3,508,-79.6259975,43.6387872
Restaurant,EGGSMART,655,QUEENSWAY,,E,,,MISSISSAUGA,ON,L5A3X6,509,-79.5944055,43.5877877
Restaurant,EL FISHAWY CLUB,5055,PLANTATION ,PL,,Unit,4,MISSISSAUGA,ON,L5M 6J3,510,-79.715448,43.5533444
Restaurant,EL SOMBRERO FINE MEXICAN FOOD,4870,TOMKEN,RD,,Unit,D1,MISSISSAUGA,ON,L4W 1J8,511,-79.6291561,43.6209671
Restaurant,EL SOMBRERO FOOD CO INC,6990,FINANCIAL,DR,,Unit,6G-A,MISSISSAUGA,ON,,512,NA,NA
Restaurant,EL SOMBRERO FOOD CO INC,6990,FINANCIAL,DR,,Unit,6G-A,MISSISSAUGA,ON,L5N 8J4,513,-79.7494509,43.6102165
Restaurant,EL SOMBRERO FOOD COMPANY,35,BRUNEL,RD,,Unit,1A,MISSISSAUGA,ON,L4Z3E8,514,-79.6765217,43.6261769
Restaurant,ELITE ROYALE RESTAURANT & BANQUET HALL,2120,DUNDAS,ST,E,,,MISSISSAUGA,ON,L4X1L9,515,-79.6916033,43.5095311
Restaurant,ELLENS PLACE,1090,KAMATO,RD,,Unit,17-19,MISSISSAUGA,ON,L4W2P3,516,-79.6426666,43.6389743
Restaurant,EMERALD CHINESE RESTAURANT,30,EGLINTON,AVE,W,Unit,1,MISSISSAUGA,ON,L5R 3E7,517,-79.6526666,43.605592
Restaurant,EMPIRE WOK,970,SOUTHDOWN,RD,,Unit,D4,MISSISSAUGA,ON,L5J 2Y4,518,-79.6263484,43.5041809
Restaurant,ENGLISH BAY FISH & CHIPS,1224,DUNDAS,ST,W,Unit,112,MISSISSAUGA,ON,L5C 4G7,519,-79.6458246,43.5540018
Restaurant,ERINDALE FAMILY RESTAURANT,1100,DUNDAS,ST,W,Unit,9,MISSISSAUGA,ON,L5C4E7,520,-79.6430175,43.5567188
Restaurant,EURO CAFE,3,LESTER B PEARSON INTL AIRPORT,,,,,MISSISSAUGA,ON,L5P 1C4,521,-79.6628408,43.6691521
Restaurant,EVER FRESH TEA HOUSE,80,PORT,ST,E,Unit,C,MISSISSAUGA,ON,L5G 4V6,522,-79.5813267,43.5545649
Restaurant,EXPRESS AULAIT CAFETERIA,170,QUEENSWAY,,W,,,MISSISSAUGA,ON,L5B3A8,523,-79.6110804,43.5704463
Restaurant,EXTREME PITA,3021,ARGENTIA,RD,,Unit,P5,MISSISSAUGA,ON,L5N 8P7,524,-79.7928996,43.5968997
Restaurant,EXTREME PITA #23286 - BELL MOBILITY,5025,CREEKBANK,RD,,UNIT,1B12-,MISSISSAUGA,ON,,525,NA,NA
Restaurant,FAILTE IRISH PUB,201,CITY CENTRE,DR,,,109,MISSISSAUGA,ON,L5B2T4,526,-79.6414384,43.5891199
Restaurant,FAMOUS SUSHI (YZ),1177,CENTRAL,PKWY,W,Unit,1-3,Mississauga,ON,L5C4P3,527,-79.6603851,43.567667
Restaurant,FEDERICK CHINESE RESTAURANT,2515,HURONTARIO,ST,,Unit,112,MISSISSAUGA,ON,L5A 4C8,528,-79.6139763,43.5794041
Restaurant,FIONN MAC COOLS,970,SOUTHDOWN,RD,,Unit,D6,MISSISSAUGA,ON,L5J 2X4,529,-79.6181005,43.5116105
Restaurant,FIONN MACCOOLS,825,BRITANNIA,RD,W,Bldg,E,MISSISSAUGA,ON,,530,NA,NA
Restaurant,FIRE PIT,6020,HURONTARIO,ST,,Unit,3,MISSISSAUGA,ON,L5R 4B3,531,-79.681783,43.6263585
Restaurant,FISHERMANS PLAICE,3105,UNITY,DR,,Unit,32,MISSISSAUGA,ON,L5L 4L3,532,-79.7079096,43.5385336
Restaurant,FIT FOR LIFE,5100,ERIN MILLS,PKWY,,Unit,F008,MISSISSAUGA,ON,L5M4Z5,533,-79.71089,43.5603651
Restaurant,FIVE GUYS BURGER & FRIES,1510,DUNDAS,ST,E,Unit,11,MISSISSAUGA,ON,L4X 1L4,534,-79.5779031,43.6109261
Restaurant,FIVE GUYS BURGERS AND FRIES,2116,BURNHAMTHORPE,RD,W,Unit,N2,MISSISSAUGA,ON,L5L 5Z5,535,-79.6828352,43.5447341
Restaurant,FIVE GUYS BURGERS AND FRIES,6045,MAVIS,RD,,UNIT,3,MISSISSAUGA,ON,L5R 4G6,536,-79.6958116,43.614567
Restaurant,FOCACIAS ITALIAN FAST CASUAL,6990,FINANCIAL,DR,,Unit,1G-2,MISSISSAUGA,ON,L5N 8J4,537,-79.7494509,43.6102165
Restaurant,FONKOOSH,11,PEARL,ST,,,,MISSISSAUGA,ON,L5M1X1,538,-79.7135197,43.5803722
Restaurant,FORK MY LIFE,152,LAKESHORE,RD,E,,,MISSISSAUGA,ON,L5G1E9,539,-79.5812389,43.5561176
Restaurant,FORTUNE DRAGON CHINESE RESTAURANT INC.,6085,CREDITVIEW,RD,,Unit,2D,MISSISSAUGA,ON,L5V 2A8,540,-79.713169,43.5990613
Restaurant,FREDS BAR & GRILL,636,BLOOR,ST,,,,MISSISSAUGA,ON,L5A3V9,541,-79.6114314,43.5992996
Restaurant,FRESHII,5083,DIXIE,RD,,Unit,D4,MISSISSAUGA,ON,,542,NA,NA
Restaurant,FRESHII,5100,ERIN MILLS,PKWY,,Unit,B 239,MISSISSAUGA,ON,L5M4Z5,543,-79.71089,43.5603651
Restaurant,FRESHII #7101146,3,LESTER B PEARSON INTL AIRPORT,,,,,MISSISSAUGA,ON,L5P 1C4,544,-79.6628408,43.6691521
Restaurant,FRESHII/CORK & WELL,3,LESTER B PEARSON INTL AIRPORT,,,,,MISSISSAUGA,ON,L5P 1C4,545,-79.6628408,43.6691521
Restaurant,FRIENDS FISH AND CHIPS,398,LAKESHORE,RD,E,,,MISSISSAUGA,ON,L5G1H5,546,-79.5717578,43.5635698
Restaurant,FUME BAR & LOUNGE,7195,TORBRAM,RD,,UNIT,4A,MISSISSAUGA,ON,L4T 4G3,547,-79.6577538,43.6987892
Restaurant,FUSION LOUNGE INC,6915,DIXIE,RD,,Unit,4,MISSISSAUGA,ON,L5T2G2,548,-79.6628408,43.6691521
Restaurant,FV FOODS,1125,DUNDAS,ST,E,Unit,10,MISSISSAUGA,ON,L4Y2C4,549,-79.5910701,43.603968
Restaurant,GABRIELS BAR AND GRILL,6501,MISSISSAUGA,RD,,Unit,2,MISSISSAUGA,ON,L5N1A6,550,-79.7368328,43.5989753
Restaurant,GALITOS FLAME GRILLED CHICKEN,5200,DIXIE,RD,,Unit,54,MISSISSAUGA,ON,L4W 1E4,551,-79.6281032,43.6395733
Restaurant,GALITOS FLAME GRILL CHICKEN,731,CENTRAL PKY,,W,Bldg,5,MISSISSAUGA,ON,L5B 4L1,552,-79.6449474,43.5769596
Restaurant,GASPERINOS ITALIAN EATERY,1510,DREW,RD,,Unit,1,MISSISSAUGA,ON,L5S1W7,553,-79.6793278,43.6798482
Restaurant,GERMAN CANADIAN CLUB "HANSA",6650,HURONTARIO,ST,,,,MISSISSAUGA,ON,L5M2B5,554,NA,NA
Restaurant,GIBBYS CAFE INC.,2810,MATHESON,BLVD,E,Unit,105,MISSISSAUGA,ON,L4W 4X7,555,-79.5951076,43.6656306
Restaurant,GIG A BYTES,88,FOSTER,CRES,,Floor,GROUND,MISSISSAUGA,ON,L5R 4A1,556,-79.6842382,43.6262848
Restaurant,GINOS PIZZA,2157,ROYAL WINDSOR,DR,,Unit,1,MISSISSAUGA,ON,L5J 1K5,557,-79.6354729,43.5079906
Restaurant,GINOS PIZZA,735,TWAIN,AVE,,Suite,B7,MISSISSAUGA,ON,L5W 1X1,558,-79.7282445,43.6378473
Restaurant,GINOS PIZZA #145,7205,GOREWAY,DR,,Unit,24A,MISSISSAUGA,ON,L4T2T9,559,-79.6382803,43.719687
Restaurant,GIORGIOS RISTORANTE,200,QUEEN,ST,S,Unit,2,MISSISSAUGA,ON,L5M1L3,560,-79.7138703,43.5812956
Restaurant,GLAXO CAFETERIA,7333,MISSISSAUGA,RD,N,,,MISSISSAUGA,ON,L5N6L4,561,-79.7554089,43.6158041
Restaurant,GOLD STAR RESTAURANT,950,SOUTHDOWN,RD,,Unit,5B,MISSISSAUGA,ON,L5J 2Y4,562,-79.6263484,43.5041809
Restaurant,GOLDEN DOUGH,800,DUNDAS,ST,E,UNIT,D,MISSISSAUGA,ON,L4Y 2B6,563,-79.5972141,43.5957692
Restaurant,GOLDEN FOUNTAIN CHINESE RESTAURANT,1250,EGLINTON,AVE,W,Unit,A.1,MISSISSAUGA,ON,L5V1N3,564,-79.6828352,43.5792216
Restaurant,GOLDEN MOON RESTAURANT,1177,CENTRAL PKY,,W,Unit,5,MISSISSAUGA,ON,L5C 4P3,565,-79.6603851,43.567667
Restaurant,GOLDEN TURTLE VIETNAMESE RESTAURANT,723,CENTRAL,PKWY,W,Unit,101,Mississauga,ON,L5B 1L6,566,-79.6318759,43.586241
Restaurant,GOLDENVIEW CHINESE RESTAURANT,6675,FALCONER,DR,,UNIT,4,MISSISSAUGA,ON,L5N 0C3,567,-79.7278939,43.6057425
Restaurant,GOLF DOME MISSISSAUGA (DiMARCO GOLF DOME),5750,DATSUN,RD,,,,MISSISSAUGA,ON,L4W1H2,568,-79.6452983,43.6479699
Restaurant,GOODFELLAS PIZZA,209,QUEEN,ST,S,,,MISSISSAUGA,ON,L5M1L4,569,-79.713169,43.5818264
Restaurant,GORKHA PALACE,1855,DUNDAS,ST,E,Unit,3,MISSISSAUGA,ON,L4X 1M1,570,-79.5724601,43.6209665
Restaurant,GOURMET CAFE,2300,EGLINTON,AVE,W,Unit,102,MISSISSAUGA,ON,L5M2V8,571,-79.7052797,43.5592618
Restaurant,GOURMET CUISINE #23078.1/OSRAM SYLVANIA LTD,2001,DREW,RD,,,,MISSISSAUGA,ON,L5S1S4,572,-79.6677522,43.6903605
Restaurant,GRANO RISTORANTE,285,ENFIELD,PL,,Unit,R108,MISSISSAUGA,ON,L5B3Y6,573,-79.6357361,43.5903076
Restaurant,GRAYDON BAR & GRILL,235,QUEEN,ST,S,,,MISSISSAUGA,ON,L5M 1L7,574,-79.7117665,43.5805105
Restaurant,GRECIAN PLACE RESTAURANT,1935,DREW,RD,,Unit,10,MISSISSAUGA,ON,L5S1M7,575,-79.6716109,43.6892292
Restaurant,GREEK STOP,90,COURTNEYPARK,DR,E,Unit,3,MISSISSAUGA,ON,L5T 2Y3,576,-79.6902004,43.636624
Restaurant,GREEN GROTTO (GRAND PARK) INC,3920,GRAND PARK,DR,,Unit,8,MISSISSAUGA,ON,L5B 4M6,577,-79.6463509,43.5824369
Restaurant,GRILLIN HUT,1935,DREW,RD,,,15,MISSISSAUGA,ON,L5S1M7,578,-79.6716109,43.6892292
Restaurant,GURULUKSHMI,7070,SAINT BARBARA,BLVD,,Unit,48&50,MISSISSAUGA,ON,L5W 0E6,579,-79.7150974,43.63918
Restaurant,GYROS PLACE INC,1350,MATHESON,BLVD,E,Unit,10B,MISSISSAUGA,ON,L4W 4M1,580,-79.632841,43.6407483
Restaurant,HAKKA KHAZANNA,735,TWAIN,AVE,,Unit,56,MISSISSAUGA,ON,L5W 1X1,581,-79.7282445,43.6378473
Restaurant,HAKKA LEGEND ASIAN CUISINE,6415,ERIN MILLS,PKWY,,Unit,B.1,MISSISSAUGA,ON,L5N4H4,582,-79.741039,43.5868751
Restaurant,HAKKA MAGIC,812,BRITANNIA,RD,W,Unit,B1,MISSISSAUGA,ON,L5V  0A7,583,-79.6960747,43.6113981
Restaurant,HAKKA REN,4555,HURONTARIO,ST,,,C-2,MISSISSAUGA,ON,L4Z3M1,584,-79.6495965,43.6062774
Restaurant,HANDAAN FILIPINO CUISINE,3008,NOVAR,RD,,,,MISSISSAUGA,ON,L5B 1S4,585,-79.6195922,43.5782835
Restaurant,HANNAHS  CAFE & DELI,75,WATLINE,AVE,,Unit,GRO7,MISSISSAUGA,ON,L4Z3E5,586,-79.6716109,43.6233547
Restaurant,HAPPY DIM SUM BAKERY INC,680,SILVER CREEK,BLVD,,Unit,3,MISSISSAUGA,ON,L5A3Z1,587,-79.6028311,43.5950958
Restaurant,HARBIN B.B.Q,888,DUNDAS,ST,E,Unit,A.2,MISSISSAUGA,ON,L4Y 2B8,588,-79.5915968,43.6000067
Restaurant,HARRYS PLACE RESTAURANT,988,BURNHAMTHORPE,RD,E,,,MISSISSAUGA,ON,L4Y2X6,589,-79.6105539,43.6142175
Restaurant,HARVEYS,1505,DUNDAS,ST,E,,,MISSISSAUGA,ON,L4X1L3,590,-79.5824679,43.6116423
Restaurant,HARVEYS,2077,ROYAL WINDSOR,DR,,,,MISSISSAUGA,ON,L5J1K5,591,-79.6354729,43.5079906
Restaurant,HARVEYS,2681,DUNDAS,ST,W,,,MISSISSAUGA,ON,L5K1R9,592,-79.6812569,43.5242138
Restaurant,HARVEYS,6430,ERIN MILLS,PKWY,,,,MISSISSAUGA,ON,L5N 3P3,593,-79.7434926,43.5867997
Restaurant,HARVEYS #2312,715,BURNHAMTHORPE,RD,W,,,MISSISSAUGA,ON,L5C3A6,594,-79.652842,43.579017
Restaurant,HARVEYS #2466,4559,HURONTARIO,ST,,Unit,A13,MISSISSAUGA,ON,L4Z 3L9,595,-79.6491579,43.605272
Restaurant,HARVEYS RESTAURANT,6995,REXWOOD,RD,,Bldg,A,MISSISSAUGA,ON,L4V 1V5,596,-79.6259975,43.7158974
Restaurant,HAWAII BAKERY & TEA HOUSE,1100,BURNHAMTHORPE,RD,W,Unit,25,MISSISSAUGA,ON,L5C 4G4,597,-79.6612622,43.5699763
Restaurant,HAZE LOUNGE INC,4230,SHERWOODTOWNE,BLVD,,Unit,100,MISSISSAUGA,ON,L4Z2G6,598,-79.6402103,43.6001485
Restaurant,HEART SUSHI,30,BRISTOL,RD,E,Unit,1,MISSISSAUGA,ON,L4Z 3K8,599,-79.6610867,43.6152695
Restaurant,HEART SUSHI,815,BRITANNIA,RD,W,Unit,2,MISSISSAUGA,ON,L5V 2X8,600,-79.7003705,43.6093376
Restaurant,HEARTLAND SECOND CUP,5985,MAVIS,RD,,Unit,1,MISSISSAUGA,ON,L5R 3T7,601,-79.6933568,43.6116711
Restaurant,HERO CERTIFIED BURGER,2690,ERIN CENTRE,BLVD,,Unit,A007B,MISSISSAUGA,ON,L5M 5P5,602,-79.7157987,43.5584313
Restaurant,HERO CERTIFIED BURGERS,2969,ARGENTIA,RD,,Unit,5,MISSISSAUGA,ON,L5N 0A2,603,-79.7837912,43.5996461
Restaurant,HERO CERTIFIED BURGERS,6045,CREDITVIEW,RD,,Suite,F,MISSISSAUGA,ON,,604,NA,NA
Restaurant,HERSHEY CENTRE,5500,ROSE CHERRY,PL,,,,MISSISSAUGA,ON,L4Z 4B6,605,-79.6537191,43.6321163
Restaurant,HIGHLAND FARMS,50,MATHESON,BLVD,E,,,MISSISSAUGA,ON,L4Z1N5,606,-79.6702077,43.6214454
Restaurant,HILTON GARDEN INN TORONTO AIRPORT WEST,1870,MATHESON,BLVD,E,,,MISSISSAUGA,ON,L4W 0B3,607,-79.6203819,43.6382736
Restaurant,HINOTE SUSHI RESTAURANT,720,BRISTOL,RD,W,UNIT,4,MISSISSAUGA,ON,L5R 4A3,608,-79.6798539,43.5990076
Restaurant,HMSHOST/BAR 120/T1 DOMESTIC,1,LESTER B PEARSON INTL AIRPORT,,,,,MISSISSAUGA,ON,L5P 1C4,609,-79.6628408,43.6691521
Restaurant,HMSHOST/BEACHES-FARMERS MARKET/T1 DOMESTIC,1,LESTER B PEARSON INTL AIRPORT,,,,,MISSISSAUGA,ON,L5P 1C4,610,-79.6628408,43.6691521
Restaurant,HMSHOST/BELAIRE-STARBUCKS/T1 PRE SECURE ARRIVALS,1,LESTER B PEARSON INTL AIRPORT,,,,,MISSISSAUGA,ON,L5P 1C4,611,-79.6628408,43.6691521
Restaurant,HMSHOST/BICI CASEY-SUSAR LEE/T1 INTERNATIONAL,1,LESTER B PEARSON INTL AIRPORT,,,,,MISSISSAUGA,ON,,612,NA,NA
Restaurant,HMSHOST/BRIOCHE-PARAMOUNT/T3 INTERNATIONAL,3,LESTER B PEARSON INTL AIRPORT,,,,,MISSISSAUGA,ON,L5P 1C4,613,-79.6628408,43.6691521
Restaurant,HMSHOST/CAPLANSKY-STARBUCKS/T3 DOMESTIC,3,LESTER B PEARSON INTL AIRPORT,,,,,MISSISSAUGA,ON,L5P 1C4,614,-79.6628408,43.6691521
Restaurant,HMSHOST/CASEY-TWIST/T1 DOMESTIC,1,LESTER B PEARSON INTL AIRPORT,,,,,MISSISSAUGA,ON,L5P 1C4,615,-79.6628408,43.6691521
Restaurant,HMSHOST/FIONN MACOOL/T3 DOMESTIC,3,LESTER B PEARSON INTL AIRPORT,,,,,MISSISSAUGA,ON,L5P 1C4,616,-79.6628408,43.6691521
Restaurant,HMSHOST/GREAT CANADIAN BAGEL/T1 US,1,LESTER B PEARSON INTL AIRPORT,,,,,MISSISSAUGA,ON,L5P 1C4,617,-79.6628408,43.6691521
Restaurant,HMSHOST/KENSINGTON FOOD COURT/T1 DOMESTIC,1,LESTER B PEARSON INTL AIRPORT,,,,,MISSISSAUGA,ON,L5P 1C4,618,-79.6628408,43.6691521
Restaurant,HMSHOST/METEOR/T3 US,3,LESTER B PEARSON INTL AIRPORT,,,,,MISSISSAUGA,ON,L5P 1C4,619,-79.6628408,43.6691521
Restaurant,HMSHOST/MOLSON-HEARTH/T1 US,1,LESTER B PEARSON INTL AIRPORT,,,,,MISSISSAUGA,ON,L5P 1C4,620,-79.6628408,43.6691521
Restaurant,HMSHOST/RED ROCKETS/T1 DOMESTIC,1,LESTER B PEARSON INTL AIRPORT,,,,,MISSISSAUGA,ON,L5P 1C4,621,-79.6628408,43.6691521
Restaurant,HMSHOST/SKY BAR-CAPLANSKYS/T1 PRE SECURE,1,LESTER B PEARSON INTL AIRPORT,,,,,MISSISSAUGA,ON,L5P 1C4,622,-79.6628408,43.6691521
Restaurant,HMSHOST/STARBUCKS/T1 INTERNATIONAL,1,LESTER B PEARSON INTL AIRPORT,,,,,MISSISSAUGA,ON,L5P 1C4,623,-79.6628408,43.6691521
Restaurant,HMSHOST/STARBUCKS/T1 US,1,LESTER B PEARSON INTL AIRPORT,,,,,MISSISSAUGA,ON,L5P 1C4,624,-79.6628408,43.6691521
Restaurant,HMSHOST/STARBUCKS/T3 US,3,LESTER B PEARSON INTL AIRPORT,,,,,MISSISSAUGA,ON,L5P 1C4,625,-79.6628408,43.6691521
Restaurant,HMSHOST/STARBUCKS/TERMINAL 3 PRE SECURE,3,LESTER B PEARSON INTL AIRPORT,,,,,MISSISSAUGA,ON,L5P 1C4,626,-79.6628408,43.6691521
Restaurant,HMSHOST/TIM HORTONS/T3 PRE SECURE,3,LESTER B PEARSON INTL AIRPORT,,,,,MISSISSAUGA,ON,L5P 1C4,627,-79.6628408,43.6691521
Restaurant,HMSHOST/TIM HORTONS/TERM 3 DOMES DEP,3,LESTER B PEARSON INTL AIRPORT,,,,,MISSISSAUGA,ON,L5P 1C4,628,-79.6628408,43.6691521
Restaurant,HMSHOST/TIM HORTONS/TERMINAL 3 DEPARTURES,3,LESTER B PEARSON INTL AIRPORT,,,,,MISSISSAUGA,ON,L5P 1C4,629,-79.6628408,43.6691521
Restaurant,HMSHOST/YORKVILLE FOOD COURT/T1 PRE SECURE,1,LESTER B PEARSON INTL AIRPORT,,,,,MISSISSAUGA,ON,L5P1C4,630,-79.6628408,43.6691521
Restaurant,HOLIDAY GARDEN & DODAI SUSHI RESTAURANT,277,LAKESHORE,RD,E,,,MISSISSAUGA,ON,L5G1G8,631,-79.5770252,43.5592979
Restaurant,HOMESTYLE FISH & CHIPS,1250,EGLINTON,AVE,W,Unit,A.11,MISSISSAUGA,ON,L5V 1N3,632,-79.6828352,43.5792216
Restaurant,HONEY PEPPER,1550,SOUTH GATEWAY,RD,,Unit,1F,MISSISSAUGA,ON,L4W 5G6,633,-79.61266,43.6328177
Restaurant,HOOPS SPORTS BAR & GRILL,29,AVENTURA,CRT,,Unit,2,MISSISSAUGA,ON,L5T 2Y6,634,-79.7037018,43.6469033
Restaurant,HOT BBQ PLACE,1085,FEWSTER,DR,,Unit,12,MISSISSAUGA,ON,L4W1A2,635,-79.6203819,43.6293685
Restaurant,HOT PLATE GOURMET PIZZA AND WINGS,69,DUNDAS,ST,W,,,MISSISSAUGA,ON,L5B 1H7,636,-79.6188025,43.5785828
Restaurant,HOT WINGS CHINESE RESTAURANT,1055,CANADIAN,PL,,Unit,115,MISSISSAUGA,ON,L4W 0C2,637,-79.6251299,43.647634
Restaurant,HOUSE OF PEPPER,1550,SOUTH GATEWAY,RD,,Unit,1G,MISSISSAUGA,ON,L4W 5G6,638,-79.61266,43.6328177
Restaurant,HUNGRY JACK,1650,DUNDAS,ST,E,Unit,6,MISSISSAUGA,ON,L4X 2Z3,639,-79.5768496,43.6140956
Restaurant,HUSKY HOUSE,1553,SHAWSON,DR,,,,MISSISSAUGA,ON,L4W 1T7,640,-79.6410875,43.6558943
Restaurant,HUSKY TRUCK STOP,6625,KENNEDY,RD,,,,MISSISSAUGA,ON,L5T 2W5,641,-79.6903758,43.6510357
Restaurant,I LOVE PHO,848,BURNHAMTHORPE,RD,W,Unit,5,MISSISSAUGA,ON,L5C2S3,642,-79.6561751,43.5744171
Restaurant,IDO CAFE,4099,ERIN MILLS,PKWY,,Unit,17,MISSISSAUGA,ON,L5L3P9,643,-79.6884469,43.5511919
Restaurant,IFFATS A1-DONUTS,2150,BURNHAMTHORPE,RD,W,Unit,H-21,MISSISSAUGA,ON,L5L3A2,644,-79.6843258,43.5449439
Restaurant,IL PORCELLINO ITALIAN RESTAURANT,6720,DAVAND,DR,,Unit,1-2,MISSISSAUGA,ON,L5T 2K7,645,-79.6679276,43.6673905
Restaurant,IL TARTUFO RISTORANTE INC,7033,TELFORD,WAY,,Unit,8,MISSISSAUGA,ON,L5S1V4,646,-79.6695061,43.6813271
Restaurant,IMPERIAL BUFFET,3120,DIXIE,RD,,,,MISSISSAUGA,ON,L4W 4G1,647,-79.6245936,43.639846
Restaurant,INTERNATIONAL CENTRE,6900,AIRPORT,RD,,,,MISSISSAUGA,ON,L4V1E8,648,-79.6382803,43.7030897
Restaurant,INTERNATIONAL SPORTS BAR AND EATERY,2480,CAWTHRA,RD,,Unit,1,MISSISSAUGA,ON,L5A2X2,649,-79.5970386,43.5917428
Restaurant,IONA CATHOLIC S.S./STRANO CULINARY SERVICES LTD,2170,SOUTH SHERIDAN,WAY,,,,MISSISSAUGA,ON,L5J2M4,650,-79.6481053,43.5210462
Restaurant,IRON CHEF JAPANESE STEAKHOUSE ASIAN CUISINE,4920,TOMKEN,RD,,Unit,5,MISSISSAUGA,ON,L4W 1J8,651,-79.6291561,43.6209671
Restaurant,ISLAND PALACE,1125,DUNDAS,ST,E,Unit,12A,MISSISSAUGA,ON,L4Y 2C4,652,-79.5910701,43.603968
Restaurant,ITALIAN EXPRESS CAFE RESTAURANT,1151,EGLINTON,AVE,E,Unit,4,MISSISSAUGA,ON,L4W1K6,653,-79.6259975,43.6316632
Restaurant,JACK ASTORS BAR AND GRILL,219,RATHBURN,RD,W,,,MISSISSAUGA,ON,,654,NA,NA
Restaurant,JACK ASTORS BAR AND GRILL,2967,ARGENTIA,RD,,Bldg,J,MISSISSAUGA,ON,,655,NA,NA
Restaurant,JACK ASTORS BAR AND GRILL,3047,VEGA,BLVD,,,,MISSISSAUGA,ON,,656,NA,NA
Restaurant,JADE DIM-SUM,2280,DIXIE,RD,,Unit,1A,MISSISSAUGA,ON,L4Y1Z4,657,-79.5768496,43.602217
Restaurant,JAGS FISH N CHIPS,6415,ERIN MILLS,PKWY,,Unit,3A,MISSISSAUGA,ON,L5N 4H4,658,-79.741039,43.5868751
Restaurant,JALSA,2555,ERIN CENTRE,BLVD,,Unit,34,MISSISSAUGA,ON,L5M5H1,659,-79.7129937,43.5676913
Restaurant,JAM HOUSE SEAFOOD RESTAURANT,1425,DUNDAS,ST,E,Unit,3,MISSISSAUGA,ON,,660,NA,NA
Restaurant,JAN CHI,2580,SHEPARD,AVE,,Unit,F3,MISSISSAUGA,ON,L5A 4K3,661,-79.6149415,43.5806068
Restaurant,JANG KANG RESTAURANT,257,DUNDAS,ST,E,Unit,8 & 9,MISSISSAUGA,ON,L5A 1W8,662,-79.6114314,43.5853368
Restaurant,JEANIES BAR BISTRO,5977,DIXIE,RD,,,,MISSISSAUGA,ON,L4W 1E8,663,-79.6452983,43.6550917
Restaurant,JERUSALEM RESTAURANT,1280,MATHESON,BL,E,,,MISSISSAUGA,ON,L4W2Z7,664,-79.6344201,43.6395569
Restaurant,JESSIES SANDWICHES,450,MATHESON,BLVD,E,Unit,50&51,MISSISSAUGA,ON,L4Z 1R5,665,-79.6567013,43.6260051
Restaurant,JIMMY THE GREEK,100,CITY CENTRE,DR,,,1-137,MISSISSAUGA,ON,L5B2C9,666,-79.6424911,43.5930784
Restaurant,JIMMY THE GREEK,5100,ERIN MILLS,PKWY,,Unit,FC005,MISSISSAUGA,ON,L5M 4Z5,667,-79.71089,43.5603651
Restaurant,JING THAI RESTAURANT,63,QUEEN,ST,S,Unit,1-3,MISSISSAUGA,ON,L5M3S9,668,-79.7183405,43.5856385
Restaurant,JJ...JAPENESE,6485,MISSISSAUGA,RD,,Unit,3,MISSISSAUGA,ON,L5N 1A6,669,-79.7368328,43.5989753
Restaurant,JJQS BILLIARDS & SNOOKER CLUB,3055,DUNDAS,ST,W,Unit,1,MISSISSAUGA,ON,L5L3R8,670,-79.6849396,43.521722
Restaurant,JOES RESTAURANT,7050,BRAMALEA,RD,,Unit,31,MISSISSAUGA,ON,L5S1T1,671,-79.6645949,43.6850318
Restaurant,JOHN ANDERSONS,1069,DUNDAS,ST,W,,,MISSISSAUGA,ON,L5C1C3,672,-79.6430175,43.5582054
Restaurant,JOHNNY PANINIS ITALIAN SANDWICHES INC,6740,DAVAND,DR,,Unit,8,MISSISSAUGA,ON,L5T 2K9,673,-79.6700323,43.6684721
Restaurant,JUDE RESTAURANT & CAFE,2273,DUNDAS,ST,W,Unit,6,MISSISSAUGA,ON,L5K 2L8,674,-79.6723124,43.5324742
Restaurant,JUICE HEADZ,40,ANNAGEM,BLVD,,,,MISSISSAUGA,ON,L5T 2Y3,675,-79.6902004,43.636624
Restaurant,JUNG THAI RESTAURANT,105,DUNDAS,ST,E,,,MISSISSAUGA,ON,L5A1W7,676,-79.614064,43.5830522
Restaurant,JUST CATERING / LOYOLA CS,4010,SLADEVIEW,CRES,,,,MISSISSAUGA,ON,L5L 6B1,677,-79.715448,43.5247879
Restaurant,JUST CATERING FOOD SERVICES,7640,ANAKA,DR,,,,MISSISSAUGA,ON,L4T 3H7,678,-79.6533683,43.7225456
Restaurant,JUST CATERING/FATHER MICHAEL GOETZ SS,330,CENTRAL PKY,,W,,,MISSISSAUGA,ON,L5B3K6,679,-79.6354729,43.581741
Restaurant,K K SUSHI JAPANESE RESTAURANT,5130,DIXIE,RD,,Unit,6A,7,MISSISSAUGA,ON,L4W1C9,680,-79.6224878,43.6360917
Restaurant,K-POCHA RESTAURANT,169,DUNDAS,ST,E,Unit,7,MISSISSAUGA,ON,L5A1W8,681,-79.6114314,43.5853368
Restaurant,KABANA RESTAURANT & SWEETS,3435,EGLINTON,AVE,W,Unit,4,MISSISSAUGA,ON,,682,NA,NA
Restaurant,KALAS KITCHEN,1225,MATHESON,BLVD,E,Unit,1,MISSISSAUGA,ON,L4W 1Y9,683,-79.6221368,43.6476344
Restaurant,KALYPSO HUT FAMILY RESTAURANT INC,1455,BRITANNIA,RD,E,Unit,1,MISSISSAUGA,ON,L4W1C7,684,-79.6519648,43.6524359
Restaurant,KANDA JAPANESE RESTAURANT,2325,HURONTARIO,ST,,Unit,8910,MISSISSAUGA,ON,,685,NA,NA
Restaurant,KANDAHAR KABOB,5165,DIXIE,RD,,Unit,1,MISSISSAUGA,ON,L5T 1J6,686,-79.6644195,43.6525324
Restaurant,KAOI SUSHI,888,DUNDAS,ST,E,Unit,F.6,MISSISSAUGA,ON,L4Y4G6,687,-79.5950857,43.5984517
Restaurant,KARA MIA,5120,DIXIE,RD,,Unit,3 & 4,MISSISSAUGA,ON,L4W 4J7,688,-79.623453,43.6364026
Restaurant,KARACHI GRILL,3425,FIELDGATE,DR,,Unit,10,MISSISSAUGA,ON,L4X 2J4,689,-79.5886124,43.6242312
Restaurant,KARACHI KITCHEN,6560,MEADOWVALE TOWN CENTRE,CIR,,Unit,1,MISSISSAUGA,ON,L5N 4B7,690,-79.7606655,43.5827032
Restaurant,KELSEYS RESTAURANT,1485,AEROWOOD,DR,,,,MISSISSAUGA,ON,L4W 0C2,691,-79.6251299,43.647634
Restaurant,KELSEYS GRAND PARK,3970,GRAND PARK,DR,,,,MISSISSAUGA,ON,,692,NA,NA
Restaurant,KENNEDY CLUB,6235,KENNEDY,RD,,,,MISSISSAUGA,ON,,693,NA,NA
Restaurant,KENTUCKY FRIED CHICKEN,100,CITY CENTRE,DR,,Unit,2-102,MISSISSAUGA,ON,L5B 2C9,694,-79.6424911,43.5930784
Restaurant,KENTUCKY FRIED CHICKEN,2690,ERIN CENTRE,BLVD,,Unit,A006,MISSISSAUGA,ON,L5M 5P5,695,-79.7157987,43.5584313
Restaurant,KENTUCKY FRIED CHICKEN,6277,MISSISSAUGA,RD,,Unit,3,MISSISSAUGA,ON,L5N 1A5,696,-79.7305231,43.5954333
Restaurant,KENTUCKY FRIED CHICKEN,6740,MEADOWVALE TOWN CENTRE,CIR,,Unit,C,MISSISSAUGA,ON,L5N 2R5,697,-79.759439,43.5833356
Restaurant,KENTUCKY FRIED CHICKEN #1346,3015,WINSTON CHURCHILL,BLVD,,,,MISSISSAUGA,ON,L5L 2V8,698,-79.6828352,43.5245061
Restaurant,KENTUCKY FRIED CHICKEN/TACO BELL,5100,ERIN MILLS,PKWY,,Unit,F.5,MISSISSAUGA,ON,,699,NA,NA
Restaurant,KENZO RAMEN MISSISSAUGA,720,BURNHAMTHORPE,RD,W,Unit,1,MISSISSAUGA,ON,L5C3G1,700,-79.6521403,43.5777643
Restaurant,KFC #1371,4559,HURONTARIO,ST,,Unit,A7,MISSISSAUGA,ON,L4Z3L9,701,-79.6491579,43.605272
Restaurant,KFC / TACO BELL #1396,2285,ERIN MILLS,PKWY,,,,MISSISSAUGA,ON,L5K 1T8,702,-79.6547717,43.5296868
Restaurant,KFC/TACO BELL #1330,7161,GOREWAY,DR,,,,MISSISSAUGA,ON,L4T2T5,703,-79.6352975,43.7165993
Restaurant,KHAN MURJAN CAFE,1675,THE CHASE,,,UNIT,17,MISSISSAUGA,ON,L5M 5Y7,704,-79.7005458,43.5652246
Restaurant,KIM FOOK YUEN SEAFOOD B.B.Q. REST. INC.,3068,HURONTARIO,ST,,,,MISSISSAUGA,ON,L5B1N7,705,-79.6210839,43.580723
Restaurant,KING ASIAN RESTAURANT,2500,HURONTARIO,ST,,Unit,11,MISSISSAUGA,ON,L5B1N4,706,-79.614064,43.5777034
Restaurant,KOBE SIZZLERS,808,BRITANNIA,RD,W,UNIT,105,MISSISSAUGA,ON,L5V 2Y1,707,-79.6986171,43.6124457
Restaurant,KOIS MEDITERRANEAN,5170,DIXIE,RD,,Unit,10,MISSISSAUGA,ON,L4W 1E3,708,-79.6259975,43.6387872
Restaurant,KONKAN DELITE,3181,WOLFEDALE,RD,,Unit,1,MISSISSAUGA,ON,L5C 1V8,709,-79.6452983,43.5707502
Restaurant,KOO KOO CHICKEN INC,1525,BRISTOL,RD,W,Unit,10,MISSISSAUGA,ON,L5M 4Z1,710,-79.6987924,43.586169
Restaurant,KRAVINGZ INC,1710,LAKESHORE,RD,W,,,MISSISSAUGA,ON,L5J 1J5,711,-79.6219613,43.5179147
Restaurant,KRAZZY GYRO,2121,DUNDAS,ST,E,UNIT,1,MISSISSAUGA,ON,L4X 1M3,712,-79.5670168,43.626255
Restaurant,KRISPY KREME DOUGHNUTS,5920,MAVIS,RD,,,,MISSISSAUGA,ON,L5V 2P5,713,-79.6947596,43.6100163
Restaurant,KUNG FU DUCK,1177,CENTRAL PKY,,W,UNIT,57-58,MISSISSAUGA,ON,L5M 0A5,714,-79.7387607,43.540137
Restaurant,KURA SUSHI BAR,405,BRITANNIA,RD,E,Unit,110,MISSISSAUGA,ON,L4Z3E6,715,-79.6685853,43.6337305
Restaurant,LA CASA DOLCE INC,755,QUEENSWAY,,E,Unit,1,MISSISSAUGA,ON,L4Y 4C5,716,-79.5915968,43.5899069
Restaurant,LA CASTILLE STEAK HOUSE,2179,DUNDAS,ST,E,,,MISSISSAUGA,ON,L4X1M3,717,-79.5670168,43.626255
Restaurant,LA PARMIGIANA ITALIAN EATERY,5484,TOMKEN,RD,,Unit,1,MISSISSAUGA,ON,L4W2Z6,718,-79.6451228,43.6350428
Restaurant,LA PREP,2325,MATHESON,BLVD,E,Unit,5,MISSISSAUGA,ON,L4W 5B3,719,-79.6049374,43.6558518
Restaurant,LA SCALA RESTAURANT,2601,MATHESON,BLVD,E,Unit,1&2,MISSISSAUGA,ON,L4W5A8,720,-79.6007248,43.6596193
Restaurant,LA STAZIONE ITALIAN BAKERY DELI & CAFE,6900,MILLCREEK,DR,,Unit,1,MISSISSAUGA,ON,L5N 6C1,721,-79.7555841,43.5948752
Restaurant,LAC VIEN VIETNAMESE RESTAURANT,1580,DUNDAS,ST,E,,,MISSISSAUGA,ON,L4X 1L4,722,-79.5779031,43.6109261
Restaurant,LAZAR FAMOUS DELI & BAKERY,325,CENTRAL PKY,,W,Unit,12,MISSISSAUGA,ON,,723,NA,NA
Restaurant,LAZEEZ SHAWARMA AND MEDITERRANEAN GRILL,5618,TENTH,LINE,W,Unit,E7,MISSISSAUGA,ON,L5M 7L9,724,-79.7431421,43.5585266
Restaurant,LAZEEZ SHAWARMA AND MEDITERRANEAN GRILL,6085,CREDITVIEW,RD,,Unit,1002B,MISSISSAUGA,ON,L5V 2A8,725,-79.713169,43.5990613
Restaurant,LE ROYAL RESTO & LOUNGE,755,QUEENSWAY,,E,UNIT,116,MISSISSAUGA,ON,L4Y4C5,726,-79.5915968,43.5899069
Restaurant,LEAO DOURO RESTAURANTE,920,DUNDAS,ST,E,,,MISSISSAUGA,ON,L4Y2B8,727,-79.5915968,43.6000067
Restaurant,LEELAS ROTI & DOUBLES INC.,900,RATHBURN,RD,W,Unit,E1&2,MISSISSAUGA,ON,L5C 4L2,728,-79.6612622,43.5782985
Restaurant,LEMONGRASS KITCHEN,1550,SOUTH GATEWAY,RD,,Unit,1C,MISSISSAUGA,ON,L4W5G6,729,-79.61266,43.6328177
Restaurant,LENAS ROTI & DOUBLES 2 INC,6990,FINANCIAL,DR,,Unit,6G,MISSISSAUGA,ON,L5V 2N1,730,-79.6882715,43.5947221
Restaurant,LEZZET SHAWARMA FALAFEL HOUSE,4120,DIXIE,RD,,Unit,10,MISSISSAUGA,ON,L4W 4V8,731,-79.6063415,43.6245207
Restaurant,LILYS PLACE LTD.,1381,LAKESHORE,RD,E,Unit,6,MISSISSAUGA,ON,L5E1G6,732,-79.5507729,43.5848919
Restaurant,LION CITY RESTAURANT,1177,CENTRAL PKY,,W,Unit,A70,MISSISSAUGA,ON,L5C 4P3,733,-79.6603851,43.567667
Restaurant,LIONHEART BRITISH PUB & RESTAURANT,3221,DERRY,RD,W,Unit,24,MISSISSAUGA,ON,L5N 7L7,734,-79.7781855,43.5830933
Restaurant,LITTLE CAESARS,4141,DIXIE,RD,,Unit,23B,MISSISSAUGA,ON,L4W 1V5,735,-79.6045863,43.6252506
Restaurant,LIVE! CUISINE,4141,LIVING ARTS,DR,,,,MISSISSAUGA,ON,L5B4B8,736,-79.6456491,43.5895042
Restaurant,LOBLAWS SUPERMARKET #1011,5010,GLEN ERIN,DR,,,,MISSISSAUGA,ON,L5M 6J3,737,-79.715448,43.5533444
Restaurant,LONGOS,1891,RATHBURN,RD,E,,,MISSISSAUGA,ON,L4W 3Z3,738,-79.5958098,43.636023
Restaurant,LONGOS,3163,WINSTON CHURCHILL,BLVD,,Unit,3,MISSISSAUGA,ON,L5L 2W1,739,-79.6849396,43.5258875
Restaurant,LOTUS ISLAND VIETNAMESE EATERY,1381,LAKESHORE,RD,E,Unit,1,MISSISSAUGA,ON,L5E1G6,740,-79.5507729,43.5848919
Restaurant,LOVELY SWEETS & RESTAURANT,7072,AIRPORT,RD,,,,MISSISSAUGA,ON,L4T 2G8,741,-79.6449474,43.7051805
Restaurant,LUCYS SEAFOOD KITCHEN & CAFE,6905,MILLCREEK,DR,,Unit,78,MISSISSAUGA,ON,L5N6A3,742,-79.7571611,43.5960576
Restaurant,LUEN HING BARBECUE,888,DUNDAS,ST,E,Unit,F.1,MISSISSAUGA,ON,L4Y4G6,743,-79.5950857,43.5984517
Restaurant,MAA SAGAR,40,BRISTOL,RD,E,Unit,2,MISSISSAUGA,ON,L4Z3K8,744,-79.6610867,43.6152695
Restaurant,MACEYS RESTAURANT,780,BURNHAMTHORPE,RD,W,Unit,2B,MISSISSAUGA,ON,L5C3X3,745,-79.6521403,43.5783587
Restaurant,MACYS DINER & DELICATESSEN,2257,ROYAL WINDSOR,DR,,Unit,B,MISSISSAUGA,ON,L5J1K5,746,-79.6354729,43.5079906
Restaurant,MADE IN JAPAN TERIYAKI EXPERIENCE,1475,AEROWOOD,DR,,Unit,B02,MISSISSAUGA,ON,L4W 1C2,747,-79.6344201,43.6437121
Restaurant,MADE IN JAPAN TERIYAKI EXPERIENCE,6550,MEADOWVALE TOWN CENTRE,CIR,,Unit,M-02A,MISSISSAUGA,ON,L5N 4B7,748,-79.7606655,43.5827032
Restaurant,MADE IN JAPAN TERIYAKI EXPERIENCE,6990,FINANCIAL,DR,,Unit,G9,MISSISSAUGA,ON,L5N 8J4,749,-79.7494509,43.6102165
Restaurant,MADE IN JAPAN TERIYAKI EXPERIENCE,815,BRITANNIA,RD,W,Unit,4,MISSISSAUGA,ON,L5V 2W1,750,-79.6975651,43.6090829
Restaurant,MADE IN JAPAN TERIYAKI EXPERIENCE,960,SOUTHDOWN,RD,,Unit,C-2,MISSISSAUGA,ON,L5J 2Y4,751,-79.6263484,43.5041809
Restaurant,MAMMA DS,4544,EASTGATE,PKWY,,,,MISSISSAUGA,ON,L4W 3W6,752,-79.613011,43.6378959
Restaurant,MAMMAS PIZZA,30,EGLINTON,AVE,W,Unit,3,MISSISSAUGA,ON,L5R 3E7,753,-79.6526666,43.605592
Restaurant,MAN DOO HYANG,169,DUNDAS,ST,E,,10 &12,MISSISSAUGA,ON,L5A1W8,754,-79.6114314,43.5853368
Restaurant,MANCHU WOK,100,CITY CENTRE,DR,,Unit,1-135,MISSISSAUGA,ON,L5B 2C9,755,-79.6424911,43.5930784
Restaurant,MANDARIN ERIN MILLS,3105,DUNDAS,ST,W,,101,MISSISSAUGA,ON,L5L3R8,756,-79.6849396,43.521722
Restaurant,MANDARIN RESTAURANT - MISSISSAUGA,87,MATHESON,BLVD,E,,,MISSISSAUGA,ON,L4Z 2Y5,757,-79.668103,43.620066
Restaurant,MANGO RAIN GROUP INC,1714,LAKESHORE,RD,W,,,MISSISSAUGA,ON,L5J1J5,758,-79.6219613,43.5179147
Restaurant,MANGOES RESTAURANT AND BAR,2907,DERRY,RD,E,,,MISSISSAUGA,ON,L4T 1A6,759,-79.6440702,43.7031737
Restaurant,MARCO POLO RESTOBAR,1971,LAKESHORE,RD,W,,,MISSISSAUGA,ON,L5J1J6,760,-79.6245936,43.5168164
Restaurant,MARCONI PIZZA 2001,3635,CAWTHRA,RD,,Unit,7,MISSISSAUGA,ON,L5A2Y5,761,-79.6171353,43.6071729
Restaurant,MARIOS BBQ & GRILL,2500,HURONTARIO,ST,,UNIT,1,MISSISSAUGA,ON,L5B 1N4,762,-79.614064,43.5777034
Restaurant,MARKETPLACE #17423 / SHERIDAN COLLEGE-HAZEL MCCALLION CAMPUS,4180,DUKE OF YORK,BLVD,,,,MISSISSAUGA,ON,L5B 0G5,763,-79.6302609,43.579882
Restaurant,MARKETPLACE SECOND CUP,4553,HURONTARIO,ST,,Unit,E.2,MISSISSAUGA,ON,L4Z3M1,764,-79.6495965,43.6062774
Restaurant,MARY BROWNS FAMOUS CHICKEN & TATERS,2400,DUNDAS,ST,W,Unit,1,MISSISSAUGA,ON,L5K 2R8,765,-79.6751186,43.5279696
Restaurant,MARY BROWNS FAMOUS CHICKEN AND TATERS,5067,DIXIE,RD,,Unit,2B,MISSISSAUGA,ON,L4W 5S6,766,-79.6203819,43.6370863
Restaurant,MASALA BITES,660,EGLINTON,AVE,W,Unit,5B,MISSISSAUGA,ON,L5R 3V2,767,-79.667226,43.593105
Restaurant,MASAMUNE JAPANESE RESTAURANT,5200,DIXIE,RD,,Unit,8,MISSISSAUGA,ON,L4W1E4,768,-79.6281032,43.6395733
Restaurant,MASTER STEAKS RESTAURANT,5895,DIXIE,RD,,,,MISSISSAUGA,ON,L4W1E8,769,-79.6452983,43.6550917
Restaurant,MAXS DINER,975,MIDWAY,BLVD,,Unit,3A-D,MISSISSAUGA,ON,L5T2C6,770,-79.6772232,43.660671
Restaurant,MAZ MAZ SHAWARMA,5945,DIXIE,RD,,Unit,2,MISSISSAUGA,ON,L4W1E8,771,-79.6452983,43.6550917
Restaurant,MAZAJ,1195,MEYERSIDE,DR,,,2, 3,MISSISSAUGA,ON,L5T1H3,772,-79.6603851,43.6555773
Restaurant,MAZAYA,5120,DIXIE,RD,,Unit,1,MISSISSAUGA,ON,L4W4J7,773,-79.623453,43.6364026
Restaurant,MCADAM PLACE RESTAURANT,5659,MCADAM,RD,,Unit,B.9,MISSISSAUGA,ON,L4Z 1N9,774,-79.6652965,43.6251552
Restaurant,MCDONALDS,2965,EGLINTON,AVE,W,,,MISSISSAUGA,ON,,775,NA,NA
Restaurant,MCDONALDS,3025,CLAYHILL,RD,,,,MISSISSAUGA,ON,L5B 4L2,776,-79.6270504,43.5738391
Restaurant,MCDONALDS,6650,MEADOWVALE TOWN CENTRE,CIR,,,,MISSISSAUGA,ON,L5N 4B7,777,-79.7606655,43.5827032
Restaurant,MCDONALDS RESTAURANT,1050,DUNDAS,ST,E,,,MISSISSAUGA,ON,L4Y 2B8,778,-79.5915968,43.6000067
Restaurant,MCDONALDS RESTAURANT,1256,EGLINTON,AVE,W,,,MISSISSAUGA,ON,L5V2B5,779,-79.6875701,43.5842583
Restaurant,MCDONALDS RESTAURANT,1500,DUNDAS,ST,E,,,MISSISSAUGA,ON,L4X1L4,780,-79.5779031,43.6109261
Restaurant,MCDONALDS RESTAURANT,1829,LAKESHORE,RD,W,,,MISSISSAUGA,ON,L5J1J6,781,-79.6245936,43.5168164
Restaurant,MCDONALDS RESTAURANT,2255,ERIN MILLS,PKWY,,Unit,1-C,MISSISSAUGA,ON,,782,NA,NA
Restaurant,MCDONALDS RESTAURANT,2500,HURONTARIO,ST,,Unit,6,MISSISSAUGA,ON,L5B1N4,783,-79.614064,43.5777034
Restaurant,MCDONALDS RESTAURANT,3510,DERRY,RD,E,,,MISSISSAUGA,ON,L4T3V7,784,-79.6288051,43.7149687
Restaurant,MCDONALDS RESTAURANT,377,BURNHAMTHORPE,RD,E,Unit,51,MISSISSAUGA,ON,L5A 3Y1,785,-79.6266994,43.6026272
Restaurant,MCDONALDS RESTAURANT,44,BRISTOL,RD,E,,,MISSISSAUGA,ON,L4Z3K8,786,-79.6610867,43.6152695
Restaurant,MCDONALDS RESTAURANT,5310,DIXIE,RD,,,,MISSISSAUGA,ON,L4W1E3,787,-79.6259975,43.6387872
Restaurant,MCDONALDS RESTAURANT,5636,GLEN ERIN,DR,,,,MISSISSAUGA,ON,L5M6B1,788,-79.7291209,43.5655842
Restaurant,MCDONALDS RESTAURANT,5995,MAVIS,RD,,,,MISSISSAUGA,ON,L5R3T7,789,-79.6933568,43.6116711
Restaurant,MCDONALDS RESTAURANT,601,LAKESHORE,RD,E,,,MISSISSAUGA,ON,L5G1H9,790,-79.5708798,43.5675015
Restaurant,MCDONALDS RESTAURANT,6410,MILLCREEK,DR,,,,MISSISSAUGA,ON,L5N 3E7,791,-79.740338,43.5891892
Restaurant,MCDONALDS RESTAURANT,670,EGLINTON,AVE,W,Unit,1,MISSISSAUGA,ON,L5R 3V2,792,-79.667226,43.593105
Restaurant,MCDONALDS RESTAURANT,7050,MCLAUGHLIN,RD,,Bldg,D,MISSISSAUGA,ON,,793,NA,NA
Restaurant,MCDONALDS RESTAURANT,796,BURNHAMTHORPE,RD,W,,,MISSISSAUGA,ON,L5C2R9,794,-79.6533683,43.5765389
Restaurant,MCDONALDS RESTAURANT,930,DERRY,RD,E,,,MISSISSAUGA,ON,L5T 2X6,795,-79.6854657,43.6645359
Restaurant,MCDONALDS RESTAURANT -  WAL-MART,3155,ARGENTIA,RD,,,,MISSISSAUGA,ON,L5N 8E1,796,-79.7883455,43.5967872
Restaurant,MCDONALDS RESTAURANT - WAL-MART,100,CITY CENTRE,DR,,Unit,2-102,MISSISSAUGA,ON,L5B 2C9,797,-79.6424911,43.5930784
Restaurant,MCDONALDS RESTAURANT - WAL-MART,2150,BURNHAMTHORPE,RD,W,,,MISSISSAUGA,ON,L5L3A2,798,-79.6843258,43.5449439
Restaurant,MCDONALDS,800,MATHESON,BLVD,W,,,MISSISSAUGA,ON,L5V 2N6,799,-79.6903758,43.6070934
Restaurant,MCDONALDS RESTAURANT,2800,SKYMARK,AVE,,Unit,4,MISSISSAUGA,ON,L4W5A6,800,-79.5924745,43.6628677
Restaurant,MEDITERRANEAN VILLAGE INC,4188,LIVING ARTS,DR,,Unit,4,MISSISSAUGA,ON,L5B 0H7,801,-79.6472281,43.5889054
Restaurant,MENCHIES,2690,ERIN CENTRE,BLVD,,UNIT,A003,MISSISSAUGA,ON,L5M 5P5,802,-79.7157987,43.5584313
Restaurant,MESH PERI PERI GRILL,5955,LATIMER,DR,,Unit,1-B,Mississauga,ON,L5V 0B7,803,-79.6973509,43.607805
Restaurant,MIA ITALIAN RESTAURANT,1885,DREW,RD,,Unit,2,MISSISSAUGA,ON,L5S1J5,804,-79.6758202,43.6860537
Restaurant,MICHAELS BACK DOOR RESTAURANT,1715,LAKESHORE,RD,W,UNIT,3,MISSISSAUGA,ON,L5J 1J4,805,-79.6203819,43.5205967
Restaurant,MICROSOFT - MEADOWVALE #23454,1950,MEADOWVALE,BLVD,,,,MISSISSAUGA,ON,L5N 8L9,806,-79.7529556,43.6117212
Restaurant,MIDWAY INVADER,6809,INVADER,CRES,,,,MISSISSAUGA,ON,L5T 2B7,807,-79.6747678,43.6648981
Restaurant,MIDWAYS RESTAURANT,1230,MIDWAY,BLVD,,Unit,101,MISSISSAUGA,ON,L5T 2B8,808,-79.6688045,43.6634652
Restaurant,MIGA KOREAN RESTAURANT,2382,DUNDAS,ST,W,,,MISSISSAUGA,ON,L5K 1R7,809,-79.6735401,43.5297598
Restaurant,MILESTONES,3051,VEGA,BLVD,,,,MISSISSAUGA,ON,L5L 5Y3,810,-79.6887976,43.5176091
Restaurant,MILESTONES RESTAURANT,730,MATHESON,BL,W,,,MISSISSAUGA,ON,L4W2V3,811,-79.641263,43.6326126
Restaurant,MILLION DOLLAR RESTAURANT,7222,TORBRAM,RD,,,,MISSISSAUGA,ON,L4T 3V2,812,-79.659508,43.6986527
Restaurant,MING ROOM,6461,MISSISSAUGA,RD,,Unit,1&3,MISSISSAUGA,ON,L5N 1A6,813,-79.7368328,43.5989753
Restaurant,MING WOK CHINESE FOOD,4141,DIXIE,RD,,Unit,45,MISSISSAUGA,ON,L4W 1V5,814,-79.6045863,43.6252506
Restaurant,MINGS NOODLES,1133,DUNDAS,ST,E,Unit,1,MISSISSAUGA,ON,L4Y2C3,815,-79.5900168,43.6041684
Restaurant,MINGOS BAR & GRILL,845,LAKESHORE,RD,E,,,MISSISSAUGA,ON,L5E 1C9,816,-79.5633293,43.5728996
Restaurant,MISSISSAUGA SWEETS AND CATERING,7033,TELFORD,WAY,,Unit,13,MISSISSAUGA,ON,L5S 1V4,817,-79.6695061,43.6813271
Restaurant,MIZUKI GRILL TERIYAKI INC.,3021,ARGENTIA,RD,,Unit,4,MISSISSAUGA,ON,L5N 8P7,818,-79.7928996,43.5968997
Restaurant,MOGA MEAT SHOP & GROCERY,7178,AIRPORT,RD,,,,MISSISSAUGA,ON,L4T 2H2,819,-79.6473158,43.7069528
Restaurant,MOGAS PIZZA,7205,GOREWAY,DR,,Unit,30,MISSISSAUGA,ON,L4T2T9,820,-79.6382803,43.719687
Restaurant,MOLISANA BAKERY,1474,PICKWICK,DR,,Unit,1,MISSISSAUGA,ON,L5N2G2,821,-79.740338,43.5820565
Restaurant,MOMIJI JAPANESE FINE DINING,1801,LAKESHORE,RD,W,Unit,04-05,MISSISSAUGA,ON,L5J1J6,822,-79.6245936,43.5168164
Restaurant,MONDELLO RISTORANTE INC,127,QUEEN,ST,S,,,MISSISSAUGA,ON,L5M1K9,823,-79.7158863,43.5837816
Restaurant,MONGOLIAN HOT POT #3,1100,BURNHAMTHORPE,RD,W,Unit,17-19,MISSISSAUGA,ON,L5C4G4,824,-79.6612622,43.5699763
Restaurant,MONTANAS  COOKHOUSE,3065,ARGENTIA,RD,,,,MISSISSAUGA,ON,L5N 8E1,825,-79.7883455,43.5967872
Restaurant,MONTANAS COOKHOUSE,1495,AEROWOOD,DR,,,,MISSISSAUGA,ON,,826,NA,NA
Restaurant,MONTANAS COOKHOUSE & BAR,60,COURTNEYPARK,DR,E,Bldg,G,MISSISSAUGA,ON,L5T 2Y3,827,-79.6902004,43.636624
Restaurant,MONTANAS COOKHOUSE SALOON,5031,HURONTARIO,ST,,,,MISSISSAUGA,ON,L4Z 3X7,828,-79.65407,43.6086902
Restaurant,MONTFORT RESTAURANT,60,DUNDAS,ST,E,Unit,1,MISSISSAUGA,ON,L5A 1W4,829,-79.613362,43.5817994
Restaurant,MONTREAL DELICATESSEN FAMILY RESTAURANT,2055,DUNDAS,ST,E,,,MISSISSAUGA,ON,L4X2V9,830,-79.5698702,43.623289
Restaurant,MOON SUSHI JAPANESE RESTAURANT,1900,FOWLER,DR,,Unit,108,MISSISSAUGA,ON,,831,NA,NA
Restaurant,MOONRICE TAKE-OUT & CATERING,3050,CONFEDERATION,PKWY,,Unit,109,MISSISSAUGA,ON,L5B3Z6,832,-79.6212594,43.577916
Restaurant,MORNINGSTAR CAFE,2085,HURONTARIO,ST,,Unit,110,MISSISSAUGA,ON,L5A4G1,833,-79.6016024,43.5704698
Restaurant,MOTIVITY CAFE AND LOUNGE,2565,ARGENTIA,RD,,,,MISSISSAUGA,ON,,834,NA,NA
Restaurant,MOXIES CLASSIC GRILL,2959,ARGENTIA,RD,,Bldg,B,MISSISSAUGA,ON,L5N 0A2,835,-79.7837912,43.5996461
Restaurant,MOXIES GRILL / BAR,75,ANNAGEM,BLVD,,,,MISSISSAUGA,ON,L5T 2Y3,836,-79.6902004,43.636624
Restaurant,MOXIES GRILL/BAR,100,CITY CENTRE,DR,,UNIT,2-730,MISSISSAUGA,ON,L5B2C9,837,-79.6424911,43.5930784
Restaurant,MR GREEK EXPRESS,3021,ARGENTIA,RD,,Unit,P1,MISSISSAUGA,ON,L5N 8P7,838,-79.7928996,43.5968997
Restaurant,MR SUB,3417,DERRY,RD,E,Unit,2,MISSISSAUGA,ON,L4T1A8,839,-79.6365257,43.7103396
Restaurant,MR. BIGS FAMILY RESTAURANT,3476,GLEN ERIN,DR,,Unit,6,MISSISSAUGA,ON,L5L 3R4,840,-79.6877454,43.5374471
Restaurant,MR. GREEK EXPRESS,5985,MAVIS,RD,,Unit,4,MISSISSAUGA,ON,L5R 3T7,841,-79.6933568,43.6116711
Restaurant,MR. SUB,29,AVENTURA,CRT,,Unit,1,Mississauga,ON,L5T 3A1,842,-79.7038771,43.6452867
Restaurant,MR. SUB,6740,MEADOWVALE TOWN CENTRE,CIR,,Unit,408,MISSISSAUGA,ON,,843,NA,NA
Restaurant,MR. SUB,6974,FINANCIAL,DR,,Unit,D2,MISSISSAUGA,ON,,844,NA,NA
Restaurant,MR. SUB,815,BRITANNIA,RD,W,Unit,1,MISSISSAUGA,ON,L5V 2X8,845,-79.7003705,43.6093376
Restaurant,MR. SUBMARINE,136,QUEEN,ST,S,Unit,4,MISSISSAUGA,ON,L5M 7K8,846,-79.7198306,43.5446706
Restaurant,MR. SUBMARINE,1725,DUNDAS,ST,E,,,MISSISSAUGA,ON,L4X1L5,847,-79.5775519,43.6159417
Restaurant,MR. SUBMARINE,1726,LAKESHORE,RD,W,,,MISSISSAUGA,ON,L5J1J5,848,-79.6219613,43.5179147
Restaurant,MR. SUBMARINE,2225,ERIN MILLS,PKWY,,Unit,102A,MISSISSAUGA,ON,L5K1T9,849,-79.6523157,43.5309503
Restaurant,MR. SUBMARINE,3015,WINSTON CHURCHILL,BLVD,,,,MISSISSAUGA,ON,L5L 2V8,850,-79.6828352,43.5245061
Restaurant,MR. SUBMARINE,5130,DIXIE,RD,,Unit,4,MISSISSAUGA,ON,L4W 1C9,851,-79.6224878,43.6360917
Restaurant,MR. SUBMARINE,5977,DIXIE,RD,,,,MISSISSAUGA,ON,L4W 1E8,852,-79.6452983,43.6550917
Restaurant,MR. SUBMARINE,755,DUNDAS,ST,W,,,MISSISSAUGA,ON,L5C 3B6,853,-79.635122,43.564768
Restaurant,MUCHO BURRITO,80,COURTNEYPARK,DR,E,Unit,K7,MISSISSAUGA,ON,L5T 2T3,854,-79.6975651,43.647682
Restaurant,MUCHO BURRITO - FRESH MEXICAN GRILL,5170,DIXIE,RD,,Unit,104,MISSISSAUGA,ON,L4W 1E3,855,-79.6259975,43.6387872
Restaurant,MUCHO BURRITO FRESH MEXICAN GRILL,2963,ARGENTIA,RD,,Unit,C3,MISSISSAUGA,ON,L5N 0A2,856,-79.7837912,43.5996461
Restaurant,MUDDY DUCK RESTAURANT,2200,DUNDAS,ST,E,,,MISSISSAUGA,ON,L4X2V3,857,-79.5657877,43.6256967
Restaurant,MUGHAL MAHAL RESTAURANT,7071,AIRPORT,RD,,Unit,11,MISSISSAUGA,ON,L4T4J3,858,-79.6426666,43.7051205
Restaurant,MULLIGANS PUB AND GRILL,2458,DUNDAS,ST,W,Unit,17,MISSISSAUGA,ON,L5K 1R8,859,-79.6758202,43.5268434
Restaurant,MY EMPANADA,3085,HURONTARIO,ST,,UNIT,18A,MISSISSAUGA,ON,L5A 4E4,860,-79.6184954,43.5823063
Restaurant,MY PHO,660,EGLINTON,AVE,W,UNIT,14,MISSISSAUGA,ON,L5R 3V2,861,-79.667226,43.593105
Restaurant,MYHMA CITY PIZZA & RESTAURANT,6985,DAVAND,DR,,UNIT,1,MISSISSAUGA,ON,L5V 1Y7,862,-79.6893237,43.5903608
Restaurant,McDONALDS RESTAURANT,30,COURTNEYPARK,DR,E,Bldg,D,MISSISSAUGA,ON,,863,NA,NA
Restaurant,NAAN AND KABOB,30,BRISTOL,RD,E,Unit,2,MISSISSAUGA,ON,L4Z3K8,864,-79.6610867,43.6152695
Restaurant,NADERS MIDDLE EASTERN GRILL & BAKERY,3900,GRAND PARK,DR,,Bldg,E1,MISSISSAUGA,ON,L5B 4M6,865,-79.6463509,43.5824369
Restaurant,NANDOS FLAME - GRILLED CHICKEN,815,BRITANNIA,RD,W,Unit,3,MISSISSAUGA,ON,L5V 2X8,866,-79.7003705,43.6093376
Restaurant,NANNUS PASTIZZI,6981,MILLCREEK,DR,,Unit,1,MISSISSAUGA,ON,L5N6B8,867,-79.7601399,43.5973663
Restaurant,NEW FREGATA RESTAURANT,1900,DUNDAS,ST,E,,A.1,MISSISSAUGA,ON,L4X 2Z4,868,-79.57167,43.6202259
Restaurant,NEW HOT AND SOUR RESTAURANT,1010,DREAM CREST,RD,,Unit,2,MISSISSAUGA,ON,L5V 3A4,869,-79.6797662,43.5912006
Restaurant,NEW INDIA SWEETS & TANDOORI RESTAURANT,1201,BRITANNIA,RD,W,,17,MISSISSAUGA,ON,L5V1N2,870,-79.7066823,43.6033751
Restaurant,NEW LOCOMOTION,2325,MATHESON,BLVD,E,,,MISSISSAUGA,ON,,871,NA,NA
Restaurant,NEW MAMA ROSA RESTAURANT,589,NORTH SERVICE,RD,,Unit,4,MISSISSAUGA,ON,L5A 1B2,872,-79.5889635,43.579712
Restaurant,NEW SEOUL,1675,THE CHASE,,,Unit,32,MISSISSAUGA,ON,L5M 5Y7,873,-79.7005458,43.5652246
Restaurant,NEW WING SUN CHINESE RESTAURANT,925,RATHBURN,RD,E,Unit,C3,MISSISSAUGA,ON,L4W 4C3,874,-79.6173985,43.6158833
Restaurant,NEW YORK FRIES,5100,ERIN MILLS,PKWY,,Unit,F11,MISSISSAUGA,ON,L5M4Z5,875,-79.71089,43.5603651
Restaurant,NICKS FAMOUS SHAWARMAS,939B,LAKESHORE,RD,E,,,MISSISSAUGA,ON,L5E 1Z6,876,-79.561661,43.5751977
Restaurant,NINAS BAR & GRILL INC.,879,WESTPORT,CRES,,UNIT,1,MISSISSAUGA,ON,L5T1E7,877,-79.6554734,43.6509753
Restaurant,NIRVANA  THE FLAVORS OF INDIA,35,BRUNEL,RD,,Unit,5,MISSISSAUGA,ON,L4Z3E8,878,-79.6765217,43.6261769
Restaurant,NOODLE WOK,600,BURNHAMTHORPE,RD,W,Unit,6,MISSISSAUGA,ON,L5B2C4,879,-79.6491579,43.5803156
Restaurant,NORTHWEST COFFEE SHOP,6725,AIRPORT,RD,,Unit,B2,MISSISSAUGA,ON,L4V1V2,880,-79.6342447,43.6987191
Restaurant,NOVA PASTRY & BAKERY,3635,CAWTHRA,RD,,UNIT,1-4,MISSISSAUGA,ON,,881,NA,NA
Restaurant,ODAI SUSHI INC,812,BRITANNIA,RD,W,Suite,104,MISSISSAUGA,ON,L5V 0A7,882,-79.6960747,43.6113981
Restaurant,OLIVE TREE DELICAFE,1107,DERRY,RD,E,,,MISSISSAUGA,ON,L5T1P3,883,-79.6823091,43.6684024
Restaurant,OLIVERS ALE HOUSE LTD.,6155,TOMKEN,RD,,Unit,1,MISSISSAUGA,ON,L5T 1X3,884,-79.6612622,43.6483868
Restaurant,OLYMPIA GRILL,1,DERRY,RD,E,,,MISSISSAUGA,ON,L5T 2Z8,885,-79.7066823,43.6473221
Restaurant,OMAR PRIVATE CLUB AND EATERY,833,WESTLOCK,RD,,Unit,9,MISSISSAUGA,ON,,886,NA,NA
Restaurant,OMDA,3100,RIDGEWAY,DR,,Unit,33&34,MISSISSAUGA,ON,L5L5M5,887,-79.6912526,43.5181296
Restaurant,ON THE BUN,5030,MAINGATE,DR,,Unit,14,MISSISSAUGA,ON,L4W 1N5,888,-79.6279277,43.6296132
Restaurant,ON THE GO #27021/U OF T/ERINDALE,3359,MISSISSAUGA,RD,,,,MISSISSAUGA,ON,L5L1C6,889,-79.6621392,43.5473118
Restaurant,ONTARIO RACQUET CLUB,884,SOUTHDOWN,RD,,,,MISSISSAUGA,ON,L5J 2Y4,890,-79.6263484,43.5041809
Restaurant,ORBIT,2025,DUNDAS,ST,E,,,MISSISSAUGA,ON,L4X 1M2,891,-79.5700019,43.6228187
Restaurant,ORCHARD RESTAURANT,2550,HURONTARIO,ST,,UNIT,2,MISSISSAUGA,ON,L5B1N5,892,-79.615468,43.5790206
Restaurant,ORIENTAL BAKERY & DELI,900,RATHBURN,RD,W,Unit,E4,MISSISSAUGA,ON,L5C4L3,893,-79.6612622,43.5782985
Restaurant,OSMOWS GRILL,251,QUEEN,ST,S,Unit,1,MISSISSAUGA,ON,L5M 1L7,894,-79.7117665,43.5805105
Restaurant,OSMOWS GRILL,600,LAKESHORE,RD,E,,,MISSISSAUGA,ON,L5G1J4,895,-79.5676314,43.5683174
Restaurant,OSMOWS GRILL,80,COURTNEYPARK,DR,E,Unit,K5,MISSISSAUGA,ON,L5T 2Y3,896,-79.6902004,43.636624
Restaurant,OTG / CORSO RESTAURANT / T3 DEPART GATE C28,3,LESTER B PEARSON INTL AIRPORT,,,,,MISSISSAUGA,ON,L5P 1C4,897,-79.6628408,43.6691521
Restaurant,OTG/ACER/T3 LEVEL 2 DEPARTURES,3,LESTER B PEARSON INTL AIRPORT,,,,,MISSISSAUGA,ON,L5P 1C4,898,-79.6628408,43.6691521
Restaurant,OTG/CIBO EXPRESS GOURMET MARKET/T1 PIER F,1,LESTER B PEARSON INTL AIRPORT,,,,,MISSISSAUGA,ON,,899,NA,NA
Restaurant,OTG/FETTA PANINI BAR/T1 SECTION A,1,LESTER B PEARSON INTL AIRPORT,,,,,MISSISSAUGA,ON,,900,NA,NA
Restaurant,OTG/HEIRLOOM BAKERY CAFE/ T1 SECTION A,1,LESTER B PEARSON INTL AIRPORT,,,,,MISSISSAUGA,ON,,901,NA,NA
Restaurant,OTG/HEIRLOOM BAKERY CAFE/T3 DEPART GC30,3,LESTER B PEARSON INTL AIRPORT,,,,,MISSISSAUGA,ON,L5P 1C4,902,-79.6628408,43.6691521
Restaurant,OTG/MARATHI / T1 LEVEL 2 DEPARTURES,1,LESTER B PEARSON INTL AIRPORT,,,,,MISSISSAUGA,ON,,903,NA,NA
Restaurant,OTG/NOBEL BURGER BAR/T3 DEPARTURES GATE B19,3,LESTER B PEARSON INTL AIRPORT,,,,,MISSISSAUGA,ON,L5P 1C4,904,-79.6628408,43.6691521
Restaurant,OTG/VINIFERA/T3 LEVEL 2 DEPARTURES,3,LESTER B PEARSON INTL AIRPORT,,,,,MISSISSAUGA,ON,L5P 1C4,905,-79.6628408,43.6691521
Restaurant,OUR CREPE,377,BURNHAMTHORPE,RD,E,Unit,2A,MISSISSAUGA,ON,L5A 3A1,906,-79.6091059,43.5880579
Restaurant,P & J HAMBURGER  RESTAURANT,943,LAKESHORE,RD,E,,,MISSISSAUGA,ON,L5E1E3,907,-79.560783,43.5752655
Restaurant,PANAGIOS ALL DAY GRILL,6085,CREDITVIEW,RD,,Unit,17 & 18,MISSISSAUGA,ON,L5V 2A8,908,-79.713169,43.5990613
Restaurant,PANDA EXPRESS #60004,5985,MAVIS,RD,,Unit,5,MISSISSAUGA,ON,L5R 3T7,909,-79.6933568,43.6116711
Restaurant,PANE E VINO,151,BRUNEL,RD,,Unit,1415,MISSISSAUGA,ON,L4Z 2H6,910,-79.6738909,43.6284613
Restaurant,PANERA BREAD 5006,5935,MAVIS,RD,,UNIT,2A,MISSISSAUGA,ON,L5R 3T7,911,-79.6933568,43.6116711
Restaurant,PANERA BREAD CAFE #620002,55,SQUARE ONE,DR,,UNIT,1,MISSISSAUGA,ON,L5B 0E2,912,-79.6498597,43.5898883
Restaurant,PANINI CAFE,1365,MIDWAY,BLVD,,Unit,22,MISSISSAUGA,ON,L5T2J5,913,-79.6675768,43.6664685
Restaurant,PANIZZA,5101,DIXIE,RD,,UNIT,A5,MISSISSAUGA,ON,L4W 0E6,914,-79.6221368,43.6476344
Restaurant,PAPAS PLACE,6731,COLUMBUS,RD,,,1A,MISSISSAUGA,ON,L5T2M4,915,-79.6696815,43.6660668
Restaurant,PARADISE CAFE,4,ROBERT SPECK,PKWY,,Unit,160,Mississauga,ON,L4Z1S1,916,-79.635122,43.5974559
Restaurant,PARADISE CAFE & CATERING,5925,AIRPORT,RD,,UNIT,120,MISSISSAUGA,ON,L4V 1W1,917,-79.6096763,43.6878738
Restaurant,PARAMOUNT FINE FOODS,1290,CRESTLAWN,DR,,Bldg,1,MISSISSAUGA,ON,L4W1A6,918,-79.6217858,43.6300906
Restaurant,PARAMOUNT FINE FOODS,2635,EGLINTON,AVE,W,,,MISSISSAUGA,ON,L5M 7E1,919,-79.7126431,43.557848
Restaurant,PARAMOUNT FINE FOODS,5700,MAVIS,RD,,UNIT,1,MISSISSAUGA,ON,L5V 2N6,920,-79.6903758,43.6070934
Restaurant,PARK ROYAL NOT JUST FISH & CHIPS,2425,TRUSCOTT,DR,,UNIT,5A,MISSISSAUGA,ON,L5J 2B4,921,-79.6484562,43.5124491
Restaurant,PARKLAND ON THE GLEN,1665,THE COLLEGEWAY,,,,,MISSISSAUGA,ON,L5L 0A9,922,-79.6638933,43.5442002
Restaurant,PATTIS GOOD FOOD,2500,MEADOWPINE,BLVD,,Unit,1,MISSISSAUGA,ON,L5N6C4,923,-79.776784,43.6037692
Restaurant,PEPPER WALK,5955,LATIMER,DR,,Unit,7,MISSISSAUGA,ON,L5V 0B7,924,-79.6973509,43.607805
Restaurant,PETERS ON EGLINTON RESTAURANT & DELI,1035,EGLINTON,AVE,E,,,MISSISSAUGA,ON,L4W1K4,925,-79.6302089,43.627892
Restaurant,PHO - HUNG RESTAURANT MISSISSAUGA LTD,1195,DUNDAS,ST,E,,,MISSISSAUGA,ON,L4Y2C5,926,-79.588788,43.6056891
Restaurant,PHO AO SEN,3221,DERRY,RD,W,Unit,22,MISSISSAUGA,ON,L5N 7L7,927,-79.7781855,43.5830933
Restaurant,PHO BIG BOWL,2655,LIRUMA,RD,,Unit,2,MISSISSAUGA,ON,L5K 1Y8,928,-79.6710847,43.5304288
Restaurant,PHO COM 99,3100,DIXIE,RD,,Unit,4,MISSISSAUGA,ON,L4Y2A6,929,-79.5866813,43.6102473
Restaurant,PHO DAU BO (BRISTOL) RESTAURANT,1525,BRISTOL,RD,W,Unit,14,MISSISSAUGA,ON,L5M 4Z1,930,-79.6987924,43.586169
Restaurant,PHO DAU BO RESTAURANT,1125,DUNDAS,ST,E,Unit,11,MISSISSAUGA,ON,L4Y2C4,931,-79.5910701,43.603968
Restaurant,PHO DO THI,25,DUNDAS,ST,E,Unit,25,MISSISSAUGA,ON,L5A 1V9,932,-79.6156435,43.5815625
Restaurant,PHO FUZION LTD.,720,BRISTOL,RD,W,UNIT,2,MISSISSAUGA,ON,,933,NA,NA
Restaurant,PHO LE,1842,LAKESHORE,RD,W,,,MISSISSAUGA,ON,L5J1J7,934,-79.625471,43.514665
Restaurant,PHO MI 289,6550,MEADOWVALE TOWN CENTRE,CIR,,UNIT,M6,MISSISSAUGA,ON,L5N 4B7,935,-79.7606655,43.5827032
Restaurant,PHO MI 99 VIETNAMESE RESTAURANT,5955,LATIMER,DR,,UNIT,8,Mississauga,ON,L5V 0B7,936,-79.6973509,43.607805
Restaurant,PHO MI 99 VIETNAMESE RESTAURANT,60,DUNDAS,ST,E,Unit,5A,MISSISSAUGA,ON,L5A 1W4,937,-79.613362,43.5817994
Restaurant,PHO MI ASIA RESTAURANT,1248,DUNDAS,ST,E,Unit,12,MISSISSAUGA,ON,L4X 2C7,938,-79.5824679,43.6140178
Restaurant,PHO MI BINH MINH INC,680,SILVER CREEK,BLVD,,Unit,12,MISSISSAUGA,ON,L5A 3Z1,939,-79.6028311,43.5950958
Restaurant,PHO PHO PHO,1135,DERRY,RD,E,,,MISSISSAUGA,ON,L5T1P3,940,-79.6823091,43.6684024
Restaurant,PHO QUEEN CITY INC,3085,HURONTARIO,ST,,Unit,13-15,MISSISSAUGA,ON,L5A 4E4,941,-79.6184954,43.5823063
Restaurant,PHO TO INC.,3415,DIXIE,RD,,Unit,11B,MISSISSAUGA,ON,L4Y 4J6,942,-79.5952832,43.6180145
Restaurant,PHO-MI 99 VIETNAMESE RESTAURANT,3920,GRAND PARK,DR,,Unit,D-1,MISSISSAUGA,ON,L5B 4M6,943,-79.6463509,43.5824369
Restaurant,PHO-MI 99 VIETNAMESE RESTAURANT,4557,HURONTARIO,ST,,Unit,B.8,MISSISSAUGA,ON,L4Z 3M2,944,-79.6499474,43.6066064
Restaurant,PHOENIX CHINESE RESTAURANT,4040,CREDITVIEW,RD,,Unit,6&7,MISSISSAUGA,ON,L5C4E3,945,-79.6675768,43.5687679
Restaurant,PIATTO BISTRO,1646,DUNDAS,ST,W,,,MISSISSAUGA,ON,L5C1E6,946,-79.6545963,43.544394
Restaurant,PITA & GRILL,134,DUNDAS,ST,W,Unit,1,MISSISSAUGA,ON,L5B1H9,947,-79.6195045,43.5771611
Restaurant,PITA AND GRILL,1275,EGLINTON,AVE,E,Unit,62A,MISSISSAUGA,ON,L4W2Z2,948,-79.6233652,43.6336488
Restaurant,PITA AND GRILL,29,AVENTURA,CRT,,UNIT,3,Mississauga,ON,L5T 3A1,949,-79.7038771,43.6452867
Restaurant,PITA BOSS,3221,DERRY,RD,E,UNIT ,8,MISSISSAUGA,ON,L5N 7L7,950,-79.7781855,43.5830933
Restaurant,PITA LAND EGLINTON,30,EGLINTON,AVE,W,Unit,12B,MISSISSAUGA,ON,L5R 3E7,951,-79.6526666,43.605592
Restaurant,PITA LITE,2325,MATHESON,BLVD,E,Unit,4,MISSISSAUGA,ON,L4W 5B6,952,-79.6056395,43.6541359
Restaurant,PITA NUTSO,241,QUEEN,ST,S,Unit,A,MISSISSAUGA,ON,L5M1L7,953,-79.7117665,43.5805105
Restaurant,PITA PIT,125,LAKESHORE,RD,E,Unit,A-16B,MISSISSAUGA,ON,L5G 1E5,954,-79.5819412,43.5543984
Restaurant,PITA PIT,6085,CREDITVIEW,RD,,UNIT,16,MISSISSAUGA,ON,L5V 2A8,955,-79.713169,43.5990613
Restaurant,PIZZA DEPOT,3945,DOUG LEAVENS,BLVD,,Unit,107,MISSISSAUGA,ON,L5N 0A5,956,-79.773981,43.5684453
Restaurant,PIZZA HUT,1900,FOWLER,DR,,Unit,D-111,MISSISSAUGA,ON,,957,NA,NA
Restaurant,PIZZA HUT,4559,HURONTARIO,ST,,,,MISSISSAUGA,ON,L4Z3L9,958,-79.6491579,43.605272
Restaurant,PIZZA HUT #4331,848,BURNHAMTHORPE,RD,W,,,MISSISSAUGA,ON,L5C2S3,959,-79.6561751,43.5744171
Restaurant,PIZZA NOVA,1211,HURONTARIO,ST,,UNIT,104A,MISSISSAUGA,ON,L5G 3H2,960,-79.5875591,43.5599677
Restaurant,PIZZA NOVA,7235,BELLSHIRE,GATE,,Unit,5,MISSISSAUGA,ON,L5N 8A2,961,-79.747348,43.6219074
Restaurant,PIZZA NOVA #56,6040,GLEN ERIN,DR,,Unit,5,MISSISSAUGA,ON,L5N 3M4,962,-79.739637,43.5748593
Restaurant,PIZZA NOVA 31,1020,CANADIAN,PL,,,,MISSISSAUGA,ON,L4W 1J9,963,-79.6256465,43.624803
Restaurant,PIZZA PIZZA,2500,HURONTARIO,ST,,Unit,34,MISSISSAUGA,ON,L5B 1N4,964,-79.614064,43.5777034
Restaurant,PIZZA PIZZA  #68,1375,SOUTHDOWN,RD,,,17-19,MISSISSAUGA,ON,L5J2Z1,965,-79.639333,43.5187581
Restaurant,PIZZA PIZZA  #93,707,LAKESHORE,RD,E,,,MISSISSAUGA,ON,L5G1J7,966,-79.5660511,43.5704011
Restaurant,PIZZA PIZZA # 71,1093,DUNDAS,ST,W,,,MISSISSAUGA,ON,L5C 1C4,967,-79.6437193,43.5573775
Restaurant,PIZZA PIZZA #149,6065,CREDITVIEW,RD,,,100-01,MISSISSAUGA,ON,L5V2A8,968,-79.713169,43.5990613
Restaurant,PIZZA PIZZA #22,3960,GRAND PARK,DR,,Unit,1,MISSISSAUGA,ON,L5B 4M6,969,-79.6463509,43.5824369
Restaurant,PIZZA PIZZA #259,6975,MEADOWVALE TOWN CENTRE,CIR,,Unit,10,MISSISSAUGA,ON,,970,NA,NA
Restaurant,PIZZA PIZZA #266,2255,ERIN MILLS,PKWY,,,,MISSISSAUGA,ON,L5K 1T9,971,-79.6523157,43.5309503
Restaurant,PIZZA PIZZA #267,5602,TENTH,LINE,W,Unit,114,MISSISSAUGA,ON,,972,NA,NA
Restaurant,PIZZA PIZZA #268,2690,ERIN CENTRE,BLVD,,Unit,A007,MISSISSAUGA,ON,L5M 5P5,973,-79.7157987,43.5584313
Restaurant,PIZZA PIZZA #27021- U OF T/ERINDALE,3359,MISSISSAUGA,RD,,,,MISSISSAUGA,ON,L5L1C6,974,-79.6621392,43.5473118
Restaurant,PIZZA PIZZA #276,1403,DUNDAS,ST,E,,,MISSISSAUGA,ON,L4X1L3,975,-79.5824679,43.6116423
Restaurant,PIZZA PIZZA #278,7070,MCLAUGHLIN,RD,,Bldg,B7,MISSISSAUGA,ON,L5W 1W7,976,-79.7179023,43.6364655
Restaurant,PIZZA PIZZA #279,1585,MISSISSAUGA VALLEY,BLVD,,Unit,6,MISSISSAUGA,ON,L5A 3W9,977,-79.6259975,43.592463
Restaurant,PIZZA PIZZA #35,4120,DIXIE,RD,,Unit,1B,MISSISSAUGA,ON,L4W 4V8,978,-79.6063415,43.6245207
Restaurant,PIZZA PIZZA #67,2273,DUNDAS,ST,W,,16,MISSISSAUGA,ON,L5K2L8,979,-79.6723124,43.5324742
Restaurant,PIZZA PIZZA #82,2760,DERRY,RD,W,Unit,11,MISSISSAUGA,ON,L5N3N5,980,-79.7641698,43.5937183
Restaurant,PIZZA PIZZA #92,7125,GOREWAY,DR,,Unit,101,MISSISSAUGA,ON,L4T2T5,981,-79.6352975,43.7165993
Restaurant,PIZZA POP INC.,3355,THE COLLEGEWAY,,,Unit,3,MISSISSAUGA,ON,L5L5T3,982,-79.7045784,43.5241001
Restaurant,PIZZAIOLO RESTAURANT INC,56,LAKESHORE,RD,E,Unit,A,MISSISSAUGA,ON,,983,NA,NA
Restaurant,PIZZANO PIZZA AND WINGS,1125,DUNDAS,ST,E,Unit,3,MISSISSAUGA,ON,L4Y2C4,984,-79.5910701,43.603968
Restaurant,PIZZAWAY RESTAURANT,6355,AIRPORT,RD,,,,MISSISSAUGA,ON,L9V 1E4,985,-80.2321313,44.1696035
Restaurant,PLAKA RESTAURANT,2601,MATHESON,BLVD,E,Unit,33,MISSISSAUGA,ON,L4W 5A8,986,-79.6007248,43.6596193
Restaurant,PLAYDIUM,99,RATHBURN,RD,W,,,MISSISSAUGA,ON,L5B4C1,987,-79.6481053,43.594779
Restaurant,POMODORO ITALIAN KITCHEN,49,MATHESON,BLVD,E,Unit,3,MISSISSAUGA,ON,L4Z2Y5,988,-79.668103,43.620066
Restaurant,POPEYES,325,CENTRAL,PKWY,W,UNIT,7A,MISSISSAUGA,ON,L5B 3X5,989,-79.637403,43.5734475
Restaurant,POPEYES LOUISIAN KITCHEN,7205,GOREWAY,DR,,Unit,37G,MISSISSAUGA,ON,L4T 2T9,990,-79.6382803,43.719687
Restaurant,POPEYES LOUISIANA KITCHEN,1370,DUNDAS,ST,E,Unit,6,MISSISSAUGA,ON,L4Y4G4,991,-79.5836968,43.6080431
Restaurant,POPEYES LOUISIANA KITCHEN,2515,HURONTARIO,ST,,,101,MISSISSAUGA,ON,L5A4C8,992,-79.6139763,43.5794041
Restaurant,POPEYES LOUISIANA KITCHEN,3087,WINSTON CHURCHILL,BLVD,,Unit,2,MISSISSAUGA,ON,,993,NA,NA
Restaurant,POPEYES LOUISIANA KITCHEN,5101,DIXIE,RD,,UNIT,A1,MISSISSAUGA,ON,L4W 5K1,994,-79.6231897,43.6385304
Restaurant,POPEYES LOUISIANA KITCHEN,5985,MAVIS,RD,,Unit,3,MISSISSAUGA,ON,L5R 3T7,995,-79.6933568,43.6116711
Restaurant,POPEYES LOUISIANA KITCHEN,6750,WINSTON CHURCHILL,BLVD,,Unit,1 & 2,MISSISSAUGA,ON,L5N 4C4,996,-79.7648706,43.5830824
Restaurant,POPEYES LOUISIANA KITCHEN,7080,SAINT BARBARA,BLVD,,UNIT,1-2,MISSISSAUGA,ON,L5N 0E6,997,6.1903658,51.6248264
Restaurant,POPULAR PIZZA #9,5380,TERRY FOX,WAY,,Unit,12,MISSISSAUGA,ON,L5V 0A5,998,-79.6847643,43.5947005
Restaurant,PORT 229 ARTISAN BISTRO,231,LAKESHORE,RD,E,,,MISSISSAUGA,ON,L5G1G8,999,-79.5770252,43.5592979
Restaurant,PORT CREDIT YACHT CLUB,115,LAKEFRONT PROM,,,,,MISSISSAUGA,ON,L5E3G6,1000,-79.5596415,43.5652792
Restaurant,PORTA VIA,1,CITY CENTRE,DR,,Unit,101,MISSISSAUGA,ON,L5B 1M2,1001,-79.6410875,43.5965153
Restaurant,PORTA VIA,7145,WEST CREDIT,AVE,,Unit,103,MISSISSAUGA,ON,L5N 6J7,1002,-79.7557593,43.6090037
Restaurant,PORTUGUESE CULTURAL CENTRE OF MISSISSAUGA,53,QUEEN,ST,N,,,MISSISSAUGA,ON,L5N 1A2,1003,-79.7240376,43.5896462
Restaurant,POSTCARD RESTAURANT & BAR INC,5825,DIXIE,RD,,,,MISSISSAUGA,ON,L4W 4V7,1004,-79.6421402,43.6527264
Restaurant,POTLUCK RESTAURANT,2150,BURNHAMTHORPE,RD,W,Unit,H15,MISSISSAUGA,ON,L5L 3A2,1005,-79.6843258,43.5449439
Restaurant,POTLUCK RESTAURANT,3075,RIDGEWAY,DR,,Unit,28,MISSISSAUGA,ON,L5L 5M6,1006,-79.6891483,43.5191288
Restaurant,POTLUCK RESTAURANT,6590,MEADOWVALE TOWN CENTRE,CIR,,Unit,J10,MISSISSAUGA,ON,L5N 4B7,1007,-79.7606655,43.5827032
Restaurant,POTLUCK RESTAURANT,7070,SAINT BARBARA,BLVD,,Unit,40,MISSISSAUGA,ON,L5W 0E6,1008,-79.7150974,43.63918
Restaurant,PRINCE SUSHI,90,COURTNEYPARK,DR,E,Unit,N4,MISSISSAUGA,ON,L5T 2Y3,1009,-79.6902004,43.636624
Restaurant,PROBERRY,1010,DREAM CREST,RD,,Unit,3,MISSISSAUGA,ON,L5V 3A4,1010,-79.6797662,43.5912006
Restaurant,PROWLER CAFE/DIXIE CHRYSLER,5280,DIXIE,RD,,,,MISSISSAUGA,ON,L4W2A7,1011,-79.6288051,43.6408247
Restaurant,PUMP ON RATHBURN,1891,RATHBURN,RD,E,Unit,16,MISSISSAUGA,ON,L4W 3Z3,1012,-79.5958098,43.636023
Restaurant,PUMPERNICKELS,1,ROBERT SPECK,PKWY,,UNIT,106,MISSISSAUGA,ON,L4Z 3M3,1013,-79.6386312,43.5971822
Restaurant,PUMPERNICKELS/THE CREDIT VALLEY,2200,EGLINTON,AVE,W,Unit,5,MISSISSAUGA,ON,L5M 2N1,1014,-79.7024745,43.5596019
Restaurant,PUNJABI DHABA,2855,DERRY,RD,E,UNIT,3,MISSISSAUGA,ON,L4T 1A3,1015,-79.6466141,43.7005155
Restaurant,PURE GOLD ADULT ENTERTAINMENT,2630,ROYAL WINDSOR,DR,,Unit,1,MISSISSAUGA,ON,L5J 1K7,1016,-79.6375784,43.5004446
Restaurant,QOOLA FROZEN YOGURT,100,CITY CENTRE,DR,,Unit,2-829,MISSISSAUGA,ON,L5B 2C9,1017,-79.6424911,43.5930784
Restaurant,QUEEN CITY DISTILLERY DISTRICT BREW PUB / T3 - PIER A,3,LESTER B PEARSON INTL AIRPORT,,,,,MISSISSAUGA,ON,L5P 1C4,1018,-79.6628408,43.6691521
Restaurant,QUEENS FISH & CHIPS,131,QUEEN,ST,S,,,MISSISSAUGA,ON,L5M1K9,1019,-79.7158863,43.5837816
Restaurant,QUIAPO! QUIAPO!,4040,CREDITVIEW,RD,,Unit,B3,MISSISSAUGA,ON,L5C 3Y8,1020,-79.6666998,43.5676477
Restaurant,QUIK CHIK,3355,HURONTARIO,ST,,Unit,2,MISSISSAUGA,ON,L5A4E7,1021,-79.625822,43.5875447
Restaurant,QUIK CHIK,801,MATHESON,BLVD,W,Unit,16,MISSISSAUGA,ON,L5V 2N6,1022,-79.6903758,43.6070934
Restaurant,QUIZNOS SUB,5170,DIXIE,RD,,Unit,105,MISSISSAUGA,ON,L4W 1E3,1023,-79.6259975,43.6387872
Restaurant,QUIZNOS SUB,7235,BELLSHIRE,GATE,,Unit,6,MISSISSAUGA,ON,L5N 7X1,1024,-79.7430545,43.6217422
Restaurant,QUIZNOS SUB,7460,AIRPORT,RD,,UNIT,B,MISSISSAUGA,ON,L4T 2H6,1025,-79.6445965,43.7161148
Restaurant,QUIZNOS SUB,960,SOUTHDOWN,RD,,Unit,C-11,MISSISSAUGA,ON,L5J 2Y4,1026,-79.6263484,43.5041809
Restaurant,R CORNER DINER,2386,HAINES,RD,,Unit,19,MISSISSAUGA,ON,L4Y1Y6,1027,-79.5947566,43.5946527
Restaurant,R.K. SWEETS RESTAURANT,755,DUNDAS,ST,W,,A-5,MISSISSAUGA,ON,L5C3B6,1028,-79.635122,43.564768
Restaurant,RADICAS HOT & SPICY RESTAURANT & LOUNGE,3105,WINSTON CHURCHILL,BLVD,,Unit,3,MISSISSAUGA,ON,L5L5S3,1029,-79.6837121,43.5253296
Restaurant,RAMA GAMING CENTRE,2295,BATTLEFORD,RD,,,,MISSISSAUGA,ON,L5N2W8,1030,-79.7392865,43.5864195
Restaurant,RAW AURA ORGANIC CUISINE,94,LAKESHORE,RD,E,Unit,B,MISSISSAUGA,ON,L5G1E3,1031,-79.5840479,43.5536999
Restaurant,RAYS FAMILY  RESTAURANT,833,WESTLOCK,RD,,Unit,8,MISSISSAUGA,ON,L5C 1K7,1032,-79.6424034,43.5665475
Restaurant,RDS SOUTHERN BBQ INC,25,AVENTURA,CRT,,,,Mississauga,ON,,1033,NA,NA
Restaurant,REAL AUTHENTIC JAMAICAN RESTAURANT AND BAR,7385,TORBRAM,RD,,Unit,16,MISSISSAUGA,ON,L4T3Y9,1034,-79.6630163,43.7025298
Restaurant,REAL CANADIAN SUPERSTORE # 2841,3045,MAVIS,RD,,,,MISSISSAUGA,ON,L5C 1T7,1035,-79.6467018,43.5780112
Restaurant,REAL CANADIAN SUPERSTORE/LOBLAWS #1080,3050,ARGENTIA,RD,,,,MISSISSAUGA,ON,L5N 8E1,1036,-79.7883455,43.5967872
Restaurant,REAL FRUIT BUBBLE TEA,4141,DIXIE,RD,,,,MISSISSAUGA,ON,L4W 3X3,1037,-79.6037965,43.6374229
Restaurant,RED LION BAR & BISTRO,1077,NORTH SERVICE,RD,,,,MISSISSAUGA,ON,L4Y 1A6,1038,-79.5742159,43.5926186
Restaurant,RED LOBSTER RESTAURANT #8105,790,BURNHAMTHORPE,RD,W,,,MISSISSAUGA,ON,L5C4G3,1039,-79.652842,43.5772339
Restaurant,RED LOTUS RESTAURANT,1177,CENTRAL PKY,,W,Unit,11,MISSISSAUGA,ON,L5C 4P3,1040,-79.6603851,43.567667
Restaurant,RED ORANGE BISTRO,5425,CREDITVIEW,RD,,Unit,2,MISSISSAUGA,ON,,1041,NA,NA
Restaurant,RED SPOON,1076,CARDIFF,BLVD,,Unit,2,3B,MISSISSAUGA,ON,L5S1M4,1042,-79.6865179,43.669675
Restaurant,REGGAE FUSION RESTAURANT,1107,BRITANNIA,RD,E,Unit,19,MISSISSAUGA,ON,L4W3X1,1043,-79.6575784,43.6470124
Restaurant,RENA CUCINA,2708,RENA,RD,,,,MISSISSAUGA,ON,L4T 3J9,1044,-79.6619638,43.7098446
Restaurant,REYAN RESTAURANT,75,DUNDAS,ST,W,,,MISSISSAUGA,ON,L5B1H7,1045,-79.6188025,43.5785828
Restaurant,RIB EYE JACKS ALE HOUSE,6531,MISSISSAUGA,RD,,,,MISSISSAUGA,ON,L5N1A6,1046,-79.7368328,43.5989753
Restaurant,RICE & ROTI INC.,6980,MARITZ,DR,,UNIT ,12,MISSISSAUGA,ON,L5W 1Z3,1047,-79.7087862,43.6427638
Restaurant,RICHTREE NATURAL MARKET RESTAURANTS,100,CITY CENTRE,DR,,Unit,1-710,MISSISSAUGA,ON,L5B 2C9,1048,-79.6424911,43.5930784
Restaurant,RISTORANTE ALIOLI,350,BURNHAMTHORPE,RD,W,Unit,123,MISSISSAUGA,ON,L5B 3J1,1049,-79.6435438,43.5857465
Restaurant,ROBIN 341 PIZZA & WINGS INC.,3353,THE CREDIT WOODLANDS,,,Unit,4,MISSISSAUGA,ON,L5C 2K1,1050,-79.6577538,43.559252
Restaurant,ROCN DOCS BAR & GRILLE,105,LAKESHORE,RD,E,,,MISSISSAUGA,ON,L5G1E2,1051,-79.5833457,43.5533381
Restaurant,ROGUES RESTAURANT,1900,DUNDAS,ST,W,,,MISSISSAUGA,ON,L5K1P9,1052,-79.6626654,43.539181
Restaurant,ROMA ITALIAN RESTAURANT,6350,TOMKEN,RD,,Unit,10,MISSISSAUGA,ON,L5T 1Y3,1053,-79.6679276,43.6525551
Restaurant,ROMAN ZAMAN,325,CENTRAL PKY,,W,Unit,8,MISSISSAUGA,ON,L5B 3X9,1054,-79.6379294,43.5834511
Restaurant,ROYAL JASMINE,5165,DIXIE,RD,,Unit,3,MISSISSAUGA,ON,L4W4G1,1055,-79.6245936,43.639846
Restaurant,ROYALTY FOOD SERVICE INC,2699,SPEAKMAN,DR,,,,MISSISSAUGA,ON,L5K 1B1,1056,-79.6649457,43.5178202
Restaurant,ROYALTY FOOD SERVICE INC,2800,SPEAKMAN,DR,,,,MISSISSAUGA,ON,L5K2R7,1057,-79.6702077,43.515026
Restaurant,RUBYS GRILL,120,TRADERS,BLVD,E,Unit,110,MISSISSAUGA,ON,L4Z2H7,1058,-79.673014,43.6234824
Restaurant,RUTHS CHRIS STEAK HOUSE,77,CITY CENTRE,DR,,UNIT,100,MISSISSAUGA,ON,L5B1M5,1059,-79.6379294,43.5923648
Restaurant,SAFARI MEDITERRANEAN GRILL,723,CENTRAL PKY,,W,Unit,101,MISSISSAUGA,ON,L5B 4L1,1060,-79.6449474,43.5769596
Restaurant,SAGA CITY PIZZA,2960,DREW,RD,,Unit,37,MISSISSAUGA,ON,L4T 0A5,1061,-79.65407,43.7036413
Restaurant,SAHARA PAK-INDIAN RESTAURANT & BANQUET HALL,35,BRUNEL,RD,,UNIT,1B,MISSISSAUGA,ON,L4Z 3E8,1062,-79.6765217,43.6261769
Restaurant,SAKI SUSHI JAPANESE RESTAURANT,3960,GRAND PARK,DR,,UNIT,C-6,MISSISSAUGA,ON,L5B 4M6,1063,-79.6463509,43.5824369
Restaurant,SALT & PEPPER HAKKA CHINESE,35,BRUNEL,RD,,Unit,4B,MISSISSAUGA,ON,L4Z 3E8,1064,-79.6765217,43.6261769
Restaurant,SAM WOO BBQ RESTAURANT,660,EGLINTON,AVE,W,Unit,15&16,MISSISSAUGA,ON,L5R3V2,1065,-79.667226,43.593105
Restaurant,SAMS PITA & GRILL,1380,CARDIFF,BLVD,,Unit,10,MISSISSAUGA,ON,L5S1P9,1066,-79.6791524,43.6716752
Restaurant,SAMIS CAFE & DINER,1801,BRITANNIA,RD,E,Unit,1,MISSISSAUGA,ON,L4W1S6,1067,-79.6400348,43.6632155
Restaurant,SAMMYS CHINESE FOOD BURGERS & ICE CREAM,1151,DUNDAS,ST,W,Unit,19,MISSISSAUGA,ON,L5C1C6,1068,-79.6449474,43.5567463
Restaurant,SAN FRANCESCO FOODS,2979,UNITY,GATE,,Unit,2,MISSISSAUGA,ON,L5L3E5,1069,-79.7047538,43.5403296
Restaurant,SAN FRANCESCO FOODS BRITANNIA,1201,BRITANNIA,RD,W,Unit,6 & 7,MISSISSAUGA,ON,L5V 1N2,1070,-79.7066823,43.6033751
Restaurant,SAN FRANCESO FOODS,3045,CLAYHILL,RD,,Unit,1,MISSISSAUGA,ON,L5B 4L2,1071,-79.6270504,43.5738391
Restaurant,SANDWICH COMPANY,2233,ARGENTIA,RD,,Unit,103,MISSISSAUGA,ON,L5N 2X7,1072,-79.7452451,43.5979529
Restaurant,SANDWICH DELIGHT,1550,ENTERPRISE,RD,,Unit,128,MISSISSAUGA,ON,L4W4P4,1073,-79.6400348,43.6519407
Restaurant,SARAVANA BHAVAN,4559,HURONTARIO,ST,,Unit,12B,MISSISSAUGA,ON,L4Z 3L9,1074,-79.6491579,43.605272
Restaurant,SCADDABUSH ITALIAN KITCHEN & BAR,209,RATHBURN,RD,W,,,MISSISSAUGA,ON,L5B4C1,1075,-79.6481053,43.594779
Restaurant,SCARLETT HOUSE CATERING,2100,MEADOWVALE,BLVD,,,,MISSISSAUGA,ON,L4N7J9,1076,-79.7240376,44.405915
Restaurant,SEA STAR,1550,SOUTH GATEWAY,RD,,Unit,1H,MISSISSAUGA,ON,L4W5G6,1077,-79.61266,43.6328177
Restaurant,SECOND CUP,4100,LIVING ARTS,DR,,Unit,3,MISSISSAUGA,ON,L5B 0C3,1078,-79.6452105,43.5879043
Restaurant,SECOND CUP,727,CENTRAL PKY,,W,Bldg,6,MISSISSAUGA,ON,L5B 4L1,1079,-79.6449474,43.5769596
Restaurant,SECOND CUP # 27021/U OF T / ERINDALE,3359,MISSISSAUGA,RD,,,,MISSISSAUGA,ON,L5L1C6,1080,-79.6621392,43.5473118
Restaurant,SECOND CUP COFFEE CO,213,QUEEN,ST,S,,,MISSISSAUGA,ON,L5M1L6,1081,-79.7123801,43.5809376
Restaurant,SECOND GRILL KITCHEN & SEAFOOD,5980,CHURCHILL MEADOWS,BLVD,,Unit,8,MISSISSAUGA,ON,L5M 7MS,1082,NA,NA
Restaurant,SEHMI JAPANESE RESTAURANT,3015,WINSTON CHURCHILL,BLVD,,Unit,3,MISSISSAUGA,ON,L5L 2V8,1083,-79.6828352,43.5245061
Restaurant,SELECT SANDWICH,2695,NORTH SHERIDAN,WAY,,Unit,104,MISSISSAUGA,ON,L5K 2N6,1084,-79.66249,43.5125378
Restaurant,SELECT SANDWICH,50,BURNHAMTHORPE,RD,W,Unit,336,MISSISSAUGA,ON,L5B3C2,1085,-79.6359993,43.59204
Restaurant,SELECT SANDWICH,5090,EXPLORER,DR,,Unit,102,MISSISSAUGA,ON,L4W4T9,1086,-79.5972141,43.6610774
Restaurant,SELECT SANDWICH,5825,EXPLORER,DR,,,,MISSISSAUGA,ON,L5N 6L4,1087,-79.7554089,43.6158041
Restaurant,SENIOR CITIZENS RESIDENCE,2460,TRUSCOTT,DR,,,,MISSISSAUGA,ON,L5J3Z8,1088,-79.6486316,43.5105307
Restaurant,SENOR BURRITO INC,2155,LEANNE,BLVD,,Unit,104,MISSISSAUGA,ON,L5K 2K8,1089,-79.6524911,43.5257602
Restaurant,SEOUL HOUSE RESTAURANT,265,ENFIELD,PL,,,R100,MISSISSAUGA,ON,L5B3Y7,1090,-79.6349465,43.5910526
Restaurant,SHANDRAS ROTI SHOP,5030,MAINGATE,DR,,Unit,19,MISSISSAUGA,ON,L4W1N5,1091,-79.6279277,43.6296132
Restaurant,SHANGHAI HOUSE CHINESE RESTAURANT,1014,BURNHAMTHORPE,RD,E,,,MISSISSAUGA,ON,L4Y2X6,1092,-79.6105539,43.6142175
Restaurant,SHAWARMA HUT ISIS MEDITERRANEAN CUISINE,17,QUEEN,ST,N,Unit,A-4,MISSISSAUGA,ON,L5N 6A1,1093,-79.7228982,43.589023
Restaurant,SHAWARMA LICIOUS,5130,DIXIE,RD,,Unit,2,MISSISSAUGA,ON,L4W 4K2,1094,-79.6238039,43.6365831
Restaurant,SHAWARMA LOVERS,6435,DIXIE,RD,,Unit,10,MISSISSAUGA,ON,L5T1X4,1095,-79.6596834,43.6650078
Restaurant,SHIRIN MAHAL BAKERY AND SWEETS,1325,EGLINTON,AVE,E,Unit,14,MISSISSAUGA,ON,L4W 4L9,1096,-79.6224878,43.6349044
Restaurant,SHISHA LICIOUS,5130,DIXIE,RD,,Unit,1,MISSISSAUGA,ON,L4W1C9,1097,-79.6224878,43.6360917
Restaurant,SHOELESS JOES MEADOWVALE,6570,MEADOWVALE TOWN CENTRE,CIR,,,,MISSISSAUGA,ON,L5N 4B7,1098,-79.7606655,43.5827032
Restaurant,SHOELESS JOES SPORTS GRILL,80,COURTNEYPARK,DR,E,Unit,K1,MISSISSAUGA,ON,L5T 2T3,1099,-79.6975651,43.647682
Restaurant,SHORE GRILL AND GROTTO,71,LAKESHORE,RD,E,,,MISSISSAUGA,ON,L5G1C9,1100,-79.584399,43.5522456
Restaurant,SHWRAP,3160,ARGENTIA,RD,,,,MISSISSAUGA,ON,,1101,NA,NA
Restaurant,SILK ROAD,1852,DUNDAS,ST,E,,,MISSISSAUGA,ON,L4X1L9,1102,-79.6916033,43.5095311
Restaurant,SILVAS BBQ,925,RATHBURN,RD,E,Unit,C5,MISSISSAUGA,ON,L4W 4C3,1103,-79.6173985,43.6158833
Restaurant,SILVERSPOON INC,816,BRITANNIA,RD,W,Unit,3-4,MISSISSAUGA,ON,L5V 0A6,1104,-79.6963377,43.6109022
Restaurant,SINAS BBQ,5171,TOMKEN,RD,,Unit,1-2,MISSISSAUGA,ON,L4W 1P1,1105,-79.6367012,43.6304148
Restaurant,SINDHI,488,EGLINTON,AVE,W,UNIT,22,MISSISSAUGA,ON,L5R 0G2,1106,-79.6782755,43.6147554
Restaurant,SIZZLOZ FLAME GRILLED CHICKEN INC,5606,TENTH,LINE,W,Unit,C1,MISSISSAUGA,ON,L5M 7L9,1107,-79.7431421,43.5585266
Restaurant,SKYMARK DELI,2630,SKYMARK,AVE,,Unit,110,MISSISSAUGA,ON,L4W 5A4,1108,-79.596512,43.6586397
Restaurant,SKYMARK DELI,5450,EXPLORER,DR,,,,MISSISSAUGA,ON,L4W 5M1,1109,-79.6056395,43.6618497
Restaurant,SKYMARK DELI - ARGENTIA,2000,ARGENTIA,RD,,,PLAZA2,MISSISSAUGA,ON,L5N1P7,1110,-79.7406885,43.5984325
Restaurant,SKYWAY CAFE,2410,LUCKNOW,DR,,Unit,A32,MISSISSAUGA,ON,L5S1H3,1111,-79.6575784,43.6926953
Restaurant,SKYWAY JACKS,6461,MISSISSAUGA,RD,,Unit,2,MISSISSAUGA,ON,L5N1A6,1112,-79.7368328,43.5989753
Restaurant,SNACKS N CHAI CAFE INC,80,COURTNEYPARK,DR,E,Unit,K3,MISSISSAUGA,ON,L5T 2Y3,1113,-79.6902004,43.636624
Restaurant,SNUG HARBOUR SEAFOOD BAR AND GRILL,14,STAVEBANK,RD,S,,,MISSISSAUGA,ON,L5G2T1,1114,-79.5851013,43.5493369
Restaurant,SODEXO / TD BANK,1855,BUCKHORN,GATE,,Unit,1-6F,MISSISSAUGA,ON,L4W 5PN,1115,-79.6221368,43.6476344
Restaurant,SODEXO / TIM HORTONS,1855,BUCKHORN,GATE,,Unit,1-6F,MISSISSAUGA,ON,L4W 5PN,1116,-79.6221368,43.6476344
Restaurant,SODEXO CANADA LTD,5570,EXPLORER,DR,,,,MISSISSAUGA,ON,L4W 5M6,1117,-79.6047618,43.6610276
Restaurant,SODEXO CANADA LTD.,2920,MATHESON,BLVD,E,,,MISSISSAUGA,ON,L4W 5R6,1118,-79.592299,43.6665595
Restaurant,SODEXO PATHEON INC,2100,SYNTEX,CRT,,,,MISSISSAUGA,ON,L5N3X4,1119,NA,NA
Restaurant,SODEXO/MATRIX LOGISTICS SERVICES,6941,KENNEDY,RD,,,,MISSISSAUGA,ON,L5T 2R6,1120,-79.691954,43.6548886
Restaurant,SOLSTICE PASTA PIZZA BAR,1801,LAKESHORE,RD,W,Unit,10-12,MISSISSAUGA,ON,L5J1J6,1121,-79.6245936,43.5168164
Restaurant,SOMETHIN SWEET 4U,5955,LATIMER,DR,,UNIT,10,MISSISSAUGA,ON,L5V 0B7,1122,-79.6973509,43.607805
Restaurant,SONG COOKS COREAN CHILLI,1310,DUNDAS,ST,E,Unit,5,MISSISSAUGA,ON,L4Y2C1,1123,-79.5880858,43.6044367
Restaurant,SOUTH CREEK DONUTS & DELI,2100,DUNDAS,ST,E,,,MISSISSAUGA,ON,L4X 1L9,1124,-79.6916033,43.5095311
Restaurant,SOUTH ST BURGER CO,100,CITY CENTRE,DR,,Unit,2-824,MISSISSAUGA,ON,L5B 2G6,1125,-79.6424911,43.5930784
Restaurant,SOUTH ST. BURGER CO.,3021,ARGENTIA,RD,,Unit,7,MISSISSAUGA,ON,L5N 8P7,1126,-79.7928996,43.5968997
Restaurant,SOUVLAKI HUT,1725,LAKESHORE,RD,W,Unit,B,MISSISSAUGA,ON,L5J 1J4,1127,-79.6203819,43.5205967
Restaurant,SOUVLAKI HUT PORT CREDIT,51,LAKESHORE,RD,E,,,MISSISSAUGA,ON,L5G1C9,1128,-79.584399,43.5522456
Restaurant,SOUVLAKI PORT CREDIT - GREEK GRILL,85,LAKESHORE,RD,E,,,MISSISSAUGA,ON,L5G1C9,1129,-79.584399,43.5522456
Restaurant,SPICE LOUNGE & TAPAS,52,LAKESHORE,RD,E,,,MISSISSAUGA,ON,L5G 1E1,1130,-79.5847502,43.5528725
Restaurant,SPIGEL HALL #27022/U OF T/ ERINDALE,3359,MISSISSAUGA,RD,,,,MISSISSAUGA,ON,L5L1C6,1131,-79.6621392,43.5473118
Restaurant,SPIN DESSERT CAFE & BISTRO,4188,LIVING ARTS,DR,,UNIT,9,MISSISSAUGA,ON,L5B 0H7,1132,-79.6472281,43.5889054
Restaurant,SPOON AND FORK DUNDAS,1225,DUNDAS,ST,E,Unit,14B,MISSISSAUGA,ON,L4Y 2C5,1133,-79.588788,43.6056891
Restaurant,SPRING CAFE,2425,TRUSCOTT,DR,,Unit,19,MISSISSAUGA,ON,L5J 2B4,1134,-79.6484562,43.5124491
Restaurant,SPRING ROLLS (SUSSEX),90,BURNHAMTHORPE,RD,W,UNIT ,105,MISSISSAUGA,ON,L5B 3C3,1135,-79.6367012,43.5912128
Restaurant,SPROUTS,6956,FINANCIAL,DR,,UNIT,H9,MISSISSAUGA,ON,L5N 8J4,1136,-79.7494509,43.6102165
Restaurant,SSP/AMERICAN AIRLINES/ADMIRALS LOUNGE 20153,3,LESTER B PEARSON INTL AIRPORT,,,,,MISSISSAUGA,ON,L5P 1C4,1137,-79.6628408,43.6691521
Restaurant,SSP/BOCCONE #20162,1,LESTER B PEARSON INTL AIRPORT,,,,,MISSISSAUGA,ON,,1138,NA,NA
Restaurant,SSP/BOCCONE PRONTO /#20168,1,LESTER B PEARSON INTL AIRPORT,,,,,MISSISSAUGA,ON,,1139,NA,NA
Restaurant,SSP/CAFE RITAZZA PHASE 2 - #20166,1,LESTER B PEARSON INTL AIRPORT,,,,,MISSISSAUGA,ON,,1140,NA,NA
Restaurant,SSP/CAMDEN FOOD CO,1,LESTER B PEARSON INTL AIRPORT,,,,,MISSISSAUGA,ON,,1141,NA,NA
Restaurant,SSP/HAMMERHEAD TIM HORTONS #20172,1,LESTER B PEARSON INTL AIRPORT,,,,,MISSISSAUGA,ON,,1142,NA,NA
Restaurant,SSP/MILL STREET BREW PUB #20159,1,LESTER B PEARSON INTL AIRPORT,,,,,MISSISSAUGA,ON,,1143,NA,NA
Restaurant,SSP/STAFF CENTRE #20161,1,LESTER B PEARSON INTL AIRPORT,,,,,MISSISSAUGA,ON,,1144,NA,NA
Restaurant,SSP/T.OS #20158,1,LESTER B PEARSON INTL AIRPORT,,,,,MISSISSAUGA,ON,,1145,NA,NA
Restaurant,SSP/TIM HORTONS #7105351,1,LESTER B PEARSON INTL AIRPORT,,,,,MISSISSAUGA,ON,,1146,NA,NA
Restaurant,SSP/TIM HORTONS #20165,1,LESTER B PEARSON INTL AIRPORT,,,,,MISSISSAUGA,ON,,1147,NA,NA
Restaurant,SSP/TRANSBORDER TIM HORTONS #20175,1,LESTER B PEARSON INTL AIRPORT,,,,,MISSISSAUGA,ON,,1148,NA,NA
Restaurant,SSP/TRUE BURGER CO,1,LESTER B PEARSON INTL AIRPORT,,,,,MISSISSAUGA,ON,,1149,NA,NA
Restaurant,SSP/TRUE BURGER CO #20174,1,LESTER B PEARSON INTL AIRPORT,,,,,MISSISSAUGA,ON,,1150,NA,NA
Restaurant,ST LOUIS BAR & GRILL,6485,MISSISSAUGA,RD,,,1&2,MISSISSAUGA,ON,L5N1A6,1151,-79.7368328,43.5989753
Restaurant,STANDARD SWEETS & SNACKS LTD,2877,DERRY,RD,E,,,MISSISSAUGA,ON,L4T1A6,1152,-79.6440702,43.7031737
Restaurant,STANFIELD GRILLHOUSE,2345,STANFIELD,RD,,,,MISSISSAUGA,ON,L4Y 3Y3,1153,-79.5829945,43.5987717
Restaurant,STARBUCKS #17423 / SHERIDAN COLLEGE - HAZEL MCCALLION CAMPUS,4180,DUKE OF YORK,BLVD,,,,MISSISSAUGA,ON,L5B 0G5,1154,-79.6302609,43.579882
Restaurant,STARBUCKS #23285 - BELL MOBILITY,5025,CREEKBANK,RD,,UNIT,1C11-01,MISSISSAUGA,ON,,1155,NA,NA
Restaurant,STARBUCKS #4872,2963,ARGENTIA,RD,,Bldg,C,MISSISSAUGA,ON,L5K 1P9,1156,-79.6626654,43.539181
Restaurant,STARBUCKS (U OF T) #27026,3359,MISSISSAUGA,RD,,,,MISSISSAUGA,ON,L5L1C6,1157,-79.6621392,43.5473118
Restaurant,STARBUCKS COFFEE # 12467,5015,GLEN ERIN,DR,,,,MISSISSAUGA,ON,L5M 4Z5,1158,-79.71089,43.5603651
Restaurant,STARBUCKS COFFEE # 4007,2116,BURNHAMTHORPE,RD,W,Unit,C3,MISSISSAUGA,ON,L5L 5Z5,1159,-79.6828352,43.5447341
Restaurant,STARBUCKS COFFEE # 4635,242,QUEEN,ST,S,,,MISSISSAUGA,ON,L5M1L5,1160,-79.7128184,43.5806058
Restaurant,STARBUCKS COFFEE # 4829,6020,HURONTARIO,ST,,Unit,1,MISSISSAUGA,ON,L5R 1B5,1161,-79.6782755,43.6147554
Restaurant,STARBUCKS COFFEE #16144,6974,FINANCIAL,DR,,Unit,D1,MISSISSAUGA,ON,L5N 8E8,1162,-79.7462966,43.6084463
Restaurant,STARBUCKS COFFEE #17341,1930,FOWLER,DR,,Unit,101,MISSISSAUGA,ON,L5K 0A1,1163,-79.6515263,43.5279778
Restaurant,STARBUCKS COFFEE #17557,670,EGLINTON,AVE,W,Unit,5,MISSISSAUGA,ON,L5R 3V2,1164,-79.667226,43.593105
Restaurant,STARBUCKS COFFEE #19818,1560,DUNDAS,ST,E,Bldg,C3,MISSISSAUGA,ON,L4X 1L4,1165,-79.5779031,43.6109261
Restaurant,STARBUCKS COFFEE #20593,5029,HURONTARIO,ST,,Unit,1,MISSISSAUGA,ON,L4Z3X7,1166,-79.65407,43.6086902
Restaurant,STARBUCKS COFFEE #20687,4076,CONFEDERATION,PKWY,,,,MISSISSAUGA,ON,L5B 0G4,1167,-79.6463509,43.5854084
Restaurant,STARBUCKS COFFEE #4278,3235,DUNDAS,ST,W,,,MISSISSAUGA,ON,L5L5V7,1168,-79.6808184,43.5238021
Restaurant,STARBUCKS COFFEE #4290,3050,VEGA,BLVD,,,,MISSISSAUGA,ON,L5L 5X8,1169,-79.691954,43.5152175
Restaurant,STARBUCKS COFFEE #4303,189,RATHBURN,RD,W,,,MISSISSAUGA,ON,L5B4C1,1170,-79.6481053,43.594779
Restaurant,STARBUCKS COFFEE #4387,111,LAKESHORE,RD,W,,,MISSISSAUGA,ON,L5H1E9,1171,-79.587208,43.5498276
Restaurant,STARBUCKS COFFEE #4408,2100,HURONTARIO,ST,,Unit,4,MISSISSAUGA,ON,,1172,NA,NA
Restaurant,STARBUCKS COFFEE #4469,960,SOUTHDOWN,RD,,Unit,13,MISSISSAUGA,ON,L5Z 1K5,1173,NA,NA
Restaurant,STARBUCKS COFFEE #4478,100,CITY CENTRE,DR,,Unit,1-126,MISSISSAUGA,ON,L5B2C9,1174,-79.6424911,43.5930784
Restaurant,STARBUCKS COFFEE #4657,5067,DIXIE,RD,,,,MISSISSAUGA,ON,L5B 2C9,1175,-79.6424911,43.5930784
Restaurant,STARBUCKS COFFEE #4665,3035,ARGENTIA,RD,,Unit,7,MISSISSAUGA,ON,,1176,NA,NA
Restaurant,STARBUCKS COFFEE CANADA INC # 16201,3030,THOMAS,ST,,Unit,A407,MISSISSAUGA,ON,L5M 0N7,1177,-79.7364823,43.5588167
Restaurant,STARBUCKS KIOSK #23449 ROYAL BANK MEADOWVALE,6880,FINANCIAL,DR,,,,MISSISSAUGA,ON,L5N 7Y5,1178,-79.7462966,43.6084463
Restaurant,STIR KITCHEN & BEVERAGE CORP,10,KINGSBRIDGE GARDEN,CIR,,Suite,101,MISSISSAUGA,ON,L5R 3K6,1179,-79.6482807,43.6023702
Restaurant,STONEY PIZZA,1200,VANIER,DR,,Unit,8A,MISSISSAUGA,ON,L5H 4C7,1180,-79.6265239,43.5427236
Restaurant,STRANO CULINARY SERVICES/ OUR LADY OF MT CARMEL,3700,TRELAWNY,CIR,,,,MISSISSAUGA,ON,,1181,NA,NA
Restaurant,STRANO CULINARY SERVICES/DUFFERIN PEEL CSB,40,MATHESON,BL,W,,,MISSISSAUGA,ON,L5R1C5,1182,-79.6716109,43.6191975
Restaurant,STUDENT BIRYANI INC,1010,DREAM CREST,RD,,Unit,1314,MISSISSAUGA,ON,,1183,NA,NA
Restaurant,SUBWAY,2855,DERRY,RD,E,Unit,1,MISSISSAUGA,ON,L4T 1A6,1184,-79.6440702,43.7031737
Restaurant,SUBWAY,325,CENTRAL PKY,,W,Unit,50,MISSISSAUGA,ON,L5B3X9,1185,-79.6379294,43.5834511
Restaurant,SUBWAY,5019,SPECTRUM,WAY,,Unit,5B,MISSISSAUGA,ON,L4W 0E3,1186,-79.6221368,43.6476344
Restaurant,SUBWAY #15423,3041,ARGENTIA,RD,,Unit,M3,MISSISSAUGA,ON,L5N 8P7,1187,-79.7928996,43.5968997
Restaurant,SUBWAY AMC MISSISSAUGA,90,COURTNEYPARK,DR,E,Unit,N2,MISSISSAUGA,ON,L5T 2Y3,1188,-79.6902004,43.636624
Restaurant,SUBWAY COLLEGEWAY,3355,THE COLLEGEWAY,,,UNIT,29B,MISSISSAUGA,ON,L5R 5T3,1189,-79.6782755,43.6147554
Restaurant,SUBWAY KENNEDY INC,5555,KENNEDY,RD,,,,MISSISSAUGA,ON,L4Z 3E1,1190,-79.6561751,43.6278869
Restaurant,SUBWAY SALAD AND SANDWICHES,7070,MCLAUGHLIN,RD,,Unit,B3,MISSISSAUGA,ON,L5W 1W7,1191,-79.7179023,43.6364655
Restaurant,SUBWAY SANDWICH,1900,DUNDAS,ST,E,Unit,2,MISSISSAUGA,ON,L4X 2Z4,1192,-79.57167,43.6202259
Restaurant,SUBWAY SANDWICH,2920,ARGENTIA,RD,,,,MISSISSAUGA,ON,L5N 8C5,1193,-79.7809884,43.5976109
Restaurant,SUBWAY SANDWICH,35,BRUNEL,RD,,Unit,1,MISSISSAUGA,ON,L4Z 3E8,1194,-79.6765217,43.6261769
Restaurant,SUBWAY SANDWICH,720,BRISTOL,RD,W,Unit,8,MISSISSAUGA,ON,L5R 4A3,1195,-79.6798539,43.5990076
Restaurant,SUBWAY SANDWICH & SALAD,925,RATHBURN,RD,E,Unit,C7,MISSISSAUGA,ON,L4W 4C3,1196,-79.6173985,43.6158833
Restaurant,SUBWAY SANDWICH TOMKEN #26030,7025,TOMKEN,RD,,Unit,1,MISSISSAUGA,ON,L5S1R6,1197,-79.6849396,43.6667132
Restaurant,SUBWAY SANDWICHES,100,CITY CENTRE,DR,,Unit,2-101,MISSISSAUGA,ON,L5B2C9,1198,-79.6424911,43.5930784
Restaurant,SUBWAY SANDWICHES,1125,DUNDAS,ST,E,Unit,9,MISSISSAUGA,ON,L4Y2C4,1199,-79.5910701,43.603968
Restaurant,SUBWAY SANDWICHES,115,QUEEN,ST,S,Unit,1,MISSISSAUGA,ON,L5M 1K7,1200,-79.7170258,43.5845535
Restaurant,SUBWAY SANDWICHES,1525,BRISTOL,RD,W,Unit,9,MISSISSAUGA,ON,L5M 4Z1,1201,-79.6987924,43.586169
Restaurant,SUBWAY SANDWICHES,2136,BURNHAMTHORPE,RD,W,Unit,E-3,MISSISSAUGA,ON,L5L 5Z5,1202,-79.6828352,43.5447341
Restaurant,SUBWAY SANDWICHES,2555,ERIN CENTRE,BLVD,,Unit,6,MISSISSAUGA,ON,L5M5H1,1203,-79.7129937,43.5676913
Restaurant,SUBWAY SANDWICHES,3024,HURONTARIO,ST,,Unit,G7,MISSISSAUGA,ON,L5B 4M4,1204,-79.6171353,43.5804361
Restaurant,SUBWAY SANDWICHES,3045,CLAYHILL,RD,,Unit,10,MISSISSAUGA,ON,L5B 4Z2,1205,-79.6333674,43.582143
Restaurant,SUBWAY SANDWICHES,5602,TENTH,LINE,W,Unit,113,MISSISSAUGA,ON,L5M 6S3,1206,-79.7459461,43.55878
Restaurant,SUBWAY SANDWICHES,5636,GLEN ERIN,DR,,Unit,2A,MISSISSAUGA,ON,L5M 6B1,1207,-79.7291209,43.5655842
Restaurant,SUBWAY SANDWICHES,6465,AIRPORT,RD,,Unit,103,MISSISSAUGA,ON,L4V1E4,1208,-79.6252956,43.6921199
Restaurant,SUBWAY SANDWICHES,6465,MILLCREEK,DR,,Unit,110,MISSISSAUGA,ON,L5N5R3,1209,-79.7417401,43.5916933
Restaurant,SUBWAY SANDWICHES,6750,WINSTON CHURCHILL,BLVD,,Unit,9B,MISSISSAUGA,ON,L5N 4C4,1210,-79.7648706,43.5830824
Restaurant,SUBWAY SANDWICHES & NEW YORK FRIES,1475,AEROWOOD,DR,,UNIT,B03,MISSISSAUGA,ON,L4W 1C2,1211,-79.6344201,43.6437121
Restaurant,SUBWAY SANDWICHES & SALADS,1100,BURNHAMTHORPE,RD,W,Unit,11A,MISSISSAUGA,ON,L5C4G4,1212,-79.6612622,43.5699763
Restaurant,SUBWAY SANDWICHES & SALADS,1375,SOUTHDOWN,RD,,Unit,4&5,MISSISSAUGA,ON,L5J2Z1,1213,-79.639333,43.5187581
Restaurant,SUBWAY SANDWICHES & SALADS,1891,RATHBURN,RD,E,UNIT,18,MISSISSAUGA,ON,L4W 3Z3,1214,-79.5958098,43.636023
Restaurant,SUBWAY SANDWICHES & SALADS,20,KINGSBRIDGE GARDEN,CIR,,Unit,3,MISSISSAUGA,ON,L5R 3K7,1215,-79.6489825,43.6033253
Restaurant,SUBWAY SANDWICHES & SALADS,2458,DUNDAS,ST,W,Unit,1A,MISSISSAUGA,ON,L5K 1R8,1216,-79.6758202,43.5268434
Restaurant,SUBWAY SANDWICHES & SALADS,252,LAKESHORE,RD,W,Unit,2,MISSISSAUGA,ON,L5H 1G6,1217,-79.5931767,43.5468071
Restaurant,SUBWAY SANDWICHES & SALADS,40,BRISTOL,RD,E,Unit,3,MISSISSAUGA,ON,L4Z3K8,1218,-79.6610867,43.6152695
Restaurant,SUBWAY SANDWICHES & SALADS,4141,DIXIE,RD,,Unit,9,MISSISSAUGA,ON,L4W1V5,1219,-79.6045863,43.6252506
Restaurant,SUBWAY SANDWICHES & SALADS,4870,TOMKEN,RD,,Unit,8,MISSISSAUGA,ON,L4W 1J8,1220,-79.6291561,43.6209671
Restaurant,SUBWAY SANDWICHES & SALADS,5067,DIXIE,RD,,Unit,3,MISSISSAUGA,ON,L4W 5S6,1221,-79.6203819,43.6370863
Restaurant,SUBWAY SANDWICHES & SALADS,5100,ERIN MILLS,PKWY,,,F3,MISSISSAUGA,ON,L5M4Z5,1222,-79.71089,43.5603651
Restaurant,SUBWAY SANDWICHES & SALADS,5835,DIXIE,RD,,Unit,4,MISSISSAUGA,ON,L4W4V7,1223,-79.6421402,43.6527264
Restaurant,SUBWAY SANDWICHES & SALADS,5975,TERRY FOX,WAY,,,,MISSISSAUGA,ON,L5V 2N7,1224,-79.6902004,43.5974228
Restaurant,SUBWAY SANDWICHES & SALADS,5985,MAVIS,RD,,Unit,A2,MISSISSAUGA,ON,L5R3T7,1225,-79.6933568,43.6116711
Restaurant,SUBWAY SANDWICHES & SALADS,6200,DIXIE,RD,,Unit,104,MISSISSAUGA,ON,L5T 1A6,1226,-79.6505614,43.6564621
Restaurant,SUBWAY SANDWICHES & SALADS,645,LAKESHORE,RD,E,Unit,1,MISSISSAUGA,ON,L5G1J5,1227,-79.5668412,43.5696565
Restaurant,SUBWAY SANDWICHES & SALADS,7125,GOREWAY,DR,,Unit,102,MISSISSAUGA,ON,L4T4H3,1228,-79.6346833,43.7161727
Restaurant,SUBWAY SANDWICHES AND SALADS,285,ENFIELD,PL,,,R102,MISSISSAUGA,ON,L5B3Y6,1229,-79.6357361,43.5903076
Restaurant,SUBWAY SANDWICHES AND SALADS,6065,CREDITVIEW,RD,,,E105,MISSISSAUGA,ON,L5V2A8,1230,-79.713169,43.5990613
Restaurant,SUGAR MARMALADE (MISSISSAUGA),780,BURNHAMTHORPE,RD,W,UNIT,2A,MISSISSAUGA,ON,L5C 3X3,1231,-79.6521403,43.5783587
Restaurant,SUKIYAKI,1250,SOUTH SERVICE,RD,,Unit,74,MISSISSAUGA,ON,L5E 1V4,1232,-79.5691239,43.5943785
Restaurant,SUMMIT GARDEN CHINESE CUISINE,3015,WINSTON CHURCHILL,BLVD,,Unit,108,MISSISSAUGA,ON,L5L2V8,1233,-79.6828352,43.5245061
Restaurant,SUNNYSIDE GRILL,1375,SOUTHDOWN,RD,,UNIT ,11,MISSISSAUGA,ON,L5J 2Z1,1234,-79.639333,43.5187581
Restaurant,SUNSET GRILL,102,LAKESHORE,RD,W,,,MISSISSAUGA,ON,L5H1E8,1235,-79.587998,43.5499744
Restaurant,SUNSET GRILL,1510,DUNDAS,ST,E,Unit,1,MISSISSAUGA,ON,L4X 1Z4,1236,-79.59344,43.6293497
Restaurant,SUNSET GRILL,2901,EGLINTON,AVE,W,Unit,C1,C2,MISSISSAUGA,ON,L5M 6J3,1237,-79.715448,43.5533444
Restaurant,SUNSET GRILL,3021,ARGENTIA,RD,,Unit,903,MISSISSAUGA,ON,,1238,NA,NA
Restaurant,SUNSET GRILL,5089,DIXIE,RD,,Unit,B3,MISSISSAUGA,ON,L4W 0E6,1239,-79.6221368,43.6476344
Restaurant,SUNSHINE CAFETERIA CORPORATION,385,SOUTHDOWN,RD,,,,MISSISSAUGA,ON,L5J2Y3,1240,-79.614415,43.5024942
Restaurant,SUPER MACK RESTAURANT,5960,DIXIE,RD,,,,MISSISSAUGA,ON,L4W1E9,1241,-79.6463509,43.6531107
Restaurant,SUSHI FOR YOU,6465,MILLCREEK,DR,,Unit,181,MISSISSAUGA,ON,L5N 5R3,1242,-79.7417401,43.5916933
Restaurant,SUSHI JUN EXPRESS,1415,BONHILL,RD,,Unit,19,MISSISSAUGA,ON,L5T1R2,1243,-79.6517894,43.6599862
Restaurant,SUSHI KOKO,800,DUNDAS,ST,E,Unit,A,MISSISSAUGA,ON,L4Y 2B6,1244,-79.5972141,43.5957692
Restaurant,SUSHI ONE INC,670,EGLINTON,AVE,W,Unit,4,MISSISSAUGA,ON,L5R 3V2,1245,-79.667226,43.593105
Restaurant,SUSHI SUSHI,6400,MILLCREEK,DR,,Unit,1,MISSISSAUGA,ON,L5N 3E7,1246,-79.740338,43.5891892
Restaurant,SUSHI TEI JAPANESE RESTAURANT,4040,CREDITVIEW,RD,,Unit,12,MISSISSAUGA,ON,L5C  3Y8,1247,-79.6666998,43.5676477
Restaurant,SWAGRUHAS INC,2970,DREW,RD,,Unit,101,MISSISSAUGA,ON,L4T 0A1,1248,-79.6542454,43.7097339
Restaurant,SWEET ROSIES,6711,MISSISSAUGA,RD,,Unit,110,MISSISSAUGA,ON,L5N2W3,1249,-79.739637,43.6016057
Restaurant,SWISS CHALET,5165,DIXIE,RD,,,,MISSISSAUGA,ON,L4W4G1,1250,-79.6245936,43.639846
Restaurant,SWISS CHALET #1192,1170,BURNHAMTHORPE,RD,W,Unit,12-14,MISSISSAUGA,ON,L5C 4E6,1251,-79.6631917,43.5685172
Restaurant,SWISS CHALET B.B.Q.,2155,LEANNE,BLVD,,Unit,6,MISSISSAUGA,ON,L5K 2K8,1252,-79.6524911,43.5257602
Restaurant,SWISS CHALET EXPRESS,252,LAKESHORE,RD,W,Unit,3,MISSISSAUGA,ON,L5G 1G9,1253,-79.5772885,43.5598423
Restaurant,SWISS CHALET EXPRESS,252,LAKESHORE,RD,W,Unit,3,MISSISSAUGA,ON,L5G 1G9,1254,-79.5772885,43.5598423
Restaurant,SWISS CHALET PLUS,5990,MCLAUGHLIN,RD,,,,MISSISSAUGA,ON,L5R 3X9,1255,-79.6891483,43.6148528
Restaurant,SWISS CHALET ROTISSERIE & GRILL,1455,DUNDAS,ST,E,,,MISSISSAUGA,ON,L4X 1L3,1256,-79.5824679,43.6116423
Restaurant,SWISS CHALET ROTISSERIE & GRILL,2975,EGLINTON,AVE,W,,,MISSISSAUGA,ON,L5M 6J3,1257,-79.715448,43.5533444
Restaurant,SWISS CHALET ROTISSERIE & GRILL,6430,ERIN MILLS,PKWY,,,,MISSISSAUGA,ON,L5N 3P3,1258,-79.7434926,43.5867997
Restaurant,SWISS CHALET ROTISSERIE & GRILL,6970,FINANCIAL,DR,,,,MISSISSAUGA,ON,,1259,NA,NA
Restaurant,SWITZERS AIRPORT DELI CITY,7310,TORBRAM,RD,,Unit,1,MISSISSAUGA,ON,L4T3X2,1260,-79.6617884,43.7001946
Restaurant,SYMPOSIUM CAFE,3055,DUNDAS,ST,W,Unit,14,MISSISSAUGA,ON,L5L3R8,1261,-79.6849396,43.521722
Restaurant,SYMPOSIUM CAFE,6677,MEADOWVALE TOWN CENTRE,CIR,,Unit,71,MISSISSAUGA,ON,L5N2R5,1262,-79.759439,43.5833356
Restaurant,SZECHUAN NOODLE BOWL,400,DUNDAS,ST,E,Unit,101,MISSISSAUGA,ON,L5A1X5,1263,-79.6054639,43.5883557
Restaurant,T & T SUPERMARKET,715,CENTRAL PKY,,W,,,MISSISSAUGA,ON,L5B 4L1,1264,-79.6449474,43.5769596
Restaurant,T.S.B. 2000,77,CITY CENTRE,DR,,UNIT,100,MISSISSAUGA,ON,L5B1M5,1265,-79.6379294,43.5923648
Restaurant,TABAQ RESTAURANT,2580,SHEPARD,AVE,,Unit,2,MISSISSAUGA,ON,L5A 4K3,1266,-79.6149415,43.5806068
Restaurant,TACO BELL #6313,6055,CREDITVIEW,RD,,,,MISSISSAUGA,ON,L5M2B5,1267,NA,NA
Restaurant,TACO DEL MAR,3041,ARGENTIA,RD,,Unit,M5,MISSISSAUGA,ON,L5N 8P7,1268,-79.7928996,43.5968997
Restaurant,TANDOORI FLAME  INDIAN KITCHEN,5975,MAVIS,RD,,,,MISSISSAUGA,ON,L5R3T7,1269,-79.6933568,43.6116711
Restaurant,TANDOORI KING,848,BURNHAMTHORPE,RD,W,Unit,1,MISSISSAUGA,ON,L5C2S3,1270,-79.6561751,43.5744171
Restaurant,TANDOORI MEZBAN,99,DUNDAS,ST,E,,,MISSISSAUGA,ON,L5A1W7,1271,-79.614064,43.5830522
Restaurant,TANDOORI NITES INC,7079,TORBRAM,RD,,Unit,1A,MISSISSAUGA,ON,L4T1G7,1272,-79.6537191,43.6985696
Restaurant,TANTE MAYS FAMOUS SHAWARMA,4870,TOMKEN,RD,,Unit,2,MISSISSAUGA,ON,L4W 1J8,1273,-79.6291561,43.6209671
Restaurant,TARBOOSH RESTAURANT,3050,CONFEDERATION,PKWY,,Unit,105,MISSISSAUGA,ON,L5B3Z6,1274,-79.6212594,43.577916
Restaurant,TASTE BUDS RESTAURANT & CATERING,6700,MONTEVIDEO,RD,,Unit,2,MISSISSAUGA,ON,L5N1V1,1275,-79.7583877,43.5903736
Restaurant,TASTY CAFE & RESTAURANT,989,DERRY,RD,E,Unit,103,MISSISSAUGA,ON,L5T2J8,1276,-79.6861672,43.6657864
Restaurant,TASTY KITCHEN,1177,CENTRAL PKY,,W,Unit,12,MISSISSAUGA,ON,L5C 4P3,1277,-79.6603851,43.567667
Restaurant,TASTY KITCHEN,165,DUNDAS,ST,W,,106,MISSISSAUGA,ON,L5B2N6,1278,-79.6205574,43.5772574
Restaurant,TAVA INDIAN BISTRO,1510,DREW,RD,,Unit,4,MISSISSAUGA,ON,L5S1W7,1279,-79.6793278,43.6798482
Restaurant,TCHE TCHE CAFE,5004,TIMBERLEA,BLVD,,Unit,19A,MISSISSAUGA,ON,L4W 5C5,1280,-79.633806,43.6268105
Restaurant,TEN RESTAURANT & WINE BAR,139,LAKESHORE,RD,E,,,MISSISSAUGA,ON,L5G 1E5,1281,-79.5819412,43.5543984
Restaurant,TERIYAKI EXPERIENCE,100,CITY CENTRE,DR,,,1-131A,MISSISSAUGA,ON,L5B2C9,1282,-79.6424911,43.5930784
Restaurant,TERIYAKI EXPERIENCE,5019,SPECTRUM,WAY,,UNIT,A2,MISSISSAUGA,ON,L4W 5A1,1283,-79.6102029,43.6506966
Restaurant,TERRA FOODMART,2458,DUNDAS,ST,W,UNIT,16A,MISSISSAUGA,ON,L5K 1R8,1284,-79.6758202,43.5268434
Restaurant,TEXAS LONGHORN,803,DUNDAS,ST,E,,,MISSISSAUGA,ON,L4Y2B7,1285,-79.5972141,43.5981456
Restaurant,THAI CUISINE EXPERTS,3960,GRAND PARK,DR,,Unit,C-3,MISSISSAUGA,ON,L5B 4M6,1286,-79.6463509,43.5824369
Restaurant,THAI CUISINE EXPERTS INC,2155,LEANNE,BLVD,,UNIT,103B,MISSISSAUGA,ON,L5K 2K8,1287,-79.6524911,43.5257602
Restaurant,THAI EXPRESS,1510,DUNDAS,ST,E,Unit,3,MISSISSAUGA,ON,L4X 1L4,1288,-79.5779031,43.6109261
Restaurant,THAI EXPRESS,3077,MAVIS,RD,,Unit,3,MISSISSAUGA,ON,,1289,NA,NA
Restaurant,THAI EXPRESS,5100,ERIN MILLS,PKWY,,Unit,F.11,MISSISSAUGA,ON,L5M 4Z5,1290,-79.71089,43.5603651
Restaurant,THAI EXPRESS,5955,LATIMER,DR,,Unit,5,MISSISSAUGA,ON,L5V 0B7,1291,-79.6973509,43.607805
Restaurant,THAI EXPRESS,6590,MEADOWVALE TOWN CENTRE,CIR,,Unit,J2,MISSISSAUGA,ON,L5N 4B7,1292,-79.7606655,43.5827032
Restaurant,THAI EXPRESS / VILLA MADINA,6956,FINANCIAL,DR,,UNIT,10-11,MISSISSAUGA,ON,L5N 8J4,1293,-79.7494509,43.6102165
Restaurant,THAI EXPRESS SQUARE ONE,100,CITY CENTRE,DR,,,1-134,MISSISSAUGA,ON,L5B2C9,1294,-79.6424911,43.5930784
Restaurant,THAI HOUSE CUISINE 2,261,LAKESHORE,RD,E,,,MISSISSAUGA,ON,L5G1G8,1295,-79.5770252,43.5592979
Restaurant,THAI SIGNATURE RESTAURANT,203,LAKESHORE,RD,E,,,MISSISSAUGA,ON,L5G1G2,1296,-79.5787809,43.5576755
Restaurant,THE 3 BREWERS,5860,MAVIS,RD,,Bldg,D,MISSISSAUGA,ON,L5V 3B7,1297,-79.6926554,43.6086371
Restaurant,THE BACKBURNER,1450,MEYERSIDE,DR,,Unit,103,MISSISSAUGA,ON,L5T2N5,1298,-79.6545963,43.6590554
Restaurant,THE BLACK HORSE PUB & GRILL,1852,LAKESHORE,RD,W,,,MISSISSAUGA,ON,L5J1J7,1299,-79.625471,43.514665
Restaurant,THE BROGUE INN,136,LAKESHORE,RD,E,,,MISSISSAUGA,ON,L5G1E6,1300,-79.5822045,43.5550914
Restaurant,THE BULL PUB & GRILL,2800,SKYMARK,AVE,,Unit,25-29,MISSISSAUGA,ON,L4W 5A6,1301,-79.5924745,43.6628677
Restaurant,THE BURGERS PRIEST,129,LAKESHORE,RD,E,Unit,A,MISSISSAUGA,ON,L5G 1E5,1302,-79.5819412,43.5543984
Restaurant,THE CIRCUIT BREAK #27024/U OF T/ERINDALE COLLEGE,3359,MISSISSAUGA,RD,,,,MISSISSAUGA,ON,L5L1C6,1303,-79.6621392,43.5473118
Restaurant,THE CLARKSON PUMP,1744,LAKESHORE,RD,W,Unit,1,MISSISSAUGA,ON,L5J 4N8,1304,-79.622751,43.5170199
Restaurant,THE CROOKED CUE,75,LAKESHORE,RD,E,,,MISSISSAUGA,ON,L5G1C9,1305,-79.584399,43.5522456
Restaurant,THE DIXIE CURLING CLUB,3071,PALSTAN,RD,,,,MISSISSAUGA,ON,L4Y2Z7,1306,-79.5908946,43.6058824
Restaurant,THE DRAKE & FIRKIN,6982,FINANCIAL,DR,,Unit,B101,MISSISSAUGA,ON,L5N 7Y5,1307,-79.7462966,43.6084463
Restaurant,THE ERIN MILLS PUMP & PATIO,1900,DUNDAS,ST,W,Unit,14 & 15,MISSISSAUGA,ON,L5K1P9,1308,-79.6626654,43.539181
Restaurant,THE ERINVIEW,2132,DUNDAS,ST,W,,,MISSISSAUGA,ON,L5K2K7,1309,-79.6675768,43.5348691
Restaurant,THE EXTREME PITA,2911,EGLINTON,AVE,W,Unit,D1,MISSISSAUGA,ON,L5M 6J3,1310,-79.715448,43.5533444
Restaurant,THE EXTREME PITA,6045,MAVIS,RD,,Unit,8,MISSISSAUGA,ON,L5R 4G6,1311,-79.6958116,43.614567
Restaurant,THE EXTREME PITA  STORE 67,6550,MEADOWVALE TOWN CENTRE,CIR,,Unit,10,MISSISSAUGA,ON,L5N 4B7,1312,-79.7606655,43.5827032
Restaurant,THE FLAVOURS,6435,DIXIE,RD,,Unit,8,MISSISSAUGA,ON,L5T1A4,1313,-79.6619638,43.6668473
Restaurant,THE FRANKLIN HOUSE,263,QUEEN,ST,S,,,MISSISSAUGA,ON,L5M1L9,1314,-79.7096628,43.5791309
Restaurant,THE FRIENDLY GRILL RESTAURANT & DELI,1020,MEYERSIDE,DR,,Unit,3A,MISSISSAUGA,ON,L5T1K7,1315,-79.6638933,43.6505555
Restaurant,THE FRITTER KING INC.,1177,CENTRAL,PKWY,W,Unit,9,Mississauga,ON,L5C 4P3,1316,-79.6603851,43.567667
Restaurant,THE GLEN ERIN INN AND SPA,1695,THE COLLEGEWAY,,,,,MISSISSAUGA,ON,L5L3S7,1317,-79.668103,43.5451783
Restaurant,THE GOSPEL CAFE & RESTAURANT LIMITED,5120,DIXIE,RD,,Unit,9,MISSISSAUGA,ON,L4W4J7,1318,-79.623453,43.6364026
Restaurant,THE GREAT CANADIAN PIZZA COMPANY,278,LAKESHORE,RD,E,,,MISSISSAUGA,ON,L5G1H1,1319,-79.576674,43.5604546
Restaurant,THE HANGAR GRILL,2515,DERRY,RD,E,,,MISSISSAUGA,ON,L4T1A1,1320,-79.6519648,43.6963343
Restaurant,THE HERSHEY SPORTZONE,5600,ROSE CHERRY,PL,,,,MISSISSAUGA,ON,L4Z 4B6,1321,-79.6537191,43.6321163
Restaurant,THE HOST  FINE INDIAN CUISINE,33,CITY CENTRE,DR,,Unit,101,MISSISSAUGA,ON,L5B2N5,1322,-79.6386312,43.5948056
Restaurant,THE KEBOB,3417,DERRY,RD,E,Unit,8,MISSISSAUGA,ON,L4T1A8,1323,-79.6365257,43.7103396
Restaurant,THE KEG MISSISSAUGA NORTH,3130,ARGENTIA,RD,,,,MISSISSAUGA,ON,L5N 0B1,1324,-79.7865939,43.5933608
Restaurant,THE KEG STEAKHOUSE & BAR,670,MATHESON,BLVD,W,,,MISSISSAUGA,ON,L5R 3T2,1325,-79.6905512,43.6090401
Restaurant,THE KEYSTONE PUB,2760,DERRY,RD,W,Unit,8,MISSISSAUGA,ON,L5N 3N5,1326,-79.7641698,43.5937183
Restaurant,THE LUNCH BAG DELI CAFE,2601,MATHESON,BLVD,E,Unit,32,MISSISSAUGA,ON,L4W 5A8,1327,-79.6007248,43.6596193
Restaurant,THE MAHARAJA,4646,HERITAGE HILLS,BLVD,,Unit,3,MISSISSAUGA,ON,L5R1Y3,1328,-79.6602097,43.599299
Restaurant,THE MARKETPLACE CAFE,100,QUEENSWAY,,W,,,MISSISSAUGA,ON,L5B 1B8,1329,-79.6087988,43.5709804
Restaurant,THE MEYERSIDE RESTAURANT,1087,MEYERSIDE,DR,,Unit,9,MISSISSAUGA,ON,L5T 1M5,1330,-79.6632794,43.6530962
Restaurant,THE MISSION EATERY INC,5915,AIRPORT,RD,,Unit,100,MISSISSAUGA,ON,L4V1T1,1331,-79.6084477,43.68702
Restaurant,THE OLD BARBER HOUSE RESTAURANT,5155,MISSISSAUGA,RD,,,,MISSISSAUGA,ON,L5M2L9,1332,-79.7008965,43.5726883
Restaurant,THE OLD STABLE,114,LAKESHORE,RD,W,,3,MISSISSAUGA,ON,L5H1E8,1333,-79.587998,43.5499744
Restaurant,THE OPEN CORK EATERY & LOUNGE,2101,DUNDAS,ST,E,,,MISSISSAUGA,ON,L4X1M3,1334,-79.5670168,43.626255
Restaurant,THE ORIGINAL JERK,3355,THE COLLEGEWAY,,,Unit,16,MISSISSAUGA,ON,L5L5T3,1335,-79.7045784,43.5241001
Restaurant,THE OWL OF MINERVA,1177,CENTRAL PKY,,W,Unit,23A-B,MISSISSAUGA,ON,L5C4P3,1336,-79.6603851,43.567667
Restaurant,THE PERFECT KITCHEN,3075,RIDGEWAY,DR,,,124,MISSISSAUGA,ON,L5L5M6,1337,-79.6891483,43.5191288
Restaurant,THE PUMP HOUSE GRILLE CO.,40,LAKESHORE,RD,E,,,MISSISSAUGA,ON,L5G1C8,1338,-79.5861546,43.5518121
Restaurant,THE REGIONAL MUNICIPALITY OF PEEL,7120,HURONTARIO,ST,,Floor,1,MISSISSAUGA,ON,L5W 0A8,1339,-79.7119419,43.6368159
Restaurant,THE SANDWICH BOARD,90,MATHESON,BLVD,W,Unit,105,MISSISSAUGA,ON,L5R3R3,1340,-79.6737155,43.6187951
Restaurant,THE SAUCY GRILL,111,QUEEN,ST,S,,,MISSISSAUGA,ON,,1341,NA,NA
Restaurant,THE SECOND CUP,100,CITY CENTRE,DR,,Unit,2-301,MISSISSAUGA,ON,L5B 2C9,1342,-79.6424911,43.5930784
Restaurant,THE SECOND CUP,91,LAKESHORE,RD,E,,,MISSISSAUGA,ON,L5G1E2,1343,-79.5833457,43.5533381
Restaurant,THE SHAS RESTAURANT INC.,3233,BRANDON GATE,DR,,Unit,3,MISSISSAUGA,ON,L4T3V8,1344,-79.652842,43.7205714
Restaurant,THE SHISH MAHAL INDIAN CUISINE,3176,RIDGEWAY,DR,,Unit,66,MISSISSAUGA,ON,L5L5S6,1345,-79.6942335,43.517954
Restaurant,THE STAR FASTFOOD,1177,CENTRAL PKY,,W,,64,MISSISSAUGA,ON,L5C4P3,1346,-79.6603851,43.567667
Restaurant,THE TEA ROOM,223,QUEEN,ST,S,Unit,3,MISSISSAUGA,ON,L5M 1L6,1347,-79.7123801,43.5809376
Restaurant,THE WILCOX GASTROHOUSE,4650,HURONTARIO,ST,,,,MISSISSAUGA,ON,L5R 1A1,1348,-79.6782755,43.6147554
Restaurant,THE WOKKER RESTAURANT,360,LAKESHORE,RD,W,,,MISSISSAUGA,ON,L5H1H3,1349,-79.5959853,43.5426043
Restaurant,THE X-CLUB,1625,SISMET,RD,,Unit,1-6,MISSISSAUGA,ON,L4W 1V6,1350,-79.625822,43.6436682
Restaurant,THYME RISTORANTE,347,LAKESHORE,RD,E,Unit,2, 3,MISSISSAUGA,ON,L5G 1H6,1351,-79.5739526,43.5631027
Restaurant,TILTED KILT PUB AND EATERY,285,ENFIELD,PL,,Unit,R100,MISSISSAUGA,ON,L5B3Y6,1352,-79.6357361,43.5903076
Restaurant,TIM HORTON DONUTS,100,CITY CENTRE,DR,,Unit,2-102,MISSISSAUGA,ON,L5B 2C9,1353,-79.6424911,43.5930784
Restaurant,TIM HORTON DONUTS,1125,BLOOR,ST,,,,MISSISSAUGA,ON,L4Y 2N6,1354,-79.6014269,43.6115997
Restaurant,TIM HORTON DONUTS,1170,BURNHAMTHORPE,RD,W,Unit,21,MISSISSAUGA,ON,L5C4E6,1355,-79.6631917,43.5685172
Restaurant,TIM HORTON DONUTS,120,QUEEN,ST,S,,,MISSISSAUGA,ON,,1356,NA,NA
Restaurant,TIM HORTON DONUTS,1250,SOUTH SERVICE,RD,,Unit,76A,MISSISSAUGA,ON,L5E 1V4,1357,-79.5691239,43.5943785
Restaurant,TIM HORTON DONUTS,1327,DUNDAS,ST,E,,,MISSISSAUGA,ON,L4Y2C7,1358,-79.5859791,43.6084011
Restaurant,TIM HORTON DONUTS,1375,SOUTHDOWN,RD,,,,MISSISSAUGA,ON,L5J 2Z1,1359,-79.639333,43.5187581
Restaurant,TIM HORTON DONUTS,1420,MIDWAY,BLVD,,,,MISSISSAUGA,ON,L5T 2S4,1360,-79.6655596,43.6669523
Restaurant,TIM HORTON DONUTS,144,DUNDAS,ST,W,Unit,1,MISSISSAUGA,ON,L5B1H9,1361,-79.6195045,43.5771611
Restaurant,TIM HORTON DONUTS,151,CITY CENTRE,DR,,Unit,102,MISSISSAUGA,ON,L5B1M7,1362,-79.6400348,43.5907744
Restaurant,TIM HORTON DONUTS,1520,AIMCO,BLVD,,,,MISSISSAUGA,ON,L4W 5K1,1363,-79.6231897,43.6385304
Restaurant,TIM HORTON DONUTS,1785,LAKESHORE,RD,W,,,MISSISSAUGA,ON,L5J1J6,1364,-79.6245936,43.5168164
Restaurant,TIM HORTON DONUTS,2215,ERIN MILLS,PKWY,,,,MISSISSAUGA,ON,L5R 1T9,1365,-79.6489825,43.5988696
Restaurant,TIM HORTON DONUTS,2427,CAWTHRA,RD,,,,MISSISSAUGA,ON,L5A 2W7,1366,-79.592299,43.5911596
Restaurant,TIM HORTON DONUTS,2458,DUNDAS,ST,W,,,MISSISSAUGA,ON,L5K 1R8,1367,-79.6758202,43.5268434
Restaurant,TIM HORTON DONUTS,2991,ERIN CENTRE,BLVD,,,,MISSISSAUGA,ON,L5M 6B8,1368,-79.7228106,43.5537139
Restaurant,TIM HORTON DONUTS,30,EGLINTON,AVE,W,,,MISSISSAUGA,ON,L5R3E7,1369,-79.6526666,43.605592
Restaurant,TIM HORTON DONUTS,3285,DERRY,RD,W,Unit,2,MISSISSAUGA,ON,L5N7L7,1370,-79.7781855,43.5830933
Restaurant,TIM HORTON DONUTS,3411,MAVIS,RD,,,,MISSISSAUGA,ON,L5C1T7,1371,-79.6467018,43.5780112
Restaurant,TIM HORTON DONUTS,3436,GLEN ERIN,DR,,,,MISSISSAUGA,ON,,1372,NA,NA
Restaurant,TIM HORTON DONUTS,39,AVENTURA,CRT,,,,MISSISSAUGA,ON,L5T 3A1,1373,-79.7038771,43.6452867
Restaurant,TIM HORTON DONUTS,4100,DIXIE,RD,,,,MISSISSAUGA,ON,L4W 1M4,1374,-79.6047618,43.6236338
Restaurant,TIM HORTON DONUTS,44,BRITANNIA,RD,E,Unit,B,MISSISSAUGA,ON,L5M1P7,1375,-79.7202688,43.5904193
Restaurant,TIM HORTON DONUTS,4595,TOMKEN,RD,,,,MISSISSAUGA,ON,L4W1J8,1376,-79.6291561,43.6209671
Restaurant,TIM HORTON DONUTS,475,COURTNEYPARK,DR,E,,,MISSISSAUGA,ON,L5T2V3,1377,-79.6863425,43.6472561
Restaurant,TIM HORTON DONUTS,5614,TENTH,LINE,W,,,MISSISSAUGA,ON,,1378,NA,NA
Restaurant,TIM HORTON DONUTS,5869,AIRPORT,RD,,,,MISSISSAUGA,ON,L4V 1C9,1379,-79.6075702,43.6864949
Restaurant,TIM HORTON DONUTS,6075,CREDITVIEW,RD,,,,MISSISSAUGA,ON,L5V2A8,1380,-79.713169,43.5990613
Restaurant,TIM HORTON DONUTS,6405,ERIN MILLS,PKWY,,,,MISSISSAUGA,ON,L5N4H4,1381,-79.741039,43.5868751
Restaurant,TIM HORTON DONUTS,6600,MEADOWVALE TOWN CENTRE,CIR,,,,MISSISSAUGA,ON,L5N 2R5,1382,-79.759439,43.5833356
Restaurant,TIM HORTON DONUTS,6767,AIRPORT,RD,,,,MISSISSAUGA,ON,L4V1E6,1383,-79.6358238,43.7025689
Restaurant,TIM HORTON DONUTS,6966,FINANCIAL,DR,,Bldg,F,MISSISSAUGA,ON,L5N 8J4,1384,-79.7494509,43.6102165
Restaurant,TIM HORTON DONUTS,7480,AIRPORT,RD,,,,MISSISSAUGA,ON,L4T2H5,1385,-79.6561751,43.7133183
Restaurant,TIM HORTON DONUTS,780,SOUTH SHERIDAN,WAY,,,,MISSISSAUGA,ON,L5H1Z6,1386,-79.6159945,43.5500868
Restaurant,TIM HORTON DONUTS,799,DUNDAS,ST,E,,,MISSISSAUGA,ON,L4Y2B7,1387,-79.5972141,43.5981456
Restaurant,TIM HORTON DONUTS,800,BANCROFT,DR,,,,MISSISSAUGA,ON,L5V 1X7,1388,-79.7045784,43.6150657
Restaurant,TIM HORTON DONUTS,885,BRITANNIA,RD,W,,,MISSISSAUGA,ON,,1389,NA,NA
Restaurant,TIM HORTON DONUTS,910,LAKESHORE,RD,E,,,MISSISSAUGA,ON,L5E1E1,1390,-79.5613976,43.5734648
Restaurant,TIM HORTON DONUTS #1571,1211,HURONTARIO,ST,,Unit,A,MISSISSAUGA,ON,L5G3H2,1391,-79.5875591,43.5599677
Restaurant,TIM HORTON DONUTS #1666,3650,DERRY,RD,E,,,MISSISSAUGA,ON,L4T3V7,1392,-79.6288051,43.7149687
Restaurant,TIM HORTON RESTAURANT,3255,DUNDAS,ST,W,,,MISSISSAUGA,ON,L5L 5V3,1393,-79.6912526,43.525866
Restaurant,TIM HORTONS # 2214,2655,EGLINTON,AVE,W,,,MISSISSAUGA,ON,L5M 7E1,1394,-79.7126431,43.557848
Restaurant,TIM HORTONS # 27021/U OF T/ERINDALE,3359,MISSISSAUGA,RD,,,,MISSISSAUGA,ON,L5L1C6,1395,-79.6621392,43.5473118
Restaurant,TIM HORTONS #2987,5100,ERIN MILLS,PKWY,,Unit,B206,MISSISSAUGA,ON,L5M 4Z5,1396,-79.71089,43.5603651
Restaurant,TIM HORTONS / T3 PIER A,3,LESTER B PEARSON INTL AIRPORT,,,,,MISSISSAUGA,ON,L5P 1C4,1397,-79.6628408,43.6691521
Restaurant,TIM HORTONS COFFEE KIOSK / T3 PIER A,3,LESTER B PEARSON INTL AIRPORT,,,,,MISSISSAUGA,ON,L5P 1C4,1398,-79.6628408,43.6691521
Restaurant,TIM HORTONS,1801,DUNDAS,ST,E,,,MISSISSAUGA,ON,L4X1L5,1399,-79.5775519,43.6159417
Restaurant,TIM HORTONS,3060,ARTESIAN,DR,,,,MISSISSAUGA,ON,L7M 7P5,1400,-79.8128649,43.3791997
Restaurant,TIM HORTONS,3110,ARGENTIA,RD,,,,MISSISSAUGA,ON,L5N 0B1,1401,-79.7865939,43.5933608
Restaurant,TIM HORTONS,4920,TOMKEN,RD,,Unit,1,MISSISSAUGA,ON,L4W 1J8,1402,-79.6291561,43.6209671
Restaurant,TIM HORTONS,6070,DIXIE,RD,,,,MISSISSAUGA,ON,,1403,NA,NA
Restaurant,TIM HORTONS,6925,CENTURY,AVE,,,,MISSISSAUGA,ON,L5N 0E3,1404,6.1903658,51.6248264
Restaurant,TIM HORTONS #1476,100,QUEENSWAY,,W,,,MISSISSAUGA,ON,L5B 1B8,1405,-79.6087988,43.5709804
Restaurant,TIM HORTONS #1999,100,QUEENSWAY,,W,,,MISSISSAUGA,ON,L5B 1B8,1406,-79.6087988,43.5709804
Restaurant,TIM HORTONS #27019 / U OF T / ERINDALE,3359,MISSISSAUGA,RD,,,,MISSISSAUGA,ON,L5L1C6,1407,-79.6621392,43.5473118
Restaurant,TIM HORTONS #404,2165,ROYAL WINDSOR,DR,,,,MISSISSAUGA,ON,L5J 1K5,1408,-79.6354729,43.5079906
Restaurant,TIM HORTONS #4216,100,QUEENSWAY,,W,,,MISSISSAUGA,ON,L5B 1B8,1409,-79.6087988,43.5709804
Restaurant,TIM HORTONS/CREDIT VALLEY HOSPITAL/MAIN LOBBY,2200,EGLINTON,AVE,W,Unit,15,MISSISSAUGA,ON,L5M2N1,1410,-79.7024745,43.5596019
Restaurant,TIM-JAS THAI AND CHINESE RESTAURANT,1107,LORNE PARK,RD,,Unit,17,MISSISSAUGA,ON,L5H 3A1,1411,-79.6128355,43.5319542
Restaurant,TIMEOUT RESTAURANT AND LOUNGE,392,GIBRALTAR,DR,,Unit,13B,MISSISSAUGA,ON,L5T2P6,1412,-79.6955486,43.6517281
Restaurant,TIMOTHYS WORLD COFFEE,129,LAKESHORE,RD,E,UNIT,F,MISSISSAUGA,ON,L5G 1E5,1413,-79.5819412,43.5543984
Restaurant,TIMOTHYS WORLD COFFEE,5100,ERIN MILLS,PKWY,,Unit,B.235,MISSISSAUGA,ON,L5M 4Z5,1414,-79.71089,43.5603651
Restaurant,TJX CANADA #23102,60,STANDISH,CRT,,,,MISSISSAUGA,ON,L5R 0G1,1415,-79.6782755,43.6147554
Restaurant,TOPIARYS DINING,3215,DERRY,RD,E,,,MISSISSAUGA,ON,L4T1A8,1416,-79.6365257,43.7103396
Restaurant,TORBRAM RESTAURANT,7270,TORBRAM,RD,,,,MISSISSAUGA,ON,L4T3Y7,1417,-79.6626654,43.6992368
Restaurant,TOSCA RISTORANTE,6990,FINANCIAL,DR,,Unit,1,MISSISSAUGA,ON,L5N 8J4,1418,-79.7494509,43.6102165
Restaurant,TRADERS BISTRO / TRIDENT CATERING,2635,LAKESHORE,RD,W,,,MISSISSAUGA,ON,L5J4R9,1419,-79.6281032,43.4843968
Restaurant,TREMENDOUS CHINESE RESTAURANT,3550,WOLFEDALE,RD,,Unit,1,MISSISSAUGA,ON,L5C2V6,1420,-79.6512631,43.5727804
Restaurant,TRIOS FOODSERVICE/ST JOSEPH SS,5555,CREDITVIEW,RD,,,,MISSISSAUGA,ON,,1421,NA,NA
Restaurant,TROPICANA RESTAURANT,5599,AMBLER,DR,,,,MISSISSAUGA,ON,L4W3Z1,1422,-79.6386312,43.6452838
Restaurant,TSB 2000,5800,HURONTARIO,ST,,UNIT,B1,MISSISSAUGA,ON,L5R 4B6,1423,-79.6782755,43.6147554
Restaurant,TSUI XIANG TSUEN RESTAURANT,888,DUNDAS,ST,E,Unit,5,MISSISSAUGA,ON,L4Y4G6,1424,-79.5950857,43.5984517
Restaurant,TUNG HING BAKERY,888,DUNDAS,ST,E,Unit,A.3,MISSISSAUGA,ON,L4Y 4G6,1425,-79.5950857,43.5984517
Restaurant,TURKISH KING KEBAB,5130,DIXIE,RD,,Unit,6,MISSISSAUGA,ON,L4W1C9,1426,-79.6224878,43.6360917
Restaurant,TURNTABLE RESTAURANT AND LOUNGE,7171,TORBRAM,RD,,Unit,C5,MISSISSAUGA,ON,L4T3W4,1427,-79.6561751,43.6984971
Restaurant,TURTLE JACKS MUSKOKA GRILL,108,COURTNEYPARK,DR,E,Bldg,Q,MISSISSAUGA,ON,L5T 2Y3,1428,-79.6902004,43.636624
Restaurant,TURTLE JACKS MUSKOKA GRILL,6610,MEADOWVALE TOWN CENTRE,CIR,,,,MISSISSAUGA,ON,L5N 4B7,1429,-79.7606655,43.5827032
Restaurant,TURTLE JACKS MUSKOKA GRILL,980,SOUTHDOWN,RD,,,,MISSISSAUGA,ON,L5J 2Y4,1430,-79.6263484,43.5041809
Restaurant,TWIN FISH - THAI CUISINE LTD.,80,COURTNEYPARK,DR,E,UNIT,K2,MISSISSAUGA,ON,L5T 2Y3,1431,-79.6902004,43.636624
Restaurant,TWO GUYS FROM ITALY,128,QUEEN,ST,S,Unit,16 & 17,MISSISSAUGA,ON,L5M1K8,1432,-79.7164999,43.5828713
Restaurant,TWOTWO MUSIC RESTAURANT,169,DUNDAS,ST,E,Unit,6A,MISSISSAUGA,ON,L5A1W8,1433,-79.6114314,43.5853368
Restaurant,UDUPI MADRAS CAFE,265,ENFIELD,PL,,,R202,MISSISSAUGA,ON,L5B3Y6,1434,-79.6357361,43.5903076
Restaurant,UNCLE CHON LTD,802,SOUTHDOWN,RD,,,,MISSISSAUGA,ON,L5J 2Y4,1435,-79.6263484,43.5041809
Restaurant,UNION SOCIAL EATERY,6986,FINANCIAL,DR,,Unit,A5,MISSISSAUGA,ON,L5N 8J4,1436,-79.7494509,43.6102165
Restaurant,UPTOWN CAFE,1599,HURONTARIO,ST,,,,MISSISSAUGA,ON,L5G4S1,1437,-79.5973896,43.5674087
Restaurant,URBAN CRAVE,3,LESTER B PEARSON INTL AIRPORT,,,,,MISSISSAUGA,ON,L5P 1C4,1438,-79.6628408,43.6691521
Restaurant,URBAN KITCHEN / SELECT SANDWICH,55,STANDISH,CRT,,Unit,B1,Mississauga,ON,L5R 4B2,1439,-79.6842382,43.6262848
Restaurant,VEGGIE VILLA,4025,BRANDON GATE,DR,,UNIT,13,MISSISSAUGA,ON,L4T 3Z9,1440,-79.6349465,43.7325673
Restaurant,VERDI CONVENTION CENTRE,3550,DERRY,RD,E,,,MISSISSAUGA,ON,L4T 3V7,1441,-79.6288051,43.7149687
Restaurant,VILLA MADINA,5955,LATIMER,DR,,Unit,5,MISSISSAUGA,ON,L5V 0B7,1442,-79.6973509,43.607805
Restaurant,VILLA SORRENTO RESTAURANT,1149,LAKESHORE,RD,E,,,MISSISSAUGA,ON,L5E1E8,1443,-79.5573586,43.5797789
Restaurant,VILLAMOR CAFE,1030,DUNDAS,ST,E,,,MISSISSAUGA,ON,L4Y2B8,1444,-79.5915968,43.6000067
Restaurant,VINIFERA RESTAURANT / T1 DEPARTURE GATE176/HAMMERHEAD,1,LESTER B PEARSON INTL AIRPORT,,,,,MISSISSAUGA,ON,,1445,NA,NA
Restaurant,VIOLET CATERING LTD,2550,MEADOWVALE,BLVD,,UNIT,3,MISSISSAUGA,ON,L5N 8C2,1446,-79.7718787,43.6057041
Restaurant,WACKY WINGS EATERY  BEVERAGE & SPORTS CO,1248,DUNDAS,ST,E,Unit,13-15,MISSISSAUGA,ON,L4Y 2C1,1447,-79.5880858,43.6044367
Restaurant,WAH FUNG BBQ RESTAURANT,4040,CREDITVIEW,RD,,Unit,5,MISSISSAUGA,ON,L5C 4E3,1448,-79.6675768,43.5687679
Restaurant,WAHLBURGERS,1,LESTER B PEARSON INTL AIRPORT,,,,,MISSISSAUGA,ON,,1449,NA,NA
Restaurant,WALKERS FISH MARKET,2575,DUNDAS,ST,W,Unit,1,MISSISSAUGA,ON,L5K2M6,1450,-79.6800293,43.5260361
Restaurant,WALLYS FAMILY RESTAURANT,3480,HURONTARIO,ST,,,,MISSISSAUGA,ON,L5B 1P2,1451,-79.6307353,43.5900736
Restaurant,WANGS KITCHEN,4559,HURONTARIO,ST,,Unit,12A,MISSISSAUGA,ON,L4Z 3L9,1452,-79.6491579,43.605272
Restaurant,WASABI GRAND BUFFET,98,COURTNEYPARK,DR,E,,,MISSISSAUGA,ON,L5T 2Y3,1453,-79.6902004,43.636624
Restaurant,WATAN KABOB,55,MATHESON,BLVD,E,Unit,2,MISSISSAUGA,ON,L4Z 2Y5,1454,-79.668103,43.620066
Restaurant,WENDYS RESTAURANT,1420,MIDWAY,BLVD,,,,MISSISSAUGA,ON,L5T 2S4,1455,-79.6655596,43.6669523
Restaurant,WENDYS RESTAURANT,3411,MAVIS,RD,,,,MISSISSAUGA,ON,L5C1T7,1456,-79.6467018,43.5780112
Restaurant,WENDYS RESTAURANT,6449,ERIN MILLS,PKWY,,,,MISSISSAUGA,ON,L5N4H4,1457,-79.741039,43.5868751
Restaurant,WENDYS RESTAURANT,6966,FINANCIAL,DR,,Bldg,F,MISSISSAUGA,ON,L5N 8J4,1458,-79.7494509,43.6102165
Restaurant,WENDYS RESTAURANT,885,BRITANNIA,RD,W,,,MISSISSAUGA,ON,,1459,NA,NA
Restaurant,WENDYS RESTAURANT #6318,2400,DUNDAS,ST,W,,,MISSISSAUGA,ON,L5K2R8,1460,-79.6751186,43.5279696
Restaurant,WENDYS RESTAURANT #6408,44,BRITANNIA,RD,E,Unit,A,MISSISSAUGA,ON,L5M1P7,1461,-79.7202688,43.5904193
Restaurant,WENDYS RESTAURANT #6450,1520,AIMCO,BLVD,,,,MISSISSAUGA,ON,L4W 5K1,1462,-79.6231897,43.6385304
Restaurant,WENDYS RESTAURANT #6681,2655,EGLINTON,AVE,W,,,MISSISSAUGA,ON,L5M 7E1,1463,-79.7126431,43.557848
Restaurant,WENDYS RESTAURANT NO.6340,6585,AIRPORT,RD,,Unit,B,MISSISSAUGA,ON,L4V1E4,1464,-79.6252956,43.6921199
Restaurant,WENDYS RESTAURANT NO.6461,3650,DERRY,RD,E,,,MISSISSAUGA,ON,L4T3V7,1465,-79.6288051,43.7149687
Restaurant,WEST50 POURE HOUSE AND GRILLE,50,BURNHAMTHORPE,RD,W,Unit,200,MISSISSAUGA,ON,L5B 3C2,1466,-79.6359993,43.59204
Restaurant,WHOLE FOODS MARKET CANADA  INC,155,SQUARE ONE,DR,,,,MISSISSAUGA,ON,L5B 0E2,1467,-79.6498597,43.5898883
Restaurant,WILD WING,4141,DIXIE,RD,,UNIT,3,MISSISSAUGA,ON,L4W1V5,1468,-79.6045863,43.6252506
Restaurant,WILD WING (HEARTLAND),5955,LATIMER,DR,,Unit,4,Mississauga,ON,L5V 0B7,1469,-79.6973509,43.607805
Restaurant,WILD WING CHURCHILL MEADOWS,5606,TENTH LINE WEST,,,Unit,C2,MISSISSAUGA,ON,L5H 7L9,1470,-79.6109049,43.5420383
Restaurant,WILD WINGS,7070,SAINT BARBARA,BLVD,,Unit,52&54,Mississauga,ON,L5W 0E6,1471,-79.7150974,43.63918
Restaurant,WILLYS JERK RESTAURANT,3024,HURONTARIO,ST,,Unit,G18,MISSISSAUGA,ON,L5B 4M4,1472,-79.6171353,43.5804361
Restaurant,WINGPORIUM,170,LAKESHORE,RD,E,Unit,1,MISSISSAUGA,ON,L5G 1G1,1473,-79.5804488,43.5570112
Restaurant,WINGS RESTAURANT,17,QUEEN,ST,N,Unit,A-1,MISSISSAUGA,ON,L5N6A1,1474,-79.7228982,43.589023
Restaurant,WOK THIS WAY,6740,MEADOWVALE TOWN CENTRE,CIR,,Unit,404,MISSISSAUGA,ON,L5N 2R5,1475,-79.759439,43.5833356
Restaurant,WOODYS KITCHEN,6380,TOMKEN,RD,,Unit,10,MISSISSAUGA,ON,L5T 1Y4,1476,-79.6700323,43.6542305
Restaurant,WOW KOREAN RESTAURANT INC,55,DUNDAS,ST,E,Unit,4,MISSISSAUGA,ON,L5A1W1,1477,-79.6150293,43.5820263
Restaurant,XIN RESTAURANT,1177,CENTRAL PKY,,W,Unit,6,MISSISSAUGA,ON,L5C4P3,1478,-79.6603851,43.567667
Restaurant,YAHALA,1969,LAKESHORE,RD,W,,,MISSISSAUGA,ON,L5J1J6,1479,-79.6245936,43.5168164
Restaurant,YOGIS NOODLE DELIGHT,1550,SOUTH GATEWAY,RD,,Unit,1D,MISSISSAUGA,ON,L4W 5G6,1480,-79.61266,43.6328177
Restaurant,YOGURTYS,5636,GLEN ERIN,DR,,UNIT,2B,MISSISSAUGA,ON,,1481,NA,NA
Restaurant,YORKSHIRE ARMS BRITISH PUB,1201,BRITANNIA,RD,W,Unit,1,MISSISSAUGA,ON,L5V 1N2,1482,-79.7066823,43.6033751
Restaurant,YOUNG ST KARAOKE LTD,1177,CENTRAL PKY,,W,Unit,63,MISSISSAUGA,ON,L5C 4P3,1483,-79.6603851,43.567667
Restaurant,YOYOS YOGURT CAFE,4070,LIVING ARTS,DR,,Unit,2,MISSISSAUGA,ON,L5B 0C3,1484,-79.6452105,43.5879043
Restaurant,YUK-YUKS (MISSISSAUGA),5165,DIXIE,RD,,,6,MISSISSAUGA,ON,L4W4G1,1485,-79.6245936,43.639846
Restaurant,ZAAFFRAN KITCHEN INC.,5618,TENTH,LINE,W,Unit,E4-5,MISSISSAUGA,ON,L5M 7L9,1486,-79.7431421,43.5585266
Restaurant,ZAGLOBA DELI AND RESTAURANT,2555,DIXIE,RD,,Unit,5,MISSISSAUGA,ON,L4Y4C4,1487,-79.5822923,43.609102
Restaurant,ZAUQ,1325,EGLINTON,AVE,E,Unit,12,MISSISSAUGA,ON,L4W4L9,1488,-79.6224878,43.6349044
Restaurant,ZEM-ONE,51,VILLAGE CENTRE,PL,,,,MISSISSAUGA,ON,L4Z1V9,1489,-79.6421402,43.6004732
Restaurant,ZEN GARDENS,6980,MARITZ,DR,,Unit,6-7,MISSISSAUGA,ON,L5W 1Z3,1490,-79.7087862,43.6427638
Restaurant,ZET DRIVE INN RESTAURANT,6445,AIRPORT,RD,,,,MISSISSAUGA,ON,L4V1E4,1491,-79.6252956,43.6921199
Restaurant,ZETS EXPRESS,2701,DERRY,RD,E,,,MISSISSAUGA,ON,L4T1A2,1492,-79.6487193,43.6986324
Restaurant,ZIZI BISTRO,1290,CENTRAL PKY,,W,Unit,101,MISSISSAUGA,ON,L5C4R3,1493,-79.6645949,43.5668615
Restaurant,ZOROS RESTAURANT,7171,TORBRAM,RD,,Unit,1-2-3,MISSISSAUGA,ON,L4T 3W4,1494,-79.6561751,43.6984971
Restaurant,ZOUP,5083,DIXIE,RD,,Unit,D6,MISSISSAUGA,ON,L4W 5K1,1495,-79.6231897,43.6385304
Take Out Only,241 PIZZA #75,2980,CROSSCURRENT,DR,,Unit,9,MISSISSAUGA,ON,L5N7C7,1496,-79.7794118,43.594646
Take Out Only,241 PIZZA NO.5,94,LAKESHORE,RD,E,,,MISSISSAUGA,ON,L5G1E3,1497,-79.5840479,43.5536999
Take Out Only,241 PIZZA STORE #2,2155,LEANNE,BLVD,,UNIT,102,MISSISSAUGA,ON,L5K 2K8,1498,-79.6524911,43.5257602
Take Out Only,2455246 ONTARIO INC,100,CITY CENTRE,DR,,Unit,1-140,MISSISSAUGA,ON,L5B 2C9,1499,-79.6424911,43.5930784
Take Out Only,3 BROTHERS PIZZEIRA,833,WESTLOCK,RD,,Unit,4,MISSISSAUGA,ON,L5C 1K7,1500,-79.6424034,43.5665475
Take Out Only,401-DIXIE ESSO TRUCK STOP,5979,SHAWSON,DR,,,,MISSISSAUGA,ON,L4W3Y2,1501,-79.6526666,43.6477517
Take Out Only,A1-MANI PIZZA & ITALIAN FOODS,4665,CENTRAL PKY,,E,Unit,11,MISSISSAUGA,ON,L4Z2V4,1502,-79.6409121,43.6159538
Take Out Only,AFGHAN KITCHEN,157,DUNDAS,ST,E,Unit,5,MISSISSAUGA,ON,L5A 1W8,1503,-79.6114314,43.5853368
Take Out Only,AIRPORT CAFE / TAXI & LIMO COMPOUND T3,3,LESTER B PEARSON INTL AIRPORT,,,,,MISSISSAUGA,ON,L5P 1C4,1504,-79.6628408,43.6691521
Take Out Only,AL MUSTAFA CATERING,558,LAKESHORE,RD,E,,,MISSISSAUGA,ON,L5G1J3,1505,-79.5690361,43.5669606
Take Out Only,AL-KUDS TOWN AND COUNTRY SUPERMARKET,3355,HURONTARIO,ST,,Unit,8,MISSISSAUGA,ON,L5A4E7,1506,-79.625822,43.5875447
Take Out Only,ALBASHAWAT RESTAURANT,2580,SHEPARD,AVE,,Unit,5,MISSISSAUGA,ON,L5A 4K3,1507,-79.6149415,43.5806068
Take Out Only,ALF HANA INC,6040,GLEN ERIN,DR,,Unit,4,MISSISSAUGA,ON,L5N 3M4,1508,-79.739637,43.5748593
Take Out Only,ALMONASABAH,2340,COUNCIL RING,RD,,Unit,107,MISSISSAUGA,ON,L5L 1C1,1509,-79.6765217,43.5364267
Take Out Only,AMAYA EXPRESS,100,CITY CENTRE,DR,,UNIT,1-834,MISSISSAUGA,ON,L5B 2C9,1510,-79.6424911,43.5930784
Take Out Only,AMICI SPORTS CAFE,496,SOUTH SERVICE,RD,,BLDG,A,MISSISSAUGA,ON,L5G 2S5,1511,-79.5879102,43.5784267
Take Out Only,ANANTHA BHAVAN TAKE-OUT & CATERING LTD,4646,HERITAGE HILLS,BLVD,,Unit,15,MISSISSAUGA,ON,L5R 1Y4,1512,-79.6602097,43.599299
Take Out Only,ANOUSH SHAWARMA FALAFEL KEBOB,5067,DIXIE,RD,,Unit,3,MISSISSAUGA,ON,L4W 5S6,1513,-79.6203819,43.6370863
Take Out Only,ANTOJITOS,803,LAKESHORE,RD,E,,,MISSISSAUGA,ON,L5E 1C8,1514,-79.5641195,43.5721551
Take Out Only,APPLEWOOD BAKERY,1077,NORTH SERVICE,RD,,Unit,6,MISSISSAUGA,ON,L4Y 1A6,1515,-79.5742159,43.5926186
Take Out Only,ARAFAT SUPERB MARKETS,780,BURNHAMTHORPE,RD,W,Unit,12,MISSISSAUGA,ON,L5C 3X3,1516,-79.6521403,43.5783587
Take Out Only,ASIAN FOOD CENTER,1075,CEREMONIAL,DR,,Unit,108,MISSISSAUGA,ON,,1517,NA,NA
Take Out Only,AURORA MEAT CHEESE & SALAMI LIMITED,3661,DIXIE,RD,,,,MISSISSAUGA,ON,L4Y2B3,1518,-79.5986184,43.6202502
Take Out Only,BA LE SANDWICH,1125,DUNDAS,ST,E,Unit,4 GRFL,MISSISSAUGA,ON,L4Y 2C4,1519,-79.5910701,43.603968
Take Out Only,BAMBOO BUBBLE TEA,1100,BURNHAMTHORPE,RD,W,Unit,11A,MISSISSAUGA,ON,L4X 2H1,1520,-79.5805366,43.6261616
Take Out Only,BANH MI TAN DINH BAKERY LTD.,3415,DIXIE,RD,,Unit,15,MISSISSAUGA,ON,L4Y 2B1,1521,-79.5952832,43.6180145
Take Out Only,BARBS ROTI SHOP,1181,LAKESHORE,RD,E,,,MISSISSAUGA,ON,L5E1G1,1522,-79.5556025,43.5802115
Take Out Only,BASIL BOX - SQUARE ONE,100,CITY CENTRE,DR,,Unit,1-138,MISSISSAUGA,ON,L5B2C9,1523,-79.6424911,43.5930784
Take Out Only,BASKIN ROBBINS,100,CITY CENTRE,DR,,Unit,1-202,MISSISSAUGA,ON,L5B 2C9,1524,-79.6424911,43.5930784
Take Out Only,BASKIN ROBBINS,2400,DUNDAS,ST,W,Unit,15,MISSISSAUGA,ON,L5K2R8,1525,-79.6751186,43.5279696
Take Out Only,BASKIN ROBBINS 31 ICE CREAM,1077,NORTH SERVICE,RD,,,,MISSISSAUGA,ON,L4Y 1A6,1526,-79.5742159,43.5926186
Take Out Only,BASKIN ROBBINS ICE CREAM,1250,SOUTH SERVICE,RD,,Unit,122,MISSISSAUGA,ON,L5E 1V4,1527,-79.5691239,43.5943785
Take Out Only,BASKIN ROBBINS STORE #5047,377,BURNHAMTHORPE,RD,E,Unit,51,MISSISSAUGA,ON,L5A 3Y1,1528,-79.6266994,43.6026272
Take Out Only,BELLAS LECHON INC,848,BURNHAMTHORPE,RD,W,Unit,2B,MISSISSAUGA,ON,L5C 2S3,1529,-79.6561751,43.5744171
Take Out Only,BIG SMOKE BURGER,100,CITY CENTRE,DR,,UNIT,FCU2/1-831,MISSISSAUGA,ON,L5B 2C9,1530,-79.6424911,43.5930784
Take Out Only,BIRYHANI KABAB AND MORE,3443,WOLFEDALE,RD,,Unit,1A,MISSISSAUGA,ON,L5C 1V8,1531,-79.6452983,43.5707502
Take Out Only,BOMBAY CHAAT,2580,SHEPARD,AVE,,Unit,1,MISSISSAUGA,ON,L5A 4K3,1532,-79.6149415,43.5806068
Take Out Only,BOMBAY CLOUDS,7215,GOREWAY,DR,,Unit,B-39,MISSISSAUGA,ON,L4T 2T9,1533,-79.6382803,43.719687
Take Out Only,BOOSTER JUICE,100,CITY CENTRE,DR,,Unit,1-712,MISSISSAUGA,ON,L5B 2C9,1534,-79.6424911,43.5930784
Take Out Only,BOOSTER JUICE,3160,ARGENTIA,RD,,UNIT,1,MISSISSAUGA,ON,L5N 0B1,1535,-79.7865939,43.5933608
Take Out Only,BOOSTER JUICE,5095,DIXIE,RD,,UNIT,D5,MISSISSAUGA,,,1536,NA,NA
Take Out Only,BOOSTER JUICE,6990,FINANCIAL,DR,,Unit,4,MISSISSAUGA,ON,L5N 8J4,1537,-79.7494509,43.6102165
Take Out Only,BOOSTER JUICE,801,MATHESON,BLVD,W,Unit,17,MISSISSAUGA,ON,L5Y 2N6,1538,NA,NA
Take Out Only,BOOSTER JUICE ERINMILLS,6460,MILLCREEK,DR,,,,MISSISSAUGA,ON,L5N2V6,1539,-79.7424411,43.5899737
Take Out Only,BOURBON STREET GRILL,100,CITY CENTRE,DR,,Unit,1-141,MISSISSAUGA,ON,L5B2C9,1540,-79.6424911,43.5930784
Take Out Only,BOURBON STREET GRILL,1250,SOUTH SERVICE,RD,,Unit,67,MISSISSAUGA,ON,L5E1V4,1541,-79.5691239,43.5943785
Take Out Only,BRARS BAKERY,5820,KENNEDY,RD,,,,MISSISSAUGA,ON,L4Z 2C3,1542,-79.6638933,43.6315591
Take Out Only,BRASAS ROTISSERIE & GRILL INC,2385,BURNHAMTHORPE,RD,W,Unit,9,MISSISSAUGA,ON,L5L 6A4,1543,-79.6920417,43.5428195
Take Out Only,BREAKFAST ING RESTAURANT,4040,CREDITVIEW,RD,,Unit,21,MISSISSAUGA,ON,L5C4E3,1544,-79.6675768,43.5687679
Take Out Only,BRITANNIA ESSO,2520,BRITANNIA,RD,W,,,MISSISSAUGA,ON,L5M5X7,1545,-79.7334151,43.5779381
Take Out Only,BROTHERS PIZZA & PASTA,3073,HURONTARIO,ST,,,,MISSISSAUGA,ON,L5A2G9,1546,-79.6188025,43.5827429
Take Out Only,BUBBLE KITEA,1960,DUNDAS,ST,W,Unit,8,MISSISSAUGA,ON,L5K2R9,1547,-79.6633671,43.53865
Take Out Only,BUBBLESN BAKERY,63,QUEEN,ST,S,Unit,8,MISSISSAUGA,ON,L5M 3S9,1548,-79.7183405,43.5856385
Take Out Only,BURGER FACTORY,5130,DIXIE,RD,,Unit,3,MISSISSAUGA,ON,L4W1C9,1549,-79.6224878,43.6360917
Take Out Only,BURRITO BOYZ,17,TANNERY,ST,,Unit,2,MISSISSAUGA,ON,L5M 1V1,1550,-79.7149221,43.5810937
Take Out Only,BURRITO BOYZ,3100,WINSTON CHURCHILL,BLVD,,Unit,9,MISSISSAUGA,ON,,1551,NA,NA
Take Out Only,BURRITO BOYZ - STAVEBANK,9,STAVEBANK,RD,,,,MISSISSAUGA,ON,L5G 2T3,1552,-79.6076579,43.5583173
Take Out Only,CAFE N PAAN,7215,GOREWAY,DR,,UNIT,115,MISSISSAUGA,ON,L4T 0B4,1553,-79.6445965,43.7161148
Take Out Only,CAFE LATINO,3025,HURONTARIO,ST,,,,MISSISSAUGA,ON,L5A 2H1,1554,-79.6166965,43.5807674
Take Out Only,CAFE MOAH,55,CITY CENTRE,DR,,Unit,S-21,MISSISSAUGA,ON,L5G 1M3,1555,-79.5851013,43.555283
Take Out Only,CARIBBEAN AUTHENTIC RESTAURANT,6660,KENNEDY,RD,,Unit,3,MISSISSAUGA,ON,L5T 2M9,1556,-79.687044,43.6491006
Take Out Only,CARMEN Y JOSE PERUVIAN FOODS,1400,AIMCO,BLVD,,Unit,J 507-508,MISSISSAUGA,ON,L4W 1E1,1557,-79.6221368,43.6476344
Take Out Only,CHARLOTTES HOMEMADE GOODIES,315,TRADERS,BLVD,E,Unit,5,MISSISSAUGA,ON,L4Z 3E4,1558,-79.667226,43.6290422
Take Out Only,CHIBUGAN EH!,3092,MAVIS,RD,,UNIT,222,MISSISSAUGA,ON,L5C 1T8,1559,-79.6424911,43.5716829
Take Out Only,CHICKENLAND,3405,GLEN ERIN,DR,,Unit,2,MISSISSAUGA,ON,L5L 3S2,1560,-79.6847643,43.5364325
Take Out Only,CHINA SEA,2897,DERRY,RD,E,,,MISSISSAUGA,ON,L4T 1A6,1561,-79.6440702,43.7031737
Take Out Only,CHINESE EXPRESS,300,LAKESHORE,RD,W,,,MISSISSAUGA,ON,L5H 1G9,1562,-79.5943177,43.5434179
Take Out Only,COCO FRESH TEA & JUICE,30,EGLINTON,AVE,W,UNIT,6,MISSISSAUGA,ON,L5R3E7,1563,-79.6526666,43.605592
Take Out Only,COOKSVILLE FISH & CHIPS,55,DUNDAS,ST,E,Unit,8,MISSISSAUGA,ON,L5A1W1,1564,-79.6150293,43.5820263
Take Out Only,CORDOBA COFFEE AND TEA CO,7205,GOREWAY,DR,,Unit,12F,MISSISSAUGA,ON,L4T2T9,1565,-79.6382803,43.719687
Take Out Only,COSIMOS CHEESE AND DELI,1051,DUNDAS,ST,W,,,MISSISSAUGA,ON,L5C1C3,1566,-79.6430175,43.5582054
Take Out Only,COURTNEYPARK SHELL,745,COURTNEYPARK,DR,W,,,MISSISSAUGA,ON,L5W 1L9,1567,-79.707033,43.6239006
Take Out Only,DAINTY DELI INC,3643,CAWTHRA,RD,,Unit,17,MISSISSAUGA,ON,L5A 2Y4,1568,-79.6163455,43.6065809
Take Out Only,DAIRY CREAM,715,LAKESHORE,RD,E,,,MISSISSAUGA,ON,L5G1J7,1569,-79.5660511,43.5704011
Take Out Only,DAIRY KING,341,LAKESHORE,RD,E,UNIT ,5,MISSISSAUGA,ON,,1570,NA,NA
Take Out Only,DAIRY QUEEN,915,RATHBURN,RD,E,Unit,2,MISSISSAUGA,ON,L4W 0E5,1571,-79.6221368,43.6476344
Take Out Only,DAIRY QUEEN / ORANGE JULIUS STORE # 12256,5618,TENTH,LINE,W,UNIT,1,MISSISSAUGA,ON,L4J 8W8,1572,-79.4714432,43.8383752
Take Out Only,DAIRY QUEEN/ ORANGE JULIUS,5100,ERIN MILLS,PKWY,,Unit,R115-B,MISSISSAUGA,ON,L5M4Z5,1573,-79.71089,43.5603651
Take Out Only,DAISYS CAFE,71,KING,ST,W,Unit,101B,MISSISSAUGA,ON,L5B 4A2,1574,-79.6166965,43.5783901
Take Out Only,DANA HOSPITALITY / E.I. DUPONT CANADA,1919,MINNESOTA,CRT,,,,MISSISSAUGA,ON,L5N 0C9,1575,6.1903658,51.6248264
Take Out Only,DEHLI MUSLIM GRILL,29,QUEEN,ST,N,Unit,12,MISSISSAUGA,ON,L5N1A2,1576,-79.7240376,43.5896462
Take Out Only,DESTINATIONCAFE.CA,211,LAKESHORE,RD,E,,,MISSISSAUGA,ON,L5G1G5,1577,-79.5779908,43.5584205
Take Out Only,DIXIE MATHESON CAR WASH,1401,MATHESON,BLVD,E,,,MISSISSAUGA,ON,L4W3W2,1578,-79.6314372,43.6409168
Take Out Only,DOLLED UP CUPCAKES,6550,MEADOWVALE TOWN CENTRE,CIR,,Unit,M02B,MISSISSAUGA,ON,,1579,NA,NA
Take Out Only,DOMINOS PIZZA,1550,SOUTH GATEWAY,RD,,Suite,110,MISSISSAUGA,ON,L4W 5G6,1580,-79.61266,43.6328177
Take Out Only,DOMINOS PIZZA,1575,CLARKSON,RD,,Unit,3,MISSISSAUGA,ON,L5J2X1,1581,-79.6391576,43.5290061
Take Out Only,DOMINOS PIZZA,2560,SHEPARD,AVE,,Unit,8,MISSISSAUGA,ON,L5A4E1,1582,-79.6138885,43.5802132
Take Out Only,DOMINOS PIZZA,3405,GLEN ERIN,DR,,Unit,3,MISSISSAUGA,ON,L5L 3S2,1583,-79.6847643,43.5364325
Take Out Only,DOMINOS PIZZA,4040,CREDITVIEW,RD,,Unit,13,MISSISSAUGA,ON,L5C 3Y8,1584,-79.6666998,43.5676477
Take Out Only,DOMINOS PIZZA,5920,TURNEY,DR,,Unit,3,MISSISSAUGA,ON,L5M2R8,1585,-79.7261411,43.579732
Take Out Only,DOMINOS PIZZA,645,LAKESHORE,RD,E,Unit,E,MISSISSAUGA,ON,L5G 1J5,1586,-79.5668412,43.5696565
Take Out Only,DOMINOS PIZZA,6750,WINSTON CHURCHILL,BLVD,,UNIT,8,MISSISSAUGA,ON,L5N 4C4,1587,-79.7648706,43.5830824
Take Out Only,DOMINOS PIZZA,801,MATHESON,BLVD,W,Unit,6,MISSISSAUGA,ON,L5V 2N6,1588,-79.6903758,43.6070934
Take Out Only,DONNAS ROTI,1400,AIMCO,BLVD,,Unit,H432,MISSISSAUGA,ON,L4W 1C9,1589,-79.6224878,43.6360917
Take Out Only,DOUBBLES & ROTI SHOP,3092,MAVIS,RD,,Unit,218,MISSISSAUGA,ON,L5C 158,1590,NA,NA
Take Out Only,DRUXYS FAMOUS DELI #75,5550,EXPLORER,DR,,Unit,100,MISSISSAUGA,ON,L4W 4Y1,1591,-79.6105539,43.6581464
Take Out Only,DRUXYS FAMOUS DELI #76,100,QUEENSWAY,,W,,,MISSISSAUGA,ON,L5B 1B8,1592,-79.6087988,43.5709804
Take Out Only,EAST CHINA CHINESE FOOD,2458,DUNDAS,ST,W,Unit,1A,MISSISSAUGA,ON,L5K 1R8,1593,-79.6758202,43.5268434
Take Out Only,EASY DRINK EASY GO,2500,HURONTARIO,ST,,Unit,2,MISSISSAUGA,ON,L5B 1N4,1594,-79.614064,43.5777034
Take Out Only,FIVE STAR CATERING,3092,MAVIS,RD,,Unit,229,MISSISSAUGA,ON,,1595,NA,NA
Take Out Only,FOOD FIESTA,7205,GOREWAY,DR,,Unit,60A,MISSISSAUGA,ON,L4T 2T9,1596,-79.6382803,43.719687
Take Out Only,FRESH EAST,5100,ERIN MILLS,PKWY,,UNIT,3,MISSISSAUGA,ON,L5M 4Z5,1597,-79.71089,43.5603651
Take Out Only,FRESHLY  SQUEEZED,1250,SOUTH SERVICE,RD,,K,1,MISSISSAUGA,ON,,1598,NA,NA
Take Out Only,FRESHLY SQUEEZED,100,CITY CENTRE,DR,,Unit,1-104,MISSISSAUGA,ON,L5B 2C9,1599,-79.6424911,43.5930784
Take Out Only,FUSIA ASIAN KITCHEN,2200,EGLINTON,AVE,W,SUITE,18,MISSISSAUGA,ON,L5M 2N1,1600,-79.7024745,43.5596019
Take Out Only,G BRANDT MEAT PACKERS,1878,MATTAWA,AVE,,,,MISSISSAUGA,ON,L4X1K1,1601,-79.5680704,43.6195239
Take Out Only,GATEWAY #541 (O/A CAFE ON THE GO),33,CITY CENTRE,DR,,Unit,147,MISSISSAUGA,ON,L5B 2N5,1602,-79.6386312,43.5948056
Take Out Only,GATEWAY ON THE GO,201,CITY CENTRE,DR,,Unit,106,MISSISSAUGA,ON,L5B2T4,1603,-79.6414384,43.5891199
Take Out Only,GAZEBO SWEETS AND CATERING,626,BLOOR,ST,,Unit,4,MISSISSAUGA,ON,L5A3V9,1604,-79.6114314,43.5992996
Take Out Only,GINOS PIZZA,1151,DUNDAS,ST,W,Unit,36,MISSISSAUGA,ON,L5C1C6,1605,-79.6449474,43.5567463
Take Out Only,GINOS PIZZA,136,QUEEN,ST,S,Unit,4,MISSISSAUGA,ON,L5M1K8,1606,-79.7164999,43.5828713
Take Out Only,GINOS PIZZA,2200,EGLINTON,AVE,W,UNIT,16,MISSISSAUGA,ON,L5M 2N1,1607,-79.7024745,43.5596019
Take Out Only,GINOS PIZZA,3221,DERRY,RD,W,Unit,7,MISSISSAUGA,ON,L5N7L7,1608,-79.7781855,43.5830933
Take Out Only,GINOS PIZZA,377,BURNHAMTHORPE,RD,E,Unit,4A,MISSISSAUGA,ON,L5A 3Y1,1609,-79.6266994,43.6026272
Take Out Only,GO HEALTHY,3092,MAVIS,RD,,Unit,223,MISSISSAUGA,ON,,1610,NA,NA
Take Out Only,GOODNESS ME,720,BRISTOL,RD,W,Unit,A1-1,MISSISSAUGA,ON,L5R 4A3,1611,-79.6798539,43.5990076
Take Out Only,GRABBA PIZZA,3233,BRANDON GATE,DR,,Unit,2B,MISSISSAUGA,ON,,1612,NA,NA
Take Out Only,GRANNYS PLACE,2545,HURONTARIO,ST,,,,MISSISSAUGA,ON,L5A2G4,1613,-79.6145905,43.5796832
Take Out Only,GREEK 2 GO,1125,DUNDAS,ST,E,UNIT,2,MISSISSAUGA,ON,L4Y2C4,1614,-79.5910701,43.603968
Take Out Only,GREEKA,3092,MAVIS,RD,,Unit,210,MISSISSAUGA,ON,L5L 1T8,1615,-79.6703831,43.549698
Take Out Only,HALO-HALO WORLD CAFE INC,2385,BURNHAMTHORPE,RD,W,Unit,8,MISSISSAUGA,ON,L5L 6A4,1616,-79.6920417,43.5428195
Take Out Only,HAPPY CAKE HOUSE,3085,HURONTARIO,ST,,Unit,22,MISSISSAUGA,ON,L5A 4E4,1617,-79.6184954,43.5823063
Take Out Only,HASTY MARKET,100,QUEENSWAY,,W,Unit,4,MISSISSAUGA,ON,L5B 1B8,1618,-79.6087988,43.5709804
Take Out Only,HASTY MARKET,3899,TRELAWNY,CIR,,Unit,17,MISSISSAUGA,ON,L5N 6S3,1619,-79.7689003,43.5779467
Take Out Only,HEAVEN SENT CAFE INCORPORATED,1151,DUNDAS,ST,W,UNIT,24,MISSISSAUGA,ON,L5C 1C6,1620,-79.6449474,43.5567463
Take Out Only,HENRYS FISH & CHIPS,833,WESTLOCK,RD,,Unit,6,MISSISSAUGA,ON,L5C 1K7,1621,-79.6424034,43.5665475
Take Out Only,HERMANOS MEXICAN GRILL INC.,61,LAKESHORE,RD,E,,,MISSISSAUGA,ON,L5G 1C9,1622,-79.584399,43.5522456
Take Out Only,HERO CERTIFIED BURGER,2200,EGLINTON,AVE,W,UNIT,17,MISSISSAUGA,ON,L5M 2N1 ,1623,-79.7024745,43.5596019
Take Out Only,HOLY SMOKES BBQ SANDWICHES INC,1133,DUNDAS,ST,E,Unit,2,MISSISSAUGA,ON,L4Y 2C3,1624,-79.5900168,43.6041684
Take Out Only,HOT BREADS,720,BURNHAMTHORPE,RD,W,UNIT,9B,MISSISSAUGA,ON,L5C 3G1,1625,-79.6521403,43.5777643
Take Out Only,HOT GRILL TAKE OUT INC,3899,TRELAWNY,CIR,,Unit,14,MISSISSAUGA,ON,L5M 6S3,1626,-79.7459461,43.55878
Take Out Only,INIHAW,1474,PICKWICK,DR,,Unit,4A,MISSISSAUGA,ON,L5V 2G2,1627,-79.7037018,43.5922604
Take Out Only,JAYS SANDWICHES OF THE WORLD INC,622,BLOOR,ST,,,,MISSISSAUGA,ON,L5A3V9,1628,-79.6114314,43.5992996
Take Out Only,JIMMY THE GREEK,1250,SOUTH SERVICE,RD,,Unit,F5-71,MISSISSAUGA,ON,L5E1V4,1629,-79.5691239,43.5943785
Take Out Only,JOES GREAT PIZZA,6700,MONTEVIDEO,RD,,Unit,4,MISSISSAUGA,ON,L5N 1V1,1630,-79.7583877,43.5903736
Take Out Only,JOPAPAS PIZZA & WINGS INC.,2425,TRUSCOTT,DR,,Unit,18,MISSISSAUGA,ON,L5J2B4,1631,-79.6484562,43.5124491
Take Out Only,JPS PIZZERIA INC,5980,CHURCHILL MEADOWS,BLVD,,Unit,12,MISSISSAUGA,ON,L5M 7M5,1632,-79.7566354,43.5575148
Take Out Only,KABAB SARAY SHAHYAD INC,255,DUNDAS,ST,W,Unit,7A,MISSISSAUGA,ON,L5B3B2,1633,-79.6230143,43.5751047
Take Out Only,KARACHI KITCHEN,4120,DIXIE,RD,,Unit,3,MISSISSAUGA,ON,L4W 4V8,1634,-79.6063415,43.6245207
Take Out Only,KATPAKAM SRILANKAN  INDIAN GROCERY & TAKE OUT,6970,LISGAR,DR,,Unit,B1 & 2,MISSISSAUGA,ON,L5N 8C8,1635,-79.783616,43.5762994
Take Out Only,KENTUCKY FRIED CHICKEN,1250,SOUTH SERVICE,RD,,,75,MISSISSAUGA,ON,L5E1V4,1636,-79.5691239,43.5943785
Take Out Only,KENTUCKY FRIED CHICKEN,60,DUNDAS,ST,E,Unit,7,MISSISSAUGA,ON,L5A1W4,1637,-79.613362,43.5817994
Take Out Only,KENTUCKY FRIED CHICKEN,896,BURNHAMTHORPE,RD,W,,,MISSISSAUGA,ON,L5C2S3,1638,-79.6561751,43.5744171
Take Out Only,KENTUCKY FRIED CHICKEN,965,DUNDAS,ST,E,,,MISSISSAUGA,ON,L4Y2B7,1639,-79.5972141,43.5981456
Take Out Only,KERNELS,5100,ERIN MILLS,PKWY,,Unit,R214A,MISSISSAUGA,ON,L5M 4Z5,1640,-79.71089,43.5603651
Take Out Only,KING PIZZA,510,DRIFTCURRENT,DR,,Unit,12,MISSISSAUGA,ON,L4Z 4B4,1641,-79.6463509,43.6216466
Take Out Only,KUSINA,3024,HURONTARIO,ST,,Unit,G2,MISSISSAUGA,ON,L5B 4M4,1642,-79.6171353,43.5804361
Take Out Only,LAS DELICIAS,59,DUNDAS,ST,W,,,MISSISSAUGA,ON,L5B1H7,1643,-79.6188025,43.5785828
Take Out Only,LATIN SUPER CHICKEN,17,QUEEN,ST,N,Unit,A-5,MISSISSAUGA,ON,L5N6A1,1644,-79.7228982,43.589023
Take Out Only,LAURA SECORD/HALLMARK,950,SOUTHDOWN,RD,,Unit,B-9,MISSISSAUGA,ON,L5J 2Y4,1645,-79.6263484,43.5041809
Take Out Only,LICKEN CHICKEN & SEAFOOD,3417,DERRY,RD,E,UNIT,103,MISSISSAUGA,ON,L4T 1A8,1646,-79.6365257,43.7103396
Take Out Only,LILYS PIZZA PASTA,1107,LORNE PARK,RD,,,,MISSISSAUGA,ON,L5H3A1,1647,-79.6128355,43.5319542
Take Out Only,LITTLE CAESARS PIZZA,1077,NORTH SERVICE,RD,,,,MISSISSAUGA,ON,L4Y 1A6,1648,-79.5742159,43.5926186
Take Out Only,LITTLE CAESARS PIZZA,3100,WINSTON CHURCHILL,BLVD,,Unit,7,MISSISSAUGA,ON,L5L 2V7,1649,-79.6847643,43.5242351
Take Out Only,LITTLE CAESARS PIZZA,644,BLOOR,ST,,,,MISSISSAUGA,ON,L5A 3V9,1650,-79.6114314,43.5992996
Take Out Only,LITTLE CAESARS,128,QUEEN,ST,S,Unit,23,MISSISSAUGA,ON,L5M 1K8,1651,-79.7164999,43.5828713
Take Out Only,LITTLE CAESARS,2550,HURONTARIO,ST,,Unit,6A,MISSISSAUGA,ON,L5B 1N5,1652,-79.615468,43.5790206
Take Out Only,LITTLE CAESARS,5030,TENTH,LINE,W,UNIT,8,MISSISSAUGA,ON,L5M 7Z5,1653,-79.7265929,43.545382
Take Out Only,LITTLE CAESARS,7070,SAINT BARBARA,BLVD,,Unit,42,MISSISSAUGA,ON,L5W 0E6,1654,-79.7150974,43.63918
Take Out Only,LITTLE CAESARS PIZZA,720,BRISTOL,RD,W,Unit,7,MISSISSAUGA,ON,,1655,NA,NA
Take Out Only,LITTLE CEASARS,3055,ARGENTIA,RD,,UNIT,B4,MISSISSAUGA,ON,L5N 8E1,1656,-79.7883455,43.5967872
Take Out Only,LO BANH MI NGUYET MINH,888,DUNDAS,ST,E,Unit,D3A,MISSISSAUGA,ON,L4Y4G6,1657,-79.5950857,43.5984517
Take Out Only,LOBLAWS GAS BAR,2805,EGLINTON,AVE,W,,,MISSISSAUGA,ON,L5M 6J3,1658,-79.715448,43.5533444
Take Out Only,LUCA PIZZA,3415,DIXIE,RD,,,,MISSISSAUGA,ON,L4Y 2B1,1659,-79.5952832,43.6180145
Take Out Only,LYKN CHICKEN,7460,AIRPORT,RD,,UNIT,A,MISSISSAUGA,ON,L4T2H5,1660,-79.6561751,43.7133183
Take Out Only,MACS SUSHI,5100,ERIN MILLS,PKWY,,UNIT,F2,MISSISSAUGA,ON,L5M 4Z5,1661,-79.71089,43.5603651
Take Out Only,MAKKAR BAKERS INC,7212,AIRPORT,RD,,Unit,8,MISSISSAUGA,ON,L4T 2H3,1662,-79.6523157,43.7079277
Take Out Only,MALTON SWEETS & SAMOSA FACTORY,7052,AIRPORT,RD,,Unit,7,MISSISSAUGA,ON,L4T2G8,1663,-79.6449474,43.7051805
Take Out Only,MARANELLO CAFE,286C,LAKESHORE,RD,E,,,MISSISSAUGA,ON,L5G 1H2,1664,-79.5758839,43.5610509
Take Out Only,MARBLE SLAB CREAMERY,5955,LATIMER,DR,,Unit,B2,Mississauga,ON,L5V 0B7,1665,-79.6973509,43.607805
Take Out Only,MARY B - PASTA & PIZZA,1400,AIMCO,BLVD,,Unit,Z433,MISSISSAUGA,ON,L4W 1E1,1666,-79.6221368,43.6476344
Take Out Only,MARY BROWNS FRIED CHICKEN,45,QUEEN,ST,N,Unit,4,MISSISSAUGA,ON,L5N 1A3,1667,-79.7235884,43.5896148
Take Out Only,MEENAKXY TAKE-OUT & CATERING,3419,FIELDGATE,DR,,,,MISSISSAUGA,ON,L4X2J4,1668,-79.5886124,43.6242312
Take Out Only,MEL-AND/ESSO,4885,MAVIS,RD,,,,MISSISSAUGA,ON,L5R3W4,1669,-79.6679276,43.5919804
Take Out Only,MICHAEL ANGELOS MARKET PLACE INC.,4099,ERIN MILLS,PKWY,,,,MISSISSAUGA,ON,L5L 3P9,1670,-79.6884469,43.5511919
Take Out Only,MICHELS BAGUETTE,100,CITY CENTRE,DR,,Unit,2-845,MISSISSAUGA,ON,L5B 2C9,1671,-79.6424911,43.5930784
Take Out Only,MILLWAY EURO SHAWARMA,3200,ERIN MILLS,PKWY,,Unit,2B,MISSISSAUGA,ON,L5L 1W8,1672,-79.6716109,43.5389544
Take Out Only,MISSISSAUGA NOODLE & PREFERITO CATERING,640,BLOOR,ST,,,,MISSISSAUGA,ON,L5A3V9,1673,-79.6114314,43.5992996
Take Out Only,MONA FINE FOODS,1675,THE CHASE,,,Unit,14-16,MISSISSAUGA,ON,L5M 5Y7,1674,-79.7005458,43.5652246
Take Out Only,MR. JERK,3417,DERRY,RD,E,,5C,MISSISSAUGA,ON,L4T1A8,1675,-79.6365257,43.7103396
Take Out Only,NEW JEYA BRAND,1662,BONHILL,RD,,Unit,9,MISSISSAUGA,ON,L5T 1E7,1676,-79.6554734,43.6509753
Take Out Only,NEW PIZZA KING,3421,FIELDGATE,DR,,,,MISSISSAUGA,ON,L4X 2J4,1677,-79.5886124,43.6242312
Take Out Only,NOODLE POP,645,LAKESHORE,RD,E,Unit,4,MISSISSAUGA,ON,L5G 1S2,1678,-79.5749182,43.5668324
Take Out Only,O FAROL,3635,CAWTHRA,RD,,Unit,9,MISSISSAUGA,ON,L5A 2Y5,1679,-79.6171353,43.6071729
Take Out Only,OCEANS FRESH FOOD MARKET,4557,HURONTARIO,ST,,Unit,B1,MISSISSAUGA,ON,L4Z 3M1,1680,-79.6495965,43.6062774
Take Out Only,ON-A-BUN,3663,MAVIS,RD,,UNIT ,1D,MISSISSAUGA,ON,L5C 2Z2,1681,-79.6495965,43.5792412
Take Out Only,ORANGE FISH SUSHI HOUSE,1107,LORNE PARK,RD,,Unit,15,MISSISSAUGA,ON,L5H 3A1,1682,-79.6128355,43.5319542
Take Out Only,ORGANIQUE JUICE BAR INCORPORATED,154,QUEEN,ST,S,Unit,106,MISSISSAUGA,ON,L5M 2P4,1683,-79.7151851,43.582232
Take Out Only,PALMA PASTA,3475,SEMENYK,CRT,,,,MISSISSAUGA,ON,L5C 4P9,1684,-79.6524911,43.5685825
Take Out Only,PANAGIO PIZZA,4058,CONFEDERATION,PKWY,,,,MISSISSAUGA,ON,L5B 0G4,1685,-79.6463509,43.5854084
Take Out Only,PANAGO PIZZA,3030,THOMAS,ST,,UNIT,A406,MISSISSAUGA,ON,L5M 0R4,1686,-79.7337639,43.560612
Take Out Only,PANAGO PIZZA,6956,FINANCIAL,DR,,Suite,H6,MISSISSAUGA,ON,L5N 8J4,1687,-79.7494509,43.6102165
Take Out Only,PAPA JOHNS BAKERY LTD,223,CEREMONIAL,DR,,Unit,11 &12,MISSISSAUGA,ON,L5R 2N3,1688,-79.6638933,43.604833
Take Out Only,PERFECT SUPERMARKET,3085,HURONTARIO,ST,,Unit,1,MISSISSAUGA,ON,L5A 4E4,1689,-79.6184954,43.5823063
Take Out Only,PETRO CANADA,3030,ARTESIAN,DR,,,,MISSISSAUGA,ON,L5M 7P5,1690,-79.7143962,43.5452192
Take Out Only,PETRO CANADA,4140,ERIN MILLS,PKWY,,,,MISSISSAUGA,ON,L5L 3R3,1691,-79.6907265,43.5506555
Take Out Only,PETRO CANADA,6035,CREDITVIEW,RD,,,,MISSISSAUGA,ON,,1692,NA,NA
Take Out Only,PETRO CANADA/NEIGHBOURS,450,DERRY,RD,W,,,MISSISSAUGA,ON,L5W 0A4,1693,-79.7119419,43.6368159
Take Out Only,PETRO PASS,7300,DIXIE,RD,,,,MISSISSAUGA,ON,,1694,NA,NA
Take Out Only,PHO BO VIEN,1400,AIMCO,BLVD,,Unit,Z437,MISSISSAUGA,ON,,1695,NA,NA
Take Out Only,PHO TAI LOI RESTAURANT,1550,SOUTH GATEWAY,RD,,Unit,1B,MISSISSAUGA,ON,L4W 5G6,1696,-79.61266,43.6328177
Take Out Only,PHOENIX BUBBLE TEA,1550,SOUTH GATEWAY,RD,,Unit,136,MISSISSAUGA,ON,L5N 1M1,1697,-79.73175,43.604309
Take Out Only,PINKBERRY,100,CITY CENTRE,DR,,UNIT,1-854,MISSISSAUGA,ON,L5B 2C9,1698,-79.6424911,43.5930784
Take Out Only,PIONEER / VERVE GAS,3015,THOMAS,ST,,,,MISSISSAUGA,ON,L5M 0R4,1699,-79.7337639,43.560612
Take Out Only,PITA & GRILL,4141,DIXIE,RD,,UNIT,43,MISSISSAUGA,ON,L4W 1V5,1700,-79.6045863,43.6252506
Take Out Only,PITA PIT,2400,DUNDAS,ST,W,Unit,19,MISSISSAUGA,ON,L5K 2R8,1701,-79.6751186,43.5279696
Take Out Only,PITA PIT,2400,DUNDAS,ST,W,Unit,19,MISSISSAUGA,ON,L5K 2R8,1702,-79.6751186,43.5279696
Take Out Only,PIZZA DEPOT,1075,CEREMONIAL,DR,,Unit,102,MISSISSAUGA,ON,L5R 2Z3,1703,-79.6785386,43.6072798
Take Out Only,PIZZA DEPOT,3476,GLEN ERIN,DR,,UNIT,8,MISSISSAUGA,ON,L5L 3R4,1704,-79.6877454,43.5374471
Take Out Only,PIZZA DEPOT,7171,GOREWAY,DR,,Unit,1,MISSISSAUGA,ON,L4T2T5,1705,-79.6352975,43.7165993
Take Out Only,PIZZA HOT PIZZA,3899,TRELAWNY,CIR,,Unit,19,MISSISSAUGA,ON,,1706,NA,NA
Take Out Only,PIZZA HUT,6435,ERIN MILLS,PKWY,,Unit,C 14A,MISSISSAUGA,ON,,1707,NA,NA
Take Out Only,PIZZA HUT #4301,289,DUNDAS,ST,E,Unit,1,MISSISSAUGA,ON,L5A1X1,1708,-79.6093253,43.5869267
Take Out Only,PIZZA HUT #929,1525,BRISTOL,RD,W,Unit,1,MISSISSAUGA,ON,L5M 4Z1,1709,-79.6987924,43.586169
Take Out Only,PIZZA HUT / TAKE OUT AND DELIVERY,925,RATHBURN,RD,E,Unit,B-4B1,MISSISSAUGA,ON,L4W 4C3,1710,-79.6173985,43.6158833
Take Out Only,PIZZA NOVA,2400,DUNDAS,ST,W,Unit,4,MISSISSAUGA,ON,L5K 2R8,1711,-79.6751186,43.5279696
Take Out Only,PIZZA NOVA,4099,ERIN MILLS,PKWY,,,13,MISSISSAUGA,ON,L5L3P9,1712,-79.6884469,43.5511919
Take Out Only,PIZZA NOVA #10,755,DUNDAS,ST,W,Unit,A-2,MISSISSAUGA,ON,L5C 3B6,1713,-79.635122,43.564768
Take Out Only,PIZZA NOVA #14,660,EGLINTON,AVE,W,Unit,17A,MISSISSAUGA,ON,L5R3V2,1714,-79.667226,43.593105
Take Out Only,PIZZA NOVA #52,3417,DERRY,RD,E,,100,MISSISSAUGA,ON,L4T1A8,1715,-79.6365257,43.7103396
Take Out Only,PIZZA NOVA #65,6970,LISGAR,DR,,Unit,B5,MISSISSAUGA,ON,L5N 8C8,1716,-79.783616,43.5762994
Take Out Only,PIZZA NOVA #8,3100,DIXIE,RD,,Unit,7A,MISSISSAUGA,ON,L4Y2A6,1717,-79.5866813,43.6102473
Take Out Only,PIZZA NOVA #89,1744,LAKESHORE,RD,W,Unit,4,MISSISSAUGA,ON,L5J 1J5,1718,-79.6219613,43.5179147
Take Out Only,PIZZA PIZZA  #251,2150,BURNHAMTHORPE,RD,W,Unit,21A,MISSISSAUGA,ON,L5L 3A2,1719,-79.6843258,43.5449439
Take Out Only,PIZZA PIZZA #114,1250,EGLINTON,AVE,W,,A.10,MISSISSAUGA,ON,L5V1N3,1720,-79.6828352,43.5792216
Take Out Only,PIZZA PIZZA #132,295,EGLINTON,AVE,E,,16,MISSISSAUGA,ON,L4Z3X6,1721,-79.6524911,43.6075067
Take Out Only,PIZZA PIZZA #59,6277,MISSISSAUGA,RD,,Unit,4,MISSISSAUGA,ON,L5N1A5,1722,-79.7305231,43.5954333
Take Out Only,PIZZA PIZZA #61,114,LAKESHORE,RD,E,,,MISSISSAUGA,ON,L5G1E4,1723,-79.5829945,43.5544951
Take Out Only,PIZZA PIZZA #62,710,BURNHAMTHORPE,RD,E,,,MISSISSAUGA,ON,L4Y2X3,1724,-79.6173985,43.6084592
Take Out Only,PIZZA PROS,223,CEREMONIAL,DR,,Unit,8,MISSISSAUGA,ON,L5R2N3,1725,-79.6638933,43.604833
Take Out Only,PIZZA TEN,808,BRITANNIA,RD,W,Unit,106,MISSISSAUGA,ON,L5V 0A7,1726,-79.6960747,43.6113981
Take Out Only,PIZZA-INN INC,4369,BRANDON GATE,DR,,Unit,3,MISSISSAUGA,ON,L4T 3L5,1727,-79.6271381,43.725558
Take Out Only,PIZZAVILLE,3405,SOUTH MILLWAY,,,Unit,1,MISSISSAUGA,ON,L5L 3R1,1728,-79.6770478,43.5449514
Take Out Only,PIZZAVILLE,5636,GLEN ERIN,DR,,Unit,7A,MISSISSAUGA,ON,L5M 6B1,1729,-79.7291209,43.5655842
Take Out Only,PIZZAVILLE,7025,DANTON PROM,,,Unit,4,MISSISSAUGA,ON,L5N5E5,1730,-79.7737182,43.5867777
Take Out Only,PIZZAVILLE #37,801,DUNDAS,ST,E,Unit,D-4,MISSISSAUGA,ON,L4Y4G9,1731,-79.5983551,43.5974333
Take Out Only,PIZZAVILLE (MALTON),2889,DERRY,RD,E,,,MISSISSAUGA,ON,L4T1A6,1732,-79.6440702,43.7031737
Take Out Only,PIZZAVILLE (PARKWAYS WEST),325,CENTRAL PKY,,W,Unit,56,MISSISSAUGA,ON,L5B3X9,1733,-79.6379294,43.5834511
Take Out Only,PIZZAVILLE STORE #39,960,SOUTHDOWN,RD,,Unit,C10,MISSISSAUGA,ON,L5N 6V2,1734,-79.7741562,43.5807983
Take Out Only,POLCAN MEAT & DELI,3105,WINSTON CHURCHILL,BLVD,,Unit,23,MISSISSAUGA,ON,L5L5S3,1735,-79.6837121,43.5253296
Take Out Only,POPULAR PIZZA,3200,ERIN MILLS,PKWY,,Unit,12,MISSISSAUGA,ON,L5L 1W8,1736,-79.6716109,43.5389544
Take Out Only,POPULAR PIZZA 12,17,TANNERY,ST,,Unit,3,MISSISSAUGA,ON,L5M 1V1,1737,-79.7149221,43.5810937
Take Out Only,PORT 1 CAFE & GELATERIA,1,HURONTARIO,ST,,Unit,4,MISSISSAUGA,ON,L5G 3G8,1738,-79.5829945,43.5565761
Take Out Only,POTLUCK RESTAURANT,2580,SHEPARD,AVE,,Unit,33,MISSISSAUGA,ON,L5A 4K3,1739,-79.6149415,43.5806068
Take Out Only,PREMIUM SWEETS & DESSERTS INC.,7025,TOMKEN,RD,,Unit,1,MISSISSAUGA,ON,L5S1R6,1740,-79.6849396,43.6667132
Take Out Only,PUFFIN CATERING,1635,SISMET,RD,,Unit,1 & 2,MISSISSAUGA,ON,L4W 1W5,1741,-79.6255588,43.6440151
Take Out Only,QQ BUSINESS COMPANY,1400,AIMCO,BLVD,,Unit,I473,MISSISSAUGA,ON,L4W 1E1,1742,-79.6221368,43.6476344
Take Out Only,QUESADA,5067,DIXIE,RD,,Unit,2C,Mississauga,ON,L4W 5S6,1743,-79.6203819,43.6370863
Take Out Only,QUESADA BURRITOS-TACOS,1560,DUNDAS,ST,E,Unit,4,MISSISSAUGA,ON,,1744,NA,NA
Take Out Only,RABBA FINE FOODS,4175,CONFEDERATION,PKWY,,Unit,6-7,MISSISSAUGA,ON,L5B 0C6,1745,-79.6489825,43.5890655
Take Out Only,RABBA FINE FOODS / SUBWAY,2090,HURONTARIO,ST,,,,MISSISSAUGA,ON,L5B 1M8,1746,-79.6056395,43.5721771
Take Out Only,RABBA MARKET EXPRESS,20,BRISTOL,RD,W,,,MISSISSAUGA,ON,L5R 3K3,1747,-79.6638933,43.6131493
Take Out Only,RABBA MARKET EXPRESS,4070,LIVING ARTS,DR,,Unit,1A,MISSISSAUGA,ON,L5B 0C3,1748,-79.6452105,43.5879043
Take Out Only,RABBA MARKET EXPRESS,445,EGLINTON,AVE,E,,,MISSISSAUGA,ON,L4Z 3L4,1749,-79.6430175,43.6164429
Take Out Only,RANDYS ROTI & DOUBLES,2903,DERRY,RD,E,,,MISSISSAUGA,ON,L4T1A6,1750,-79.6440702,43.7031737
Take Out Only,REAL FRUIT BUBBLE TEA,1151,DUNDAS,ST,W,Unit,20,MISSISSAUGA,ON,L5C 1C6,1751,-79.6449474,43.5567463
Take Out Only,REAL FRUIT BUBBLE TEA,377,BURNHAMTHORPE,RD,E,UNIT,54,MISSISSAUGA,ON,L3R 0Y5,1752,-79.3065913,43.8242758
Take Out Only,REAL FRUIT TAPIOCA EXPRESS,2150,BURNHAMTHORPE,RD,W,UNIT,H-23,MISSISSAUGA,ON,,1753,NA,NA
Take Out Only,REI DO CHURRASCO,2480,CAWTHRA,RD,,UNIT,7,MISSISSAUGA,ON,L5A 2X2,1754,-79.5970386,43.5917428
Take Out Only,ROBIN 341 PIZZA & WINGS,2325,HURONTARIO,ST,,Unit,6,MISSISSAUGA,ON,L5A 4C7,1755,-79.6075702,43.5751772
Take Out Only,ROCKIN PIZZA AND ICE CREAM,1,GLENN HAWTHORNE,BLVD,,Unit,3,MISSISSAUGA,ON,,1756,NA,NA
Take Out Only,ROCKY MOUNTAIN CHOCOLATE FACTORY,100,CITY CENTRE,DR,,Unit,1-860,MISSISSAUGA,ON,L5B 2C9,1757,-79.6424911,43.5930784
Take Out Only,ROTI STOP,1125,DUNDAS,ST,E,,7,MISSISSAUGA,ON,L4Y2C4,1758,-79.5910701,43.603968
Take Out Only,ROYAL PAAN,1010,DREAM CREST,RD,,Unit,4,MISSISSAUGA,ON,L5V 3V4,1759,-79.689499,43.5967648
Take Out Only,ROYAL PAAN LTD,7136,AIRPORT,RD,,,,MISSISSAUGA,ON,L4T2H1,1760,-79.6465264,43.7063621
Take Out Only,SABOR HISPANO,35,KING,ST,E,UNIT,15,MISSISSAUGA,ON,L5A 4E1,1761,-79.6138885,43.5802132
Take Out Only,SAKURA ICHIBAN EXPRESS LTD,1250,SOUTH SERVICE,RD,,UNIT,85,MISSISSAUGA,ON,L5E 1V4,1762,-79.5691239,43.5943785
Take Out Only,SBARRO,5100,ERIN MILLS,PKWY,,Unit,F012,MISSISSAUGA,ON,L5M 4Z5,1763,-79.71089,43.5603651
Take Out Only,SECOND CUP/CREDIT VALLEY HOSP.,2200,EGLINTON,AVE,W,Unit,15,MISSISSAUGA,ON,L5M2N1,1764,-79.7024745,43.5596019
Take Out Only,SELECT GRILL,1250,SOUTH SERVICE,RD,,Unit,72,MISSISSAUGA,ON,L5E1V4,1765,-79.5691239,43.5943785
Take Out Only,SEMI KOREAN &  JAPANESE RESTAURANT,2580,SHEPARD,AVE,,Unit,8,MISSISSAUGA,ON,L5A 2H6,1766,-79.6114314,43.5785025
Take Out Only,SHAHEEN FOOD CENTRE INC,3570,WOLFEDALE,RD,,,,MISSISSAUGA,ON,L5C 2V6,1767,-79.6512631,43.5727804
Take Out Only,SHANGHAI 360,5100,ERIN MILLS,PKWY,,UNIT,FC02,MISSISSAUGA,ON,L5M 4Z5,1768,-79.71089,43.5603651
Take Out Only,SHELL CANADA,1480,BRITANNIA,RD,E,,,MISSISSAUGA,ON,L4W1C8,1769,-79.6509123,43.6508561
Take Out Only,SHERIFF BROASTER CHICKEN,77,DUNDAS,ST,W,,,MISSISSAUGA,ON,L5B1H7,1770,-79.6188025,43.5785828
Take Out Only,SHIV CONVENIENCE,5695,RIVER GROVE,AVE,,,,MISSISSAUGA,ON,L5M3V8,1771,-79.7058057,43.5873997
Take Out Only,SHORT STOP BUBBLE TEA COFFEE & SNACKS,1550,SOUTH GATEWAY,RD,,Unit,5B,MISSISSAUGA,ON,L4W 5G6,1772,-79.61266,43.6328177
Take Out Only,SIN FRONTERAS,1400,AIMCO,BLVD,,Unit,Z438,MISSISSAUGA,ON,L5W 1E1,1773,-79.717727,43.6288786
Take Out Only,SINBAD,2567,HURONTARIO,ST,,,13,MISSISSAUGA,ON,L5A2G4,1774,-79.6145905,43.5796832
Take Out Only,SMOKES POUTINERIE,114,LAKESHORE,RD,E,Unit,4,MISSISSAUGA,ON,L5G 1E4,1775,-79.5829945,43.5544951
Take Out Only,SOMETHIN SWEET 4 U,5380,TERRY FOX,WAY,,Bldg,1,MISSISSAUGA,ON,L5V 2W2,1776,-79.6958116,43.6014974
Take Out Only,SOMETHIN SWEET 4 U,592,RATHBURN,RD,W,Unit,10,MISSISSAUGA,ON,L5B3A4,1777,-79.6535437,43.5841329
Take Out Only,SONGS KITCHEN,1067,DUNDAS,ST,W,,,MISSISSAUGA,ON,L5C 1C3,1778,-79.6430175,43.5582054
Take Out Only,STARBUCKS COFFEE #21784,5019,SPECTRUM,WAY,,Unit,CRU1,MISSISSAUGA,ON,L4W 5A1,1779,-79.6102029,43.6506966
Take Out Only,STOP & GO FOOD MARKET,2901,EGLINTON,AVE,W,Unit,13,MISSISSAUGA,ON,L5M 6J3,1780,-79.715448,43.5533444
Take Out Only,STOP & SHOP,5030,TENTH,LINE,W,Unit,1A,MISSISSAUGA,ON,L5M 7Z5,1781,-79.7265929,43.545382
Take Out Only,SU&SHI AT SQUARE ONE,100,CITY CENTRE,DR,,UNIT,1-825,MISSISSAUGA,ON,L5B 2C9,1782,-79.6424911,43.5930784
Take Out Only,SUBWAY,1125,BLOOR,ST,,Unit,15,MISSISSAUGA,ON,L4Y 2N6,1783,-79.6014269,43.6115997
Take Out Only,SUBWAY,2325,MATHESON,BLVD,E,Unit,2,MISSISSAUGA,ON,,1784,NA,NA
Take Out Only,SUBWAY,3065,MAVIS,RD,,,,MISSISSAUGA,ON,L5C 1T7,1785,-79.6467018,43.5780112
Take Out Only,SUBWAY 55447,1510,DUNDAS,ST,E,Unit,5,MISSISSAUGA,ON,L4X 1L4,1786,-79.5779031,43.6109261
Take Out Only,SUBWAY SANDWICH & SALADS,7215,GOREWAY,DR,,Unit,B-31,MISSISSAUGA,ON,L4T 0B4,1787,-79.6445965,43.7161148
Take Out Only,SUBWAY SANDWICHES,1151,DUNDAS,ST,W,UNIT,39,MISSISSAUGA,ON,L5C 1C6,1788,-79.6449474,43.5567463
Take Out Only,SUBWAY SANDWICHES,6970,LISGAR,DR,,UNIT,A1,MISSISSAUGA,ON,L5N 8C8,1789,-79.783616,43.5762994
Take Out Only,SULTAN EXPRESS INC,1100,DUNDAS,ST,W,Unit,5,MISSISSAUGA,ON,L5C4E7,1790,-79.6430175,43.5567188
Take Out Only,SUNRISE RESTAURANT,4141,DIXIE,RD,,Unit,4,MISSISSAUGA,ON,L4W1V5,1791,-79.6045863,43.6252506
Take Out Only,SUPER CHOICE PIZZA,2985,DREW,RD,,Suite,101,MISSISSAUGA,ON,,1792,NA,NA
Take Out Only,SUPER PIZZA - MISSISSAUGA FLEA MARKET,3092,MAVIS,RD,,UNIT,224,MISSISSAUGA,ON,,1793,NA,NA
Take Out Only,SUSHI PARK,2458,DUNDAS,ST,W,Unit,15,MISSISSAUGA,ON,L5K 1R8,1794,-79.6758202,43.5268434
Take Out Only,SWEET ANGEL CHOCOLATES,554,LAKESHORE,RD,E,,,MISSISSAUGA,ON,L5G1J3,1795,-79.5690361,43.5669606
Take Out Only,SWEETY HOUSE,1550,SOUTH GATEWAY,RD,,Unit,5D,MISSISSAUGA,ON,L4W 5G6,1796,-79.61266,43.6328177
Take Out Only,SWIRLS,17,QUEEN,ST,N,Unit,2A,MISSISSAUGA,ON,L5N6A1,1797,-79.7228982,43.589023
Take Out Only,T & T SUSHI BAR,3050,ARGENTIA,RD,,,,MISSISSAUGA,ON,L5N 8E1,1798,-79.7883455,43.5967872
Take Out Only,TACO BELL,100,CITY CENTRE,DR,,Unit,1-139,MISSISSAUGA,ON,L5B 2C9,1799,-79.6424911,43.5930784
Take Out Only,TASTE OF MEDITERRANEAN,2200,EGLINTON,AVE,W,UNIT,3,MISSISSAUGA,ON,,1800,NA,NA
Take Out Only,TAZAH TASTE INC,3041,HURONTARIO,ST,,,,MISSISSAUGA,ON,L5A2G9,1801,-79.6188025,43.5827429
Take Out Only,TEA SHOP 168,7215,GOREWAY,DR,,Unit,37 L2,MISSISSAUGA,ON,L4T 0B4,1802,-79.6445965,43.7161148
Take Out Only,TEAVANA,5100,ERIN MILLS,PKWY,,Unit,5,MISSISSAUGA,ON,L5M 4Z5,1803,-79.71089,43.5603651
Take Out Only,TEN RENS TEA,100,CITY CENTRE,DR,,UNIT,1-201,MISSISSAUGA,ON,L5B 2C9,1804,-79.6424911,43.5930784
Take Out Only,TERIYAKI EXPERIENCE,5100,ERIN MILLS,PKWY,,UNIT,F010,MISSISSAUGA,ON,L5M 4Z5,1805,-79.71089,43.5603651
Take Out Only,THAI DELIGHT RESTAURANT,6970,LISGAR,DR,,Unit,A2,MISSISSAUGA,ON,L5N 8C8,1806,-79.783616,43.5762994
Take Out Only,THAI RICE,1201,BRITANNIA,RD,W,Unit,2,MISSISSAUGA,ON,L5V1N2,1807,-79.7066823,43.6033751
Take Out Only,THANH SON TOFU,888,DUNDAS,ST,E,Unit,D3B,MISSISSAUGA,ON,L4Y4G6,1808,-79.5950857,43.5984517
Take Out Only,THE BAGEL HOUSE,235,LAKESHORE,RD,E,,,MISSISSAUGA,ON,L5G 1G8,1809,-79.5770252,43.5592979
Take Out Only,THE LUNCH BOX,562,LAKESHORE,RD,E,,,MISSISSAUGA,ON,L5G1J3,1810,-79.5690361,43.5669606
Take Out Only,THE OWLS KIMCHI KOREA,2480,CAWTHRA,RD,,Unit,23,MISSISSAUGA,ON,L5A2X2,1811,-79.5970386,43.5917428
Take Out Only,THE SANDWICH BOARD,5770,HURONTARIO,ST,,,,MISSISSAUGA,ON,L5R3G5,1812,-79.6749432,43.620837
Take Out Only,THE SANDWICH BOARD,5995,AVEBURY,RD,,,,MISSISSAUGA,ON,L5R3P9,1813,-79.6807308,43.6235905
Take Out Only,THE SOCIAL CUPCAKE INC,129,LAKESHORE,RD,E,Unit,B,MISSISSAUGA,ON,L5G 1E5,1814,-79.5819412,43.5543984
Take Out Only,THE WINGERY,510,DRIFTCURRENT,DR,,Unit,14,MISSISSAUGA,ON,,1815,NA,NA
Take Out Only,THE WINGERY SOUTHDOWN,970,SOUTHDOWN,RD,,UNIT,D5,MISSISSAUGA,ON,L5J 2Y6,1816,-79.6272258,43.5094691
Take Out Only,THREE FOR TWO PIZZA & WINGS,4646,HERITAGE HILLS,BLVD,,Unit,13,MISSISSAUGA,ON,L5R3K5,1817,-79.6800293,43.6104599
Take Out Only,TIKI MING RESTAURANT,1250,SOUTH SERVICE,RD,,Unit,70,MISSISSAUGA,ON,L5E1V4,1818,-79.5691239,43.5943785
Take Out Only,TIM HORTON,4530,ERIN MILLS,PKWY,,,,MISSISSAUGA,ON,L5M 4L9,1819,-79.7019485,43.5561348
Take Out Only,TIM HORTON DONUTS,2980,ARGENTIA,RD,,,,MISSISSAUGA,ON,L5N 8C5,1820,-79.7809884,43.5976109
Take Out Only,TIM HORTON DONUTS,4011,DIXIE,RD,,,,MISSISSAUGA,ON,L4W 1M3,1821,-79.6028311,43.6236053
Take Out Only,TIM HORTON DONUTS,4040,CREDITVIEW,RD,,,,MISSISSAUGA,ON,L5C4E3,1822,-79.6675768,43.5687679
Take Out Only,TIM HORTON DONUTS,6677,MEADOWVALE TOWN CENTRE,CIR,,,,MISSISSAUGA,ON,L5N2R5,1823,-79.759439,43.5833356
Take Out Only,TIM HORTON DONUTS,7025,MILLCREEK,DR,,,,MISSISSAUGA,ON,L5N3R3,1824,-79.7617168,43.5991428
Take Out Only,TIM HORTON DONUTS,780,BANCROFT,DR,,,,MISSISSAUGA,ON,L5V 2Y6,1825,-79.7031758,43.6167204
Take Out Only,TIM HORTON DONUTS/ESSO,3445,HURONTARIO,ST,,,,MISSISSAUGA,ON,L5A2H4,1826,-79.6279277,43.5895199
Take Out Only,TIM HORTONS,7280,DIXIE,RD,,,,MISSISSAUGA,ON,L5S1E1,1827,-79.683186,43.678716
Take Out Only,TIM HORTONS,100,CITY CENTRE,DR,,Unit,726,MISSISSAUGA,ON,L5B 2C9,1828,-79.6424911,43.5930784
Take Out Only,TIM HORTONS,150,LAKESHORE,RD,E,,,MISSISSAUGA,ON,L5G 1E9,1829,-79.5812389,43.5561176
Take Out Only,TIM HORTONS,1500,DUNDAS,ST,E,,,MISSISSAUGA,ON,,1830,NA,NA
Take Out Only,TIM HORTONS,1715,BLOOR,ST,,,,MISSISSAUGA,ON,L4X1S5,1831,-79.5875591,43.6238377
Take Out Only,TIM HORTONS,450,DERRY,RD,W,,,MISSISSAUGA,ON,L5W 1V5,1832,-79.7152727,43.6357819
Take Out Only,TIM HORTONS,480,DERRY,RD,E,,,MISSISSAUGA,ON,L5T2P3,1833,-79.6949349,43.6550109
Take Out Only,TIM HORTONS,5980,HURONTARIO,ST,,,,MISSISSAUGA,ON,L5R3T6,1834,-79.6793278,43.6246506
Take Out Only,TIM HORTONS,6313,MISSISSAUGA,RD,,,,MISSISSAUGA,ON,L5N1A4,1835,-79.7275433,43.592638
Take Out Only,TIM HORTONS,632,BURNHAMTHORPE,RD,W,,,MISSISSAUGA,ON,L5B 2C4,1836,-79.6491579,43.5803156
Take Out Only,TIM HORTONS,7030,MCLAUGHLIN,RD,,,,MISSISSAUGA,ON,L5W 1W7,1837,-79.7179023,43.6364655
Take Out Only,TIM HORTONS KIOSK / CREDIT VALLEY HOSPITAL,2200,EGLINTON,AVE,W,Unit,15,MISSISSAUGA,ON,L5M2N1,1838,-79.7024745,43.5596019
Take Out Only,TIM HORTONS/WOMEN & CHILDREN LOBBY KIOSK/CREDIT VALLEY HOSPITAL,2200,EGLINTON,AVE,W,Unit,15,MISSISSAUGA,ON,L5M2N1,1839,-79.7024745,43.5596019
Take Out Only,TOP GRILL SHAWARMA,1900,LAKESHORE,RD,W,Unit,6,MISSISSAUGA,ON,L5J 1J7,1840,-79.625471,43.514665
Take Out Only,TOWN & COUNTRY MARKET,3885,DUKE OF YORK,BLVD,,Unit,1-3,MISSISSAUGA,ON,L5B 0E4,1841,-79.6399471,43.5875724
Take Out Only,TOWN AND COUNTRY MARKET,3355,HURONTARIO,ST,,Unit,8,MISSISSAUGA,ON,L5A4E7,1842,-79.625822,43.5875447
Take Out Only,TWICE THE DEAL PIZZA,3115,WINSTON CHURCHILL,BLVD,,Unit,3,MISSISSAUGA,ON,L5L 2W1,1843,-79.6849396,43.5258875
Take Out Only,UPTOWN CAFE,1900,MINNESOTA,CT,,,,MISSISSAUGA,ON,L5N3C9,1844,-79.7417401,43.6041726
Take Out Only,VANAGI SNACKS,1585,BRITANNIA,RD,E,UNIT,A1,MISSISSAUGA,ON,L4W 2M4,1845,-79.6465264,43.6580226
Take Out Only,VEGGIE FLAMES INC,7210,AIRPORT,RD,,Suite,7,MISSISSAUGA,ON,L4T 2H3,1846,-79.6523157,43.7079277
Take Out Only,VILLA MADINA,100,CITY CENTRE,DR,,Unit,1-133,MISSISSAUGA,ON,L5B 2T4,1847,-79.6414384,43.5891199
Take Out Only,WAL-MART SUPERCENTRE #1061,800,MATHESON,BLVD,W,,,MISSISSAUGA,ON,L5V 2N6,1848,-79.6903758,43.6070934
Take Out Only,WARRAICH MEATS,2970,DREW,RD,,UNIT,109,MISSISSAUGA,ON,L4T 0A6,1849,-79.6538669,43.709541
Take Out Only,WHAT A GREAT BAGEL,1310,DUNDAS,ST,E,Unit,3,MISSISSAUGA,ON,L4Y2C1,1850,-79.5880858,43.6044367
Take Out Only,WINGS UP,3030,THOMAS,ST,,Unit,A-401,MISSISSAUGA,ON,L5M 5G5,1851,-79.7226353,43.5678215
Take Out Only,WOK FOR U,3221,DERRY,RD,W,Unit,22A,MISSISSAUGA,ON,L5B 1H4,1852,-79.6166965,43.5795787
Take Out Only,WOK TO GO,896,BURNHAMTHORPE,RD,W,Unit,1,MISSISSAUGA,ON,L5C2S3,1853,-79.6561751,43.5744171
Take Out Only,WORLD VEGAN FOOD,5915,ATLANTIC,DR,,Unit,1,MISSISSAUGA,ON,L4W 1S4,1854,-79.6407366,43.6585326
Take Out Only,WOW! FRESH JUICE,7215,GOREWAY,DR,,UNIT,112,MISSISSAUGA,ON,L4T 2T8,1855,-79.6400348,43.7207362
Take Out Only,WRAP-A-BITE,377,BURNHAMTHORPE,RD,E,Unit,4A,MISSISSAUGA,ON,L5A 3Y1,1856,-79.6266994,43.6026272
Take Out Only,YEH! FROZEN YOGURT,59,LAKESHORE,RD,E,,,MISSISSAUGA,ON,L5G1C9,1857,-79.584399,43.5522456
Take Out Only,YOGURTYS,1250,SOUTH SERVICE,RD,,Unit,87,MISSISSAUGA,ON,L5E 1V4,1858,-79.5691239,43.5943785
Take Out Only,ZEERAH,3050,ARTESIAN,DR,,Unit,16,MISSISSAUGA,ON,L5V 2J9,1859,-79.7003705,43.5962665
Take Out Only,ZITAS CHURRASQUEIRA,5425,CREDITVIEW,RD,,Unit,13,MISSISSAUGA,ON,L5V 2P5,1860,-79.6947596,43.6100163
,,,,,,,,,,,1861,NA,NA
